{"type":"FeatureCollection","features":[{"type":"Feature","properties":{"c":"forest"},"geometry":{"type":"Polygon","coordinates":[[[79.90511,7.55766],[79.90641,7.55786],[79.90897,7.55733],[79.90897,7.55318],[79.90607,7.55324],[79.90511,7.55766]]]}},{"type":"Feature","properties":{"c":"farmland"},"geometry":{"type":"Polygon","coordinates":[[[79.93474,7.52458],[79.93509,7.5254],[79.93529,7.52539],[79.93535,7.525],[79.93542,7.52497],[79.93551,7.52456],[79.93542,7.52448],[79.93474,7.52458]]]}},{"type":"Feature","properties":{"c":"heath"},"geometry":{"type":"Polygon","coordinates":[[[79.93471,7.52456],[79.93545,7.52444],[79.93534,7.52402],[79.93522,7.5239],[79.93526,7.52367],[79.93501,7.52358],[79.93473,7.52373],[79.93471,7.52456]]]}},{"type":"Feature","properties":{"c":"farmland"},"geometry":{"type":"Polygon","coordinates":[[[79.95156,7.45194],[79.95172,7.45214],[79.95202,7.45237],[79.95194,7.45252],[79.95202,7.45256],[79.95217,7.45286],[79.95231,7.45285],[79.95241,7.4534],[79.95258,7.4535],[79.9526,7.45357],[79.95261,7.45376],[79.95246,7.45391],[79.95298,7.45405],[79.95299,7.45107],[79.95253,7.45102],[79.95232,7.45091],[79.95156,7.45194]]]}},{"type":"Feature","properties":{"c":"farmland"},"geometry":{"type":"Polygon","coordinates":[[[79.94887,7.45001],[79.94955,7.4502],[79.94952,7.45031],[79.9496,7.45038],[79.95072,7.45103],[79.95081,7.45115],[79.95076,7.45118],[79.95082,7.45129],[79.95081,7.45149],[79.95128,7.45169],[79.9513,7.45177],[79.95156,7.45194],[79.95232,7.45091],[79.95223,7.45081],[79.95211,7.45079],[79.95209,7.45068],[79.95203,7.45068],[79.95181,7.45042],[79.95152,7.45032],[79.95067,7.44966],[79.949,7.44964],[79.94887,7.45001]]]}},{"type":"Feature","properties":{"c":"farmland"},"geometry":{"type":"Polygon","coordinates":[[[79.94779,7.44963],[79.9488,7.44998],[79.94894,7.44964],[79.94779,7.44963]]]}},{"type":"Feature","properties":{"c":"forest"},"geometry":{"type":"Polygon","coordinates":[[[79.97501,7.5124],[79.97506,7.51249],[79.97502,7.51267],[79.97514,7.51276],[79.97518,7.51287],[79.97518,7.51297],[79.97504,7.51301],[79.97504,7.51329],[79.97555,7.51342],[79.97555,7.51355],[79.97565,7.51358],[79.97562,7.51368],[79.97569,7.51382],[79.97595,7.51391],[79.97603,7.51406],[79.97623,7.51405],[79.97621,7.51418],[79.97629,7.51425],[79.97628,7.51432],[79.97621,7.51434],[79.976,7.51431],[79.97584,7.5142],[79.97584,7.51408],[79.97552,7.5141],[79.97555,7.51424],[79.97544,7.51427],[79.97544,7.51437],[79.97525,7.51452],[79.97506,7.51449],[79.97517,7.51494],[79.97581,7.51495],[79.9757,7.51481],[79.97577,7.51453],[79.97594,7.51462],[79.97606,7.51459],[79.97619,7.51466],[79.97638,7.51466],[79.97656,7.51448],[79.97674,7.51488],[79.97681,7.51488],[79.9769,7.51477],[79.97696,7.5144],[79.97697,7.51426],[79.97686,7.51402],[79.97667,7.514],[79.97665,7.51395],[79.97655,7.51395],[79.97646,7.51381],[79.97594,7.51362],[79.97599,7.51323],[79.97604,7.51317],[79.97595,7.51309],[79.97595,7.51292],[79.97563,7.51264],[79.97564,7.5123],[79.97504,7.5123],[79.97501,7.5124]]]}},{"type":"Feature","properties":{"c":"forest"},"geometry":{"type":"Polygon","coordinates":[[[79.97726,7.51253],[79.97746,7.51313],[79.97763,7.51318],[79.97765,7.51325],[79.9777,7.51327],[79.97772,7.51226],[79.97727,7.51228],[79.97726,7.51253]]]}},{"type":"Feature","properties":{"c":"forest"},"geometry":{"type":"Polygon","coordinates":[[[79.97648,7.51298],[79.9765,7.51325],[79.97662,7.51325],[79.97671,7.51317],[79.9766,7.51295],[79.97648,7.51298]]]}},{"type":"Feature","properties":{"c":"forest"},"geometry":{"type":"Polygon","coordinates":[[[79.97657,7.51354],[79.97664,7.5136],[79.97675,7.51351],[79.97666,7.51345],[79.97657,7.51354]]]}},{"type":"Feature","properties":{"c":"farmland"},"geometry":{"type":"Polygon","coordinates":[[[79.938,7.51295],[79.93818,7.51495],[79.93867,7.51495],[79.93864,7.51458],[79.93858,7.5144],[79.93853,7.51355],[79.93861,7.51284],[79.93869,7.51273],[79.93874,7.51246],[79.93863,7.51205],[79.93869,7.51183],[79.93864,7.51135],[79.9383,7.51134],[79.93822,7.51138],[79.93804,7.5117],[79.93808,7.51249],[79.938,7.51295]]]}},{"type":"Feature","properties":{"c":"farmland","n":"Irrigable Area Multiiple Anicuts"},"geometry":{"type":"Polygon","coordinates":[[[79.98429,7.52186],[79.98436,7.52213],[79.98452,7.52239],[79.98533,7.52308],[79.9859,7.52268],[79.98606,7.52273],[79.9861,7.52235],[79.98618,7.52216],[79.98641,7.52213],[79.98675,7.52224],[79.98723,7.52261],[79.98707,7.52286],[79.98703,7.52323],[79.9872,7.52354],[79.98799,7.52355],[79.9884,7.52337],[79.98863,7.52347],[79.98929,7.52318],[79.98903,7.52245],[79.98867,7.52192],[79.98885,7.52149],[79.98902,7.52122],[79.98916,7.52047],[79.98798,7.51998],[79.9877,7.51971],[79.98721,7.51958],[79.98629,7.51955],[79.98598,7.51941],[79.98564,7.51914],[79.98532,7.5191],[79.98501,7.51986],[79.98487,7.52008],[79.98459,7.52021],[79.98447,7.52047],[79.98458,7.52088],[79.9845,7.52124],[79.98433,7.52137],[79.98429,7.52186]]]}},{"type":"Feature","properties":{"c":"farmland","n":"Irrigable Area Multiiple Anicuts"},"geometry":{"type":"Polygon","coordinates":[[[79.97661,7.51893],[79.97728,7.51964],[79.97801,7.5192],[79.9787,7.51941],[79.97914,7.51948],[79.97941,7.51941],[79.97998,7.51994],[79.98036,7.52013],[79.98057,7.52076],[79.98078,7.52117],[79.98099,7.52128],[79.98155,7.52134],[79.98188,7.52175],[79.9825,7.52213],[79.98267,7.5223],[79.98301,7.52214],[79.98361,7.52202],[79.98407,7.52209],[79.98394,7.52067],[79.98441,7.51977],[79.98435,7.51937],[79.98398,7.51916],[79.98291,7.51883],[79.98266,7.51864],[79.98222,7.51853],[79.98198,7.51853],[79.98178,7.51846],[79.98134,7.51809],[79.9804,7.51783],[79.97961,7.51783],[79.9794,7.51795],[79.97916,7.51799],[79.979,7.51773],[79.97856,7.51753],[79.97837,7.51727],[79.97826,7.51699],[79.97802,7.51686],[79.97793,7.51706],[79.97807,7.51812],[79.97801,7.51838],[79.97733,7.51863],[79.97723,7.51878],[79.97701,7.51877],[79.9769,7.51861],[79.97664,7.5188],[79.97661,7.51893]]]}},{"type":"Feature","properties":{"c":"farmland","n":"Irrigable Area Multiiple Anicuts"},"geometry":{"type":"Polygon","coordinates":[[[79.97517,7.51059],[79.97506,7.51128],[79.97527,7.51143],[79.97554,7.51218],[79.97564,7.5123],[79.97563,7.51264],[79.97595,7.51292],[79.97595,7.51309],[79.97604,7.51317],[79.97599,7.51323],[79.97594,7.51362],[79.97646,7.51381],[79.97655,7.51395],[79.97665,7.51395],[79.97667,7.514],[79.97686,7.51402],[79.97697,7.51426],[79.9769,7.51477],[79.97681,7.51488],[79.97674,7.51488],[79.97656,7.51448],[79.97638,7.51466],[79.97619,7.51466],[79.97606,7.51459],[79.97594,7.51462],[79.97577,7.51453],[79.9757,7.51481],[79.97581,7.51495],[79.97568,7.51497],[79.9765,7.51545],[79.97716,7.51593],[79.97751,7.51627],[79.97811,7.51643],[79.97833,7.51658],[79.97861,7.51723],[79.97881,7.51733],[79.979,7.51728],[79.97925,7.51696],[79.97969,7.51661],[79.97995,7.51657],[79.98029,7.51659],[79.98059,7.51668],[79.98071,7.51604],[79.98092,7.51584],[79.98097,7.51559],[79.98083,7.51556],[79.98067,7.5157],[79.9804,7.51581],[79.98022,7.51576],[79.97995,7.51541],[79.97972,7.51479],[79.97941,7.51431],[79.97918,7.51407],[79.97797,7.51346],[79.97746,7.51313],[79.97726,7.51253],[79.97727,7.51228],[79.97737,7.51228],[79.97699,7.51163],[79.97675,7.51133],[79.97594,7.51066],[79.97574,7.51056],[79.97545,7.51049],[79.97517,7.51059]],[[79.97648,7.51298],[79.9766,7.51295],[79.97671,7.51317],[79.97662,7.51325],[79.9765,7.51325],[79.97648,7.51298]],[[79.97657,7.51354],[79.97666,7.51345],[79.97675,7.51351],[79.97664,7.5136],[79.97657,7.51354]]]}},{"type":"Feature","properties":{"c":"farmland","n":"Irrigable Area Multiiple Anicuts"},"geometry":{"type":"Polygon","coordinates":[[[79.9717,7.51487],[79.972,7.51524],[79.97227,7.5151],[79.97245,7.51507],[79.97279,7.51524],[79.97303,7.51544],[79.97302,7.51623],[79.97347,7.5163],[79.97363,7.51628],[79.97366,7.51633],[79.97378,7.51635],[79.97383,7.51611],[79.97394,7.51612],[79.97424,7.51623],[79.97453,7.51647],[79.97482,7.5164],[79.97479,7.51628],[79.97444,7.51589],[79.97433,7.51568],[79.97445,7.51558],[79.9745,7.51561],[79.97464,7.51538],[79.97458,7.51508],[79.9747,7.51482],[79.97514,7.51484],[79.97506,7.51449],[79.97525,7.51452],[79.97544,7.51437],[79.97544,7.51427],[79.97555,7.51424],[79.97552,7.5141],[79.97584,7.51408],[79.97584,7.5142],[79.9759,7.51426],[79.97621,7.51434],[79.97628,7.51432],[79.97628,7.51422],[79.97621,7.51418],[79.97623,7.51405],[79.97616,7.51403],[79.97605,7.51408],[79.97584,7.51389],[79.9757,7.51383],[79.97561,7.5136],[79.97549,7.51345],[79.9752,7.51332],[79.97508,7.51333],[79.97501,7.51328],[79.97503,7.51316],[79.97468,7.51316],[79.97436,7.513],[79.97418,7.51284],[79.97365,7.51258],[79.97337,7.51234],[79.97295,7.51214],[79.97275,7.51226],[79.97266,7.51247],[79.97245,7.51256],[79.97251,7.51317],[79.97244,7.51394],[79.97235,7.51417],[79.97206,7.51455],[79.97184,7.5147],[79.9717,7.51487]]]}},{"type":"Feature","properties":{"c":"farmland","n":"Irrigable Area Multiiple Anicuts"},"geometry":{"type":"Polygon","coordinates":[[[79.96925,7.51353],[79.96946,7.51367],[79.96979,7.51373],[79.97025,7.51335],[79.97047,7.51231],[79.97067,7.51209],[79.9709,7.51195],[79.9712,7.51207],[79.97139,7.51186],[79.97139,7.51164],[79.97151,7.51147],[79.97159,7.51111],[79.97145,7.51083],[79.97126,7.51069],[79.97089,7.51077],[79.97069,7.51072],[79.97053,7.51061],[79.97037,7.51041],[79.97019,7.5101],[79.97025,7.50981],[79.97047,7.50964],[79.97049,7.50945],[79.97003,7.50912],[79.96968,7.50917],[79.96931,7.50939],[79.96958,7.5101],[79.9698,7.51053],[79.9701,7.51083],[79.97023,7.51124],[79.97015,7.51199],[79.97002,7.51239],[79.9698,7.51267],[79.96958,7.5127],[79.96939,7.51331],[79.96925,7.51353]]]}},{"type":"Feature","properties":{"c":"farmland","n":"Irrigable Area Multiiple Anicuts"},"geometry":{"type":"Polygon","coordinates":[[[79.96931,7.50549],[79.9694,7.50728],[79.96978,7.50766],[79.96968,7.50834],[79.96983,7.50859],[79.97007,7.50885],[79.97069,7.50936],[79.97075,7.50956],[79.97069,7.50979],[79.97052,7.50993],[79.97051,7.51013],[79.97074,7.5105],[79.97106,7.51046],[79.97146,7.51059],[79.9717,7.51097],[79.9718,7.51142],[79.97201,7.51166],[79.97256,7.51197],[79.97309,7.51194],[79.97377,7.51249],[79.97454,7.51283],[79.97481,7.51289],[79.97509,7.51284],[79.9753,7.51273],[79.9754,7.5125],[79.97433,7.51178],[79.97372,7.51076],[79.97306,7.51015],[79.97263,7.50949],[79.97223,7.50852],[79.97196,7.50768],[79.97194,7.50701],[79.97231,7.50726],[79.97246,7.50717],[79.9724,7.50595],[79.97271,7.50571],[79.97292,7.50577],[79.97286,7.50531],[79.97266,7.50507],[79.97241,7.50526],[79.97234,7.50548],[79.97204,7.50579],[79.97181,7.50588],[79.97153,7.50561],[79.97128,7.50549],[79.96983,7.505],[79.96931,7.50549]]]}},{"type":"Feature","properties":{"c":"farmland","n":"Irrigable Area Multiiple Anicuts"},"geometry":{"type":"Polygon","coordinates":[[[79.96807,7.50718],[79.96839,7.50743],[79.96849,7.50758],[79.96918,7.50885],[79.96941,7.50917],[79.96963,7.50907],[79.96977,7.50895],[79.9694,7.50834],[79.96907,7.50822],[79.96894,7.50801],[79.9688,7.50728],[79.96838,7.50663],[79.9682,7.50663],[79.96807,7.50718]]]}},{"type":"Feature","properties":{"c":"farmland","n":"Irrigable Area Multiiple Anicuts"},"geometry":{"type":"Polygon","coordinates":[[[79.97072,7.50036],[79.97074,7.50054],[79.971,7.50097],[79.97144,7.50147],[79.97161,7.50174],[79.97193,7.50196],[79.97259,7.50193],[79.97279,7.50208],[79.97286,7.5023],[79.97266,7.50288],[79.97271,7.50309],[79.97301,7.50316],[79.97349,7.50308],[79.97345,7.50295],[79.97331,7.50283],[79.97318,7.50256],[79.97322,7.50222],[79.97352,7.50216],[79.97391,7.50222],[79.97417,7.50214],[79.97366,7.5013],[79.97338,7.50072],[79.97323,7.50011],[79.97331,7.49987],[79.97363,7.49933],[79.97387,7.49882],[79.97384,7.49817],[79.97346,7.49812],[79.97318,7.49819],[79.97269,7.4981],[79.9717,7.49958],[79.97115,7.4999],[79.97072,7.50036]]]}},{"type":"Feature","properties":{"c":"farmland","n":"Irrigable Area Multiiple Anicuts"},"geometry":{"type":"Polygon","coordinates":[[[79.95871,7.50197],[79.95911,7.50206],[79.95954,7.50225],[79.95968,7.50238],[79.96077,7.50234],[79.96218,7.50277],[79.96273,7.5033],[79.96374,7.50405],[79.96404,7.50422],[79.9643,7.50448],[79.96446,7.50473],[79.96462,7.50483],[79.96456,7.50528],[79.96485,7.50537],[79.9652,7.50516],[79.9655,7.50487],[79.96577,7.50499],[79.96601,7.50496],[79.96728,7.50567],[79.96742,7.50548],[79.96734,7.50478],[79.96762,7.50478],[79.96772,7.50482],[79.96782,7.50464],[79.96774,7.50433],[79.96759,7.50399],[79.96794,7.50366],[79.96751,7.50333],[79.96724,7.50297],[79.96706,7.50251],[79.96698,7.50213],[79.96671,7.50181],[79.96665,7.50147],[79.96715,7.50116],[79.96698,7.5006],[79.96656,7.50071],[79.96546,7.50051],[79.96475,7.50031],[79.96396,7.50056],[79.96354,7.50098],[79.96317,7.50101],[79.96238,7.50081],[79.96197,7.50078],[79.96115,7.50061],[79.96099,7.50049],[79.96078,7.50049],[79.96006,7.50062],[79.95962,7.50087],[79.95898,7.50139],[79.95882,7.50162],[79.95871,7.50197]]]}},{"type":"Feature","properties":{"c":"farmland","n":"Irrigable Area Multiiple Anicuts"},"geometry":{"type":"Polygon","coordinates":[[[79.95783,7.50267],[79.95825,7.50301],[79.95864,7.50321],[79.95889,7.50344],[79.95923,7.50337],[79.95958,7.50303],[79.95963,7.50282],[79.95937,7.50241],[79.95886,7.50225],[79.95872,7.50227],[79.95852,7.50246],[79.95818,7.50262],[79.95794,7.50257],[79.95783,7.50267]]]}},{"type":"Feature","properties":{"c":"farmland","n":"Irrigable Area Multiiple Anicuts"},"geometry":{"type":"Polygon","coordinates":[[[79.95611,7.49964],[79.9565,7.5004],[79.95691,7.50083],[79.95702,7.50123],[79.95712,7.50143],[79.95756,7.50178],[79.95763,7.50197],[79.95787,7.50233],[79.95822,7.5023],[79.95854,7.50217],[79.95845,7.50144],[79.95853,7.50116],[79.9589,7.50082],[79.9596,7.5005],[79.9603,7.50036],[79.96084,7.50017],[79.96073,7.49942],[79.9609,7.49872],[79.96085,7.49836],[79.96059,7.49814],[79.96006,7.49811],[79.95957,7.4982],[79.95917,7.49815],[79.95872,7.49821],[79.9585,7.49846],[79.9584,7.49867],[79.95815,7.49878],[79.95797,7.49874],[79.9577,7.49855],[79.9574,7.49822],[79.95722,7.49837],[79.95719,7.49869],[79.95727,7.49896],[79.9572,7.4992],[79.9564,7.49939],[79.95614,7.49937],[79.95611,7.49964]]]}},{"type":"Feature","properties":{"c":"farmland","n":"Irrigable Area"},"geometry":{"type":"Polygon","coordinates":[[[79.95561,7.50254],[79.95588,7.50275],[79.95608,7.50234],[79.9563,7.50216],[79.95676,7.50207],[79.95678,7.50166],[79.95684,7.50151],[79.95698,7.50145],[79.95687,7.50128],[79.95685,7.50104],[79.95672,7.5007],[79.95653,7.50054],[79.95622,7.50003],[79.95596,7.49989],[79.95584,7.49993],[79.95578,7.50044],[79.95599,7.50065],[79.95609,7.50097],[79.95599,7.50106],[79.95626,7.50143],[79.95631,7.50162],[79.95561,7.50254]]]}},{"type":"Feature","properties":{"c":"farmland","n":"Irrigable Area Multiiple Anicuts"},"geometry":{"type":"Polygon","coordinates":[[[79.94969,7.49545],[79.95036,7.49542],[79.95052,7.49561],[79.95072,7.49622],[79.9509,7.49641],[79.95144,7.49672],[79.95166,7.4971],[79.95197,7.49714],[79.95265,7.49709],[79.95316,7.49723],[79.95409,7.4983],[79.95454,7.4983],[79.95491,7.49844],[79.95474,7.49856],[79.95439,7.4987],[79.95416,7.49893],[79.95443,7.49926],[79.95513,7.49915],[79.9555,7.4989],[79.95625,7.49906],[79.95669,7.4991],[79.95695,7.49893],[79.95709,7.49872],[79.95711,7.49841],[79.95724,7.49813],[79.95753,7.49813],[79.95784,7.49852],[79.95813,7.49863],[79.95843,7.49817],[79.95857,7.49805],[79.9592,7.49791],[79.96005,7.49802],[79.96076,7.49788],[79.96051,7.49759],[79.95991,7.49735],[79.95942,7.49728],[79.95857,7.49727],[79.95808,7.49717],[79.95776,7.49687],[79.95759,7.49664],[79.95732,7.49644],[79.95716,7.49619],[79.95704,7.49564],[79.95688,7.49541],[79.95628,7.49542],[79.9559,7.4951],[79.95557,7.495],[79.95511,7.49495],[79.95453,7.49499],[79.95358,7.4952],[79.95315,7.49521],[79.95219,7.49547],[79.95196,7.49546],[79.95173,7.49537],[79.95159,7.49521],[79.95117,7.4951],[79.95094,7.49509],[79.95066,7.49515],[79.95023,7.49498],[79.94971,7.49513],[79.94969,7.49545]]]}},{"type":"Feature","properties":{"c":"farmland","n":"Irrigable Area Multiiple Anicuts"},"geometry":{"type":"Polygon","coordinates":[[[79.95034,7.49472],[79.95057,7.49498],[79.95103,7.49482],[79.95139,7.49482],[79.95161,7.49495],[79.95173,7.49522],[79.95198,7.49532],[79.95253,7.49515],[79.95277,7.49485],[79.95284,7.49459],[79.95234,7.49382],[79.95244,7.4934],[79.95272,7.49303],[79.95312,7.49277],[79.95349,7.49265],[79.95353,7.49242],[79.95342,7.49228],[79.95331,7.49201],[79.95342,7.49166],[79.95342,7.49122],[79.95282,7.49144],[79.95273,7.49201],[79.95262,7.49227],[79.95181,7.49253],[79.95123,7.49219],[79.95108,7.49238],[79.95111,7.49256],[79.95102,7.49292],[79.95129,7.49341],[79.95121,7.49361],[79.95163,7.4942],[79.95148,7.49441],[79.95094,7.49416],[79.95056,7.49416],[79.95039,7.49449],[79.95034,7.49472]]]}},{"type":"Feature","properties":{"c":"farmland","n":"Irrigable Area Multiiple Anicuts"},"geometry":{"type":"Polygon","coordinates":[[[79.94066,7.49673],[79.94119,7.49693],[79.94132,7.49736],[79.94217,7.4975],[79.94245,7.49783],[79.94298,7.49794],[79.94341,7.49792],[79.94371,7.49799],[79.94407,7.498],[79.9443,7.49796],[79.94501,7.49747],[79.94521,7.49714],[79.9449,7.49699],[79.94477,7.49639],[79.94402,7.49578],[79.94392,7.49556],[79.944,7.49533],[79.94427,7.49507],[79.94411,7.49496],[79.94369,7.495],[79.9434,7.49491],[79.94283,7.49426],[79.94268,7.49403],[79.94241,7.494],[79.94206,7.49423],[79.94192,7.4944],[79.94138,7.49457],[79.94108,7.49474],[79.94099,7.49507],[79.94097,7.49596],[79.9407,7.49655],[79.94066,7.49673]]]}},{"type":"Feature","properties":{"c":"farmland","n":"Irrigable Area Multiiple Anicuts"},"geometry":{"type":"Polygon","coordinates":[[[79.92905,7.49424],[79.92971,7.49488],[79.93015,7.49506],[79.93067,7.49516],[79.93153,7.49523],[79.93174,7.49529],[79.93199,7.49546],[79.93237,7.49508],[79.93242,7.49435],[79.93285,7.49458],[79.93311,7.49456],[79.93341,7.49445],[79.93364,7.49446],[79.93395,7.49474],[79.93444,7.49508],[79.9346,7.49513],[79.93516,7.49505],[79.93551,7.49483],[79.93573,7.49464],[79.93541,7.49423],[79.93471,7.49393],[79.93437,7.49383],[79.93384,7.49386],[79.93357,7.49393],[79.93302,7.49398],[79.9326,7.49371],[79.93221,7.49323],[79.932,7.49255],[79.93178,7.49239],[79.93141,7.49282],[79.93101,7.49304],[79.93029,7.49319],[79.93002,7.49305],[79.92973,7.49299],[79.92959,7.49329],[79.92954,7.49356],[79.92928,7.49371],[79.92905,7.49424]]]}},{"type":"Feature","properties":{"c":"farmland","n":"Irrigable Area Multiiple Anicuts"},"geometry":{"type":"Polygon","coordinates":[[[79.92995,7.50123],[79.92998,7.50141],[79.93019,7.50161],[79.93057,7.50156],[79.93075,7.5014],[79.93104,7.50149],[79.93111,7.50155],[79.93134,7.50214],[79.9318,7.50188],[79.93229,7.50175],[79.93248,7.50209],[79.93267,7.50231],[79.93292,7.50243],[79.93319,7.50225],[79.9328,7.50216],[79.93267,7.50182],[79.93268,7.5017],[79.93278,7.50161],[79.93284,7.50145],[79.93305,7.50134],[79.9334,7.50149],[79.93359,7.50132],[79.9337,7.50095],[79.93334,7.50074],[79.93332,7.5006],[79.93367,7.50003],[79.93387,7.50034],[79.93384,7.50091],[79.93394,7.5012],[79.93474,7.50213],[79.93494,7.50251],[79.93499,7.5028],[79.9345,7.50292],[79.9347,7.50309],[79.9347,7.50365],[79.93491,7.50389],[79.93525,7.504],[79.93569,7.50389],[79.93597,7.50374],[79.9359,7.50357],[79.93568,7.50338],[79.9356,7.50316],[79.93564,7.50297],[79.93573,7.50284],[79.93598,7.50272],[79.93641,7.50265],[79.9368,7.5025],[79.93711,7.50246],[79.93717,7.5023],[79.9374,7.50223],[79.93764,7.50196],[79.93771,7.50173],[79.93796,7.50155],[79.93863,7.50149],[79.93886,7.50159],[79.93906,7.50148],[79.93907,7.50128],[79.93933,7.5011],[79.93936,7.50096],[79.93931,7.50082],[79.93937,7.50068],[79.93988,7.50031],[79.94047,7.50008],[79.94073,7.5005],[79.94157,7.50008],[79.94197,7.49995],[79.9422,7.4999],[79.94271,7.50001],[79.94305,7.50012],[79.94358,7.5004],[79.94348,7.50048],[79.94366,7.50073],[79.94401,7.50089],[79.94467,7.50105],[79.9454,7.50115],[79.94658,7.50144],[79.94682,7.50141],[79.94699,7.5012],[79.94753,7.5009],[79.94776,7.50071],[79.94747,7.50037],[79.94698,7.50039],[79.94676,7.50031],[79.94652,7.4999],[79.94632,7.4997],[79.94434,7.49832],[79.9436,7.49814],[79.9421,7.49809],[79.94148,7.49788],[79.94113,7.4976],[79.94083,7.49708],[79.9406,7.497],[79.93966,7.49733],[79.93853,7.49742],[79.93754,7.49697],[79.93618,7.4962],[79.93568,7.49581],[79.93496,7.4959],[79.93261,7.49673],[79.93238,7.49703],[79.93224,7.49733],[79.93182,7.49789],[79.93132,7.49797],[79.93098,7.49797],[79.9307,7.49815],[79.93056,7.49838],[79.93056,7.49875],[79.93033,7.49941],[79.93033,7.49976],[79.93045,7.5005],[79.93043,7.50089],[79.93028,7.50119],[79.92995,7.50123]],[[79.93268,7.499],[79.933,7.49879],[79.93323,7.49875],[79.93347,7.49879],[79.93392,7.4987],[79.9342,7.49879],[79.93449,7.49874],[79.93489,7.49855],[79.93487,7.49872],[79.93479,7.49884],[79.93458,7.49897],[79.93428,7.49905],[79.93367,7.49907],[79.93315,7.49916],[79.9329,7.49915],[79.93268,7.499]],[[79.93456,7.50073],[79.93466,7.50048],[79.93466,7.50027],[79.93491,7.49981],[79.93531,7.49986],[79.93512,7.50007],[79.93503,7.50046],[79.93505,7.5007],[79.93538,7.50105],[79.93517,7.50138],[79.9349,7.50104],[79.93456,7.50073]],[[79.93538,7.50168],[79.93595,7.50088],[79.93605,7.50108],[79.93632,7.50137],[79.93664,7.50149],[79.93569,7.50211],[79.93538,7.50168]],[[79.93691,7.49945],[79.93696,7.49932],[79.93746,7.49914],[79.9381,7.49877],[79.93795,7.49953],[79.93775,7.49978],[79.9375,7.49973],[79.93691,7.49945]],[[79.93851,7.49882],[79.93859,7.49865],[79.93894,7.49867],[79.93914,7.49855],[79.9394,7.49869],[79.93943,7.49876],[79.93943,7.49887],[79.93939,7.49889],[79.93902,7.49887],[79.93898,7.49882],[79.93851,7.49882]]]}},{"type":"Feature","properties":{"c":"farmland","n":"Irrigable Area Multiiple Anicuts"},"geometry":{"type":"Polygon","coordinates":[[[79.94754,7.50029],[79.94782,7.50063],[79.94808,7.50059],[79.94827,7.50048],[79.94832,7.49997],[79.94809,7.49991],[79.94813,7.49973],[79.94808,7.49956],[79.94792,7.49959],[79.94785,7.49975],[79.94785,7.49988],[79.94772,7.50011],[79.94754,7.50029]]]}},{"type":"Feature","properties":{"c":"farmland","n":"Irrigable Area Multiiple Anicuts"},"geometry":{"type":"Polygon","coordinates":[[[79.94473,7.49817],[79.94473,7.49836],[79.94505,7.49868],[79.94566,7.49918],[79.9459,7.49931],[79.94616,7.49937],[79.94643,7.49834],[79.94638,7.49819],[79.94623,7.49809],[79.94615,7.49813],[79.94609,7.49835],[79.94594,7.4985],[79.94581,7.49855],[79.94532,7.49849],[79.94544,7.4982],[79.94544,7.49801],[79.94537,7.49795],[79.94506,7.49789],[79.9449,7.49796],[79.94473,7.49817]]]}},{"type":"Feature","properties":{"c":"farmland","n":"Irrigable Area Multiiple Anicuts"},"geometry":{"type":"Polygon","coordinates":[[[79.94754,7.49807],[79.94813,7.49803],[79.94849,7.49814],[79.94871,7.49814],[79.9493,7.49806],[79.94919,7.49775],[79.94945,7.49763],[79.94939,7.49742],[79.94928,7.49728],[79.94889,7.49729],[79.94886,7.49715],[79.94899,7.49711],[79.94893,7.49675],[79.94907,7.49658],[79.95011,7.49653],[79.95028,7.49611],[79.9502,7.49596],[79.95002,7.49596],[79.94969,7.49608],[79.94924,7.49633],[79.94927,7.49591],[79.94919,7.49571],[79.94899,7.49555],[79.94895,7.4958],[79.94885,7.49598],[79.94857,7.49628],[79.94776,7.49619],[79.94775,7.49663],[79.94789,7.49676],[79.94811,7.4968],[79.94821,7.49689],[79.94783,7.49778],[79.94754,7.49807]]]}},{"type":"Feature","properties":{"c":"farmland","n":"Irrigable Area Multiiple Anicuts"},"geometry":{"type":"Polygon","coordinates":[[[79.95027,7.49876],[79.95068,7.49926],[79.95111,7.4996],[79.95132,7.49969],[79.95184,7.49976],[79.95236,7.50006],[79.95271,7.49992],[79.95296,7.49987],[79.95306,7.4997],[79.95256,7.4994],[79.95221,7.49911],[79.95158,7.49887],[79.95115,7.49852],[79.95059,7.49826],[79.95051,7.4985],[79.95027,7.49876]]]}},{"type":"Feature","properties":{"c":"farmland","n":"Irrigable Area Galkissa Anicut"},"geometry":{"type":"Polygon","coordinates":[[[79.92288,7.49297],[79.9232,7.49319],[79.92391,7.49342],[79.92411,7.49378],[79.92422,7.49383],[79.92476,7.49378],[79.92516,7.49397],[79.92522,7.49418],[79.9247,7.49439],[79.92509,7.49488],[79.9253,7.49558],[79.92526,7.4959],[79.92483,7.4962],[79.92522,7.49649],[79.9253,7.49666],[79.92558,7.49692],[79.92603,7.49705],[79.92659,7.49732],[79.92667,7.49769],[79.9265,7.49811],[79.92646,7.49839],[79.92667,7.49858],[79.92691,7.49894],[79.92704,7.49931],[79.92713,7.49939],[79.92696,7.49935],[79.92689,7.49941],[79.92664,7.49922],[79.9265,7.49924],[79.92663,7.49944],[79.92655,7.49965],[79.92659,7.49975],[79.92674,7.49978],[79.92684,7.49986],[79.92728,7.50045],[79.92788,7.5006],[79.92815,7.50081],[79.92838,7.50082],[79.92857,7.50072],[79.92879,7.50038],[79.92879,7.50028],[79.92864,7.49996],[79.92888,7.49992],[79.92909,7.50001],[79.92926,7.50038],[79.9296,7.50042],[79.9299,7.50054],[79.92995,7.50042],[79.92983,7.49983],[79.92987,7.49928],[79.92997,7.49896],[79.93009,7.49873],[79.93021,7.49862],[79.9303,7.4984],[79.93025,7.49823],[79.9297,7.49837],[79.92982,7.49797],[79.92973,7.49784],[79.93009,7.49781],[79.9303,7.49764],[79.93027,7.49738],[79.93047,7.49752],[79.93062,7.4974],[79.93087,7.49708],[79.93135,7.49672],[79.93176,7.49647],[79.93234,7.49622],[79.93187,7.49592],[79.93183,7.49565],[79.9317,7.49545],[79.93147,7.49541],[79.93102,7.49543],[79.93072,7.49533],[79.93035,7.49532],[79.92984,7.49507],[79.92953,7.49499],[79.92926,7.49475],[79.929,7.49441],[79.92883,7.49433],[79.92908,7.49413],[79.92918,7.49373],[79.92908,7.49361],[79.9289,7.49352],[79.92888,7.49322],[79.92924,7.49211],[79.92903,7.49209],[79.92862,7.49226],[79.92842,7.49239],[79.92829,7.49294],[79.92811,7.49295],[79.92792,7.49276],[79.92774,7.49238],[79.92752,7.49223],[79.92773,7.49186],[79.92765,7.49173],[79.92732,7.4922],[79.92715,7.49218],[79.92713,7.49161],[79.92696,7.49113],[79.92685,7.49105],[79.92628,7.49086],[79.92605,7.49055],[79.92545,7.49015],[79.92521,7.48964],[79.92504,7.48946],[79.92488,7.48943],[79.92474,7.48948],[79.92414,7.48994],[79.92397,7.49],[79.9241,7.49043],[79.92436,7.4904],[79.92456,7.49071],[79.92454,7.49087],[79.92435,7.49099],[79.92363,7.49129],[79.92347,7.4916],[79.92347,7.49185],[79.92341,7.49196],[79.92317,7.49205],[79.92304,7.49227],[79.92301,7.49265],[79.92288,7.49297]],[[79.92532,7.49371],[79.9257,7.49364],[79.92663,7.49386],[79.92667,7.49427],[79.92689,7.49442],[79.9271,7.49497],[79.92748,7.49541],[79.92755,7.49566],[79.92747,7.49587],[79.92722,7.49586],[79.92715,7.49596],[79.9271,7.49669],[79.927,7.4968],[79.92629,7.49604],[79.92615,7.49574],[79.92616,7.49552],[79.92607,7.49499],[79.92593,7.49474],[79.92563,7.49436],[79.92541,7.49396],[79.92532,7.49371]],[[79.92809,7.49639],[79.92829,7.4961],[79.92849,7.49563],[79.92868,7.49557],[79.92885,7.49565],[79.92894,7.49578],[79.92938,7.49615],[79.92985,7.4971],[79.92984,7.49736],[79.92961,7.4975],[79.92962,7.49774],[79.92927,7.49746],[79.92849,7.49708],[79.92844,7.49663],[79.92809,7.49639]]]}},{"type":"Feature","properties":{"c":"farmland"},"geometry":{"type":"Polygon","coordinates":[[[79.98431,7.51118],[79.98516,7.51259],[79.98546,7.51265],[79.98599,7.51266],[79.98623,7.51249],[79.98715,7.51231],[79.98725,7.51217],[79.98725,7.51185],[79.98685,7.51191],[79.98681,7.51181],[79.98655,7.51195],[79.98587,7.51136],[79.98576,7.51144],[79.98564,7.51126],[79.98548,7.5113],[79.98531,7.51122],[79.98518,7.51127],[79.98505,7.51123],[79.98494,7.51131],[79.98431,7.51118]]]}},{"type":"Feature","properties":{"c":"farmland"},"geometry":{"type":"Polygon","coordinates":[[[79.98374,7.51185],[79.98377,7.51211],[79.98389,7.51226],[79.98407,7.51236],[79.98418,7.51229],[79.98501,7.5126],[79.98431,7.51118],[79.98414,7.5111],[79.98402,7.51138],[79.9839,7.51129],[79.98374,7.51185]]]}},{"type":"Feature","properties":{"c":"farmland"},"geometry":{"type":"Polygon","coordinates":[[[79.98294,7.51097],[79.98319,7.51111],[79.9834,7.51137],[79.98368,7.51147],[79.98396,7.51109],[79.98434,7.51098],[79.98413,7.51081],[79.9838,7.51029],[79.98346,7.51065],[79.98311,7.51073],[79.98294,7.51097]]]}},{"type":"Feature","properties":{"c":"farmland"},"geometry":{"type":"Polygon","coordinates":[[[79.98377,7.51029],[79.9844,7.51099],[79.98486,7.51086],[79.98486,7.51057],[79.98471,7.51035],[79.98435,7.51023],[79.98425,7.51007],[79.98392,7.50998],[79.98378,7.51016],[79.98377,7.51029]]]}},{"type":"Feature","properties":{"c":"farmland"},"geometry":{"type":"Polygon","coordinates":[[[79.98611,7.51265],[79.98625,7.5128],[79.98624,7.51306],[79.98649,7.513],[79.98677,7.513],[79.98677,7.51247],[79.98631,7.51256],[79.98611,7.51265]]]}},{"type":"Feature","properties":{"c":"farmland"},"geometry":{"type":"Polygon","coordinates":[[[79.98375,7.49982],[79.98392,7.49996],[79.98437,7.49976],[79.9848,7.49964],[79.98486,7.49953],[79.98473,7.49956],[79.98453,7.4995],[79.98446,7.49944],[79.98375,7.49982]]]}},{"type":"Feature","properties":{"c":"farmland"},"geometry":{"type":"Polygon","coordinates":[[[79.98384,7.49831],[79.984,7.49859],[79.98434,7.49885],[79.98469,7.49841],[79.98521,7.49842],[79.9857,7.49796],[79.98553,7.49746],[79.98521,7.49756],[79.98472,7.49758],[79.98418,7.49777],[79.98393,7.49801],[79.98384,7.49831]]]}},{"type":"Feature","properties":{"c":"industrial","n":"Bingiriya Export Processing Zone"},"geometry":{"type":"Polygon","coordinates":[[[79.91987,7.52468],[79.9199,7.52481],[79.92044,7.5248],[79.92042,7.52632],[79.9205,7.52737],[79.92116,7.52792],[79.92134,7.52823],[79.92169,7.52838],[79.92181,7.52851],[79.9219,7.52883],[79.92295,7.52877],[79.92336,7.52986],[79.92373,7.53022],[79.92437,7.53129],[79.9241,7.53151],[79.92437,7.53174],[79.92549,7.5321],[79.92611,7.53216],[79.92675,7.53209],[79.92689,7.53237],[79.92624,7.53343],[79.92652,7.5347],[79.92712,7.53517],[79.9286,7.53452],[79.9298,7.5344],[79.92976,7.5334],[79.92849,7.53335],[79.92798,7.53311],[79.92733,7.53233],[79.92685,7.52967],[79.92568,7.5271],[79.92489,7.52475],[79.92458,7.52327],[79.92443,7.52287],[79.92419,7.52256],[79.92376,7.52224],[79.92317,7.52205],[79.92254,7.52209],[79.9199,7.52304],[79.91994,7.52358],[79.91987,7.52468]]]}},{"type":"Feature","properties":{"c":"farmland","n":"paddy field land"},"geometry":{"type":"Polygon","coordinates":[[[79.93321,7.50392],[79.93334,7.504],[79.93334,7.50419],[79.93348,7.50426],[79.93348,7.50438],[79.93426,7.50452],[79.93471,7.50495],[79.93517,7.50553],[79.93561,7.50584],[79.93603,7.50629],[79.93656,7.50726],[79.93671,7.50804],[79.9367,7.50874],[79.93684,7.50886],[79.93697,7.50919],[79.93755,7.50937],[79.9376,7.50911],[79.93799,7.50913],[79.93834,7.50908],[79.9384,7.50889],[79.9384,7.50834],[79.9383,7.50792],[79.93816,7.50768],[79.93798,7.50756],[79.93783,7.50736],[79.93791,7.50702],[79.93917,7.50636],[79.93917,7.50619],[79.93906,7.50596],[79.93896,7.50538],[79.93867,7.50554],[79.93827,7.50563],[79.938,7.50563],[79.93733,7.50543],[79.93683,7.5049],[79.93637,7.50426],[79.93609,7.50397],[79.93504,7.50417],[79.93466,7.50404],[79.9345,7.50408],[79.93455,7.50391],[79.93447,7.50361],[79.9346,7.50355],[79.9346,7.50338],[79.93453,7.50321],[79.93434,7.50346],[79.93397,7.50335],[79.93377,7.5031],[79.93377,7.50294],[79.93368,7.50275],[79.93347,7.50275],[79.93339,7.5029],[79.9334,7.50317],[79.93332,7.50356],[79.93323,7.50374],[79.93321,7.50392]]]}},{"type":"Feature","properties":{"c":"farmland","n":"paddy field land"},"geometry":{"type":"Polygon","coordinates":[[[79.93918,7.50531],[79.93934,7.50606],[79.93949,7.50634],[79.93982,7.5064],[79.94012,7.5066],[79.94079,7.50674],[79.94112,7.50708],[79.94181,7.50764],[79.94274,7.50809],[79.9433,7.50829],[79.94368,7.50878],[79.94406,7.50917],[79.94411,7.50944],[79.94457,7.50928],[79.94502,7.50929],[79.94526,7.50893],[79.94539,7.50819],[79.94529,7.50753],[79.94514,7.50742],[79.94509,7.50717],[79.94471,7.50702],[79.94467,7.50684],[79.94498,7.50681],[79.94541,7.50688],[79.94565,7.50709],[79.94617,7.50713],[79.94617,7.50662],[79.94603,7.50649],[79.94598,7.50615],[79.94569,7.50605],[79.94558,7.50589],[79.9455,7.50564],[79.94509,7.5058],[79.94495,7.50598],[79.94414,7.50597],[79.94391,7.50604],[79.9437,7.50622],[79.94296,7.50644],[79.94289,7.50624],[79.94268,7.50609],[79.9424,7.50603],[79.9418,7.50599],[79.94146,7.50575],[79.94122,7.50545],[79.94102,7.50508],[79.94102,7.50494],[79.94071,7.50465],[79.94067,7.50435],[79.94076,7.50397],[79.94076,7.50361],[79.94058,7.50352],[79.94013,7.50352],[79.93974,7.50378],[79.9395,7.50411],[79.93934,7.50457],[79.93944,7.5051],[79.9393,7.50531],[79.93918,7.50531]]]}},{"type":"Feature","properties":{"c":"farmland","n":"paddy field"},"geometry":{"type":"Polygon","coordinates":[[[79.93908,7.518],[79.93916,7.5181],[79.9392,7.51836],[79.93962,7.51874],[79.93982,7.51882],[79.94009,7.51904],[79.94031,7.51917],[79.94062,7.51923],[79.94098,7.5195],[79.941,7.51958],[79.94122,7.51937],[79.94125,7.51928],[79.94077,7.51897],[79.94053,7.5189],[79.94029,7.51859],[79.93982,7.51821],[79.93958,7.5179],[79.93947,7.51766],[79.93912,7.51788],[79.93908,7.518]]]}},{"type":"Feature","properties":{"c":"farmland","n":"paddy field land"},"geometry":{"type":"Polygon","coordinates":[[[79.9351,7.52054],[79.9351,7.52083],[79.93515,7.52095],[79.93545,7.52087],[79.93577,7.52088],[79.93601,7.52054],[79.93643,7.52031],[79.93681,7.51989],[79.93737,7.51943],[79.93763,7.51906],[79.938,7.51877],[79.93863,7.51818],[79.93898,7.51775],[79.93975,7.51737],[79.93974,7.51689],[79.93955,7.51627],[79.93889,7.51635],[79.93892,7.51593],[79.93879,7.51549],[79.93862,7.51518],[79.93861,7.51504],[79.93821,7.51505],[79.93822,7.51565],[79.93815,7.51594],[79.93834,7.51628],[79.93823,7.51694],[79.93808,7.51706],[79.93808,7.51736],[79.93762,7.51827],[79.93751,7.51868],[79.93697,7.51922],[79.93632,7.51974],[79.93584,7.52019],[79.9351,7.52054]]]}},{"type":"Feature","properties":{"c":"farmland"},"geometry":{"type":"Polygon","coordinates":[[[79.92942,7.53707],[79.92984,7.5371],[79.93056,7.53733],[79.93091,7.53739],[79.93121,7.53738],[79.93132,7.53712],[79.93169,7.53709],[79.93205,7.53698],[79.9323,7.53709],[79.93222,7.53746],[79.93228,7.53753],[79.93246,7.53756],[79.93258,7.53732],[79.9326,7.53704],[79.93284,7.53668],[79.9336,7.5363],[79.9338,7.53637],[79.93506,7.53609],[79.935,7.53591],[79.93527,7.53577],[79.93539,7.53579],[79.93548,7.53589],[79.93551,7.53605],[79.93622,7.53611],[79.93635,7.53622],[79.9366,7.53627],[79.93697,7.53616],[79.93772,7.53626],[79.93825,7.53618],[79.93843,7.53639],[79.93946,7.53673],[79.94003,7.53698],[79.9403,7.5373],[79.94055,7.53739],[79.94075,7.53718],[79.94108,7.53724],[79.94114,7.53705],[79.94073,7.53667],[79.93976,7.53619],[79.93894,7.53601],[79.93648,7.53561],[79.93609,7.53567],[79.93515,7.5355],[79.93466,7.53554],[79.93436,7.5356],[79.93409,7.53573],[79.93382,7.53576],[79.9336,7.53586],[79.93338,7.53603],[79.93282,7.53609],[79.93248,7.53632],[79.93202,7.53651],[79.93181,7.53651],[79.93149,7.53643],[79.93135,7.53643],[79.93116,7.53653],[79.93016,7.53644],[79.92959,7.53611],[79.92945,7.53657],[79.92942,7.53707]]]}},{"type":"Feature","properties":{"c":"farmland"},"geometry":{"type":"Polygon","coordinates":[[[79.94124,7.53812],[79.94159,7.53831],[79.942,7.53845],[79.94243,7.53842],[79.9427,7.53866],[79.94301,7.53815],[79.94305,7.53697],[79.94249,7.5369],[79.94216,7.53711],[79.94137,7.53683],[79.94132,7.5373],[79.94146,7.5375],[79.94124,7.53812]]]}},{"type":"Feature","properties":{"c":"farmland","n":"Irrigable Area Multiiple Anicuts"},"geometry":{"type":"Polygon","coordinates":[[[79.94734,7.50937],[79.94734,7.50997],[79.94789,7.51011],[79.94817,7.51001],[79.9483,7.5099],[79.9484,7.51007],[79.94846,7.51102],[79.94855,7.5115],[79.94873,7.51201],[79.94883,7.51216],[79.94902,7.51204],[79.94887,7.51182],[79.9487,7.51111],[79.94889,7.51006],[79.94903,7.50997],[79.94928,7.50992],[79.94948,7.50971],[79.94962,7.50979],[79.95034,7.51002],[79.95054,7.51014],[79.95064,7.51008],[79.95078,7.51016],[79.95088,7.51008],[79.9509,7.50997],[79.95089,7.50985],[79.95078,7.50975],[79.95071,7.50973],[79.9506,7.50979],[79.95056,7.50972],[79.95057,7.50954],[79.9505,7.50943],[79.95019,7.50933],[79.95004,7.50917],[79.95004,7.50894],[79.94979,7.50899],[79.94942,7.50884],[79.94916,7.50863],[79.94866,7.5088],[79.94828,7.50876],[79.94791,7.5088],[79.94785,7.50887],[79.94783,7.50917],[79.94771,7.50941],[79.94734,7.50937]]]}},{"type":"Feature","properties":{"c":"farmland","n":"Irrigable Area Multiiple Anicuts"},"geometry":{"type":"Polygon","coordinates":[[[79.94912,7.50852],[79.94946,7.50873],[79.94965,7.50876],[79.94975,7.50885],[79.94984,7.50886],[79.95007,7.50875],[79.95016,7.50881],[79.95023,7.50911],[79.95041,7.50919],[79.9506,7.50938],[79.95072,7.50942],[79.95076,7.50963],[79.95087,7.50968],[79.95117,7.50957],[79.95144,7.50962],[79.95147,7.50969],[79.95141,7.50976],[79.9513,7.50977],[79.95121,7.50971],[79.95119,7.50978],[79.95137,7.5099],[79.95185,7.5104],[79.95212,7.51053],[79.95218,7.5105],[79.95213,7.51075],[79.95217,7.51091],[79.95228,7.51108],[79.95244,7.51101],[79.95233,7.51061],[79.95239,7.51046],[79.95282,7.51034],[79.95319,7.51058],[79.95346,7.51057],[79.95354,7.51068],[79.95378,7.5108],[79.95383,7.51072],[79.95399,7.51011],[79.95386,7.51001],[79.95344,7.50987],[79.9531,7.50983],[79.95274,7.50969],[79.95251,7.50944],[79.95203,7.50929],[79.95164,7.50905],[79.95123,7.50901],[79.95108,7.50917],[79.95099,7.50913],[79.95098,7.50902],[79.95084,7.50913],[79.95078,7.50912],[79.95081,7.50898],[79.95057,7.50892],[79.95053,7.50875],[79.95032,7.50843],[79.95016,7.50846],[79.94999,7.5086],[79.94993,7.50849],[79.95004,7.50831],[79.94998,7.50818],[79.95004,7.50809],[79.95049,7.5079],[79.95048,7.50779],[79.9496,7.5076],[79.94939,7.50775],[79.94956,7.50788],[79.94956,7.50799],[79.94912,7.50852]]]}},{"type":"Feature","properties":{"c":"farmland","n":"Irrigable Area Multiiple Anicuts"},"geometry":{"type":"Polygon","coordinates":[[[79.95129,7.51078],[79.95177,7.51093],[79.95215,7.5113],[79.95213,7.51135],[79.95188,7.51145],[79.95167,7.51173],[79.95167,7.51229],[79.95187,7.51298],[79.95183,7.51309],[79.9519,7.51342],[79.95234,7.5137],[79.95274,7.51366],[79.95239,7.5127],[79.95217,7.51224],[79.95249,7.51167],[79.9525,7.51127],[79.95257,7.51114],[79.95225,7.51116],[79.95186,7.51064],[79.95137,7.51018],[79.95139,7.51051],[79.95129,7.51078]]]}},{"type":"Feature","properties":{"c":"farmland","n":"Irrigable Area Multiiple Anicuts"},"geometry":{"type":"Polygon","coordinates":[[[79.95106,7.51563],[79.95107,7.51594],[79.95185,7.51604],[79.95235,7.51596],[79.9524,7.51553],[79.95229,7.51548],[79.95235,7.51527],[79.95273,7.51514],[79.95305,7.51517],[79.95358,7.51552],[79.95416,7.5156],[79.9544,7.51555],[79.95459,7.51566],[79.95478,7.51565],[79.95491,7.51574],[79.95505,7.516],[79.95516,7.51587],[79.95499,7.51545],[79.95478,7.51544],[79.95476,7.51514],[79.95454,7.5148],[79.95405,7.51461],[79.95407,7.51448],[79.95421,7.51426],[79.95431,7.51355],[79.95426,7.51346],[79.95443,7.51303],[79.95453,7.51305],[79.95456,7.51289],[79.9547,7.51275],[79.95531,7.51283],[79.9557,7.51261],[79.95617,7.51156],[79.95598,7.51108],[79.95551,7.51113],[79.95529,7.51131],[79.95528,7.5112],[79.95519,7.5111],[79.95473,7.51079],[79.95453,7.51059],[79.95434,7.51049],[79.95426,7.51061],[79.95405,7.51047],[79.9542,7.51031],[79.9541,7.51014],[79.95403,7.51021],[79.95383,7.51091],[79.95445,7.51138],[79.95476,7.51203],[79.95463,7.5124],[79.95426,7.51278],[79.95413,7.51275],[79.95386,7.51248],[79.95367,7.51256],[79.95362,7.51266],[79.95355,7.51268],[79.9535,7.51264],[79.95351,7.51237],[79.95356,7.51231],[79.9535,7.51224],[79.95351,7.51211],[79.95334,7.51202],[79.95323,7.51172],[79.95326,7.51163],[79.95313,7.51154],[79.95303,7.51173],[79.95314,7.51186],[79.95312,7.51195],[79.95302,7.51193],[79.95298,7.51211],[79.95303,7.51217],[79.95316,7.5122],[79.9532,7.51235],[79.95318,7.51243],[79.95324,7.51257],[79.95309,7.51268],[79.95307,7.51287],[79.95326,7.51329],[79.95322,7.51349],[79.95315,7.51357],[79.95294,7.51366],[79.95236,7.51376],[79.95193,7.51348],[79.9518,7.51386],[79.95171,7.51453],[79.9513,7.51502],[79.95131,7.51565],[79.95106,7.51563]]]}},{"type":"Feature","properties":{"c":"farmland"},"geometry":{"type":"Polygon","coordinates":[[[79.92351,7.53272],[79.92357,7.53327],[79.92382,7.53332],[79.92408,7.53328],[79.92433,7.534],[79.92426,7.53444],[79.92496,7.53428],[79.92523,7.535],[79.92538,7.53521],[79.92515,7.53537],[79.92496,7.53562],[79.92498,7.53588],[79.92537,7.53667],[79.9253,7.53692],[79.92516,7.53716],[79.92526,7.53742],[79.9257,7.53796],[79.92567,7.5385],[79.92584,7.53872],[79.92561,7.5389],[79.92575,7.53901],[79.92592,7.53896],[79.92601,7.53918],[79.926,7.53954],[79.9258,7.53945],[79.9257,7.53979],[79.92556,7.53977],[79.92539,7.53998],[79.92539,7.54032],[79.92561,7.54067],[79.92543,7.54117],[79.92567,7.54191],[79.92586,7.54223],[79.92565,7.54252],[79.92562,7.5428],[79.92742,7.54282],[79.92758,7.54214],[79.92798,7.54179],[79.92839,7.54181],[79.92877,7.54159],[79.92882,7.54149],[79.92919,7.54143],[79.9296,7.54114],[79.92984,7.54114],[79.93009,7.54099],[79.93008,7.54079],[79.92936,7.54087],[79.92907,7.54081],[79.92901,7.54113],[79.92845,7.54119],[79.92832,7.5408],[79.92835,7.54064],[79.92802,7.54065],[79.92808,7.54107],[79.92785,7.54118],[79.9275,7.54108],[79.92735,7.54093],[79.92741,7.54068],[79.92754,7.54058],[79.92745,7.54039],[79.92744,7.53999],[79.92767,7.53985],[79.92771,7.53962],[79.92759,7.53953],[79.92762,7.53932],[79.92739,7.53935],[79.92736,7.53913],[79.9272,7.53897],[79.92691,7.53888],[79.92703,7.53848],[79.92693,7.53816],[79.92744,7.53819],[79.92778,7.53816],[79.92785,7.53794],[79.9275,7.53781],[79.92768,7.53773],[79.92769,7.53737],[79.92806,7.53729],[79.92828,7.53719],[79.92822,7.53694],[79.92751,7.53702],[79.92738,7.53684],[79.92712,7.53676],[79.92719,7.53633],[79.9277,7.53613],[79.92729,7.53573],[79.9271,7.53527],[79.92632,7.53452],[79.92634,7.53422],[79.92623,7.53383],[79.92555,7.53394],[79.92545,7.53415],[79.92427,7.53323],[79.92423,7.53251],[79.92397,7.53237],[79.92366,7.53233],[79.92351,7.53272]]]}},{"type":"Feature","properties":{"c":"orchard"},"geometry":{"type":"Polygon","coordinates":[[[79.95168,7.52722],[79.95275,7.52821],[79.95356,7.52952],[79.95398,7.53009],[79.9545,7.52985],[79.95516,7.5298],[79.9557,7.52989],[79.95595,7.5302],[79.95711,7.53061],[79.95743,7.53069],[79.95782,7.53067],[79.95814,7.53075],[79.95848,7.5303],[79.95843,7.52943],[79.95937,7.52862],[79.96003,7.5272],[79.96007,7.52656],[79.96066,7.52607],[79.96087,7.52564],[79.96073,7.52457],[79.96084,7.52413],[79.96076,7.52349],[79.96054,7.5226],[79.96023,7.52176],[79.95949,7.52131],[79.95909,7.5213],[79.95908,7.52157],[79.95879,7.52177],[79.95851,7.5221],[79.95819,7.52199],[79.95821,7.52144],[79.95835,7.52127],[79.95834,7.52061],[79.95806,7.51977],[79.9567,7.52018],[79.9564,7.52007],[79.95626,7.5199],[79.95409,7.51998],[79.95421,7.52133],[79.95414,7.52141],[79.95318,7.52154],[79.95289,7.52305],[79.9528,7.52566],[79.9526,7.52585],[79.95266,7.52659],[79.95168,7.52722]]]}},{"type":"Feature","properties":{"c":"orchard"},"geometry":{"type":"Polygon","coordinates":[[[79.93781,7.535],[79.93866,7.53514],[79.9391,7.53497],[79.9411,7.53456],[79.94103,7.53359],[79.94116,7.53353],[79.94162,7.53372],[79.94178,7.53352],[79.94181,7.53294],[79.94163,7.53238],[79.93807,7.53244],[79.93781,7.535]]]}}]}