{"type":"FeatureCollection","features":[{"type":"Feature","properties":{"c":"quarry"},"geometry":{"type":"Polygon","coordinates":[[[80.26367,7.41181],[80.26387,7.41246],[80.26449,7.41307],[80.26426,7.41422],[80.26447,7.41434],[80.26495,7.41333],[80.26576,7.41319],[80.26655,7.41221],[80.26727,7.41195],[80.26755,7.41117],[80.26693,7.41074],[80.26612,7.41029],[80.26505,7.40989],[80.26367,7.41181]]]}},{"type":"Feature","properties":{"c":"meadow","n":"School Play Ground"},"geometry":{"type":"Polygon","coordinates":[[[80.29338,7.46114],[80.29338,7.46136],[80.29347,7.46169],[80.29369,7.46196],[80.29385,7.46203],[80.29404,7.46202],[80.29416,7.46195],[80.2942,7.46187],[80.29405,7.46123],[80.29381,7.46095],[80.29371,7.4609],[80.29345,7.46097],[80.29338,7.46114]]]}},{"type":"Feature","properties":{"c":"quarry"},"geometry":{"type":"Polygon","coordinates":[[[80.25658,7.44599],[80.25676,7.44626],[80.25685,7.44631],[80.25761,7.44632],[80.25815,7.4462],[80.25863,7.44594],[80.25884,7.44592],[80.25946,7.44561],[80.25985,7.44573],[80.26005,7.44563],[80.26024,7.44539],[80.26053,7.44525],[80.26079,7.44488],[80.26082,7.44457],[80.26092,7.44426],[80.2613,7.44349],[80.26143,7.44284],[80.2621,7.44137],[80.26278,7.44024],[80.26324,7.43869],[80.26324,7.43838],[80.26312,7.43819],[80.26281,7.43806],[80.26181,7.43784],[80.26159,7.43786],[80.2613,7.43803],[80.2607,7.43888],[80.25988,7.4395],[80.25925,7.44016],[80.25912,7.44046],[80.25911,7.44068],[80.25919,7.44122],[80.2592,7.44176],[80.25907,7.44194],[80.25855,7.44218],[80.25837,7.4427],[80.25822,7.44299],[80.25811,7.44342],[80.25803,7.4435],[80.25781,7.44356],[80.25724,7.44353],[80.25707,7.44368],[80.25663,7.44491],[80.25658,7.44599]]]}},{"type":"Feature","properties":{"c":"farmland"},"geometry":{"type":"Polygon","coordinates":[[[80.31679,7.4722],[80.3168,7.47233],[80.31695,7.47243],[80.31708,7.47245],[80.31715,7.47225],[80.318,7.4726],[80.31777,7.47317],[80.31811,7.47328],[80.31829,7.47291],[80.31826,7.47282],[80.31848,7.47245],[80.31848,7.47236],[80.3183,7.47227],[80.31841,7.4721],[80.31897,7.47225],[80.31911,7.47193],[80.3191,7.47182],[80.31901,7.47179],[80.31903,7.47155],[80.31899,7.47153],[80.31864,7.47152],[80.3185,7.47145],[80.31837,7.47148],[80.31767,7.47117],[80.3172,7.47104],[80.31705,7.47116],[80.31699,7.47138],[80.31703,7.47149],[80.31717,7.47158],[80.3171,7.4717],[80.31694,7.47168],[80.31679,7.4722]]]}},{"type":"Feature","properties":{"c":"forest"},"geometry":{"type":"Polygon","coordinates":[[[80.31895,7.4723],[80.31895,7.47238],[80.31911,7.47239],[80.31936,7.47258],[80.31942,7.47269],[80.31919,7.47306],[80.31921,7.47314],[80.31942,7.47331],[80.3195,7.47332],[80.31952,7.47318],[80.31939,7.47311],[80.31936,7.47303],[80.31972,7.47275],[80.31974,7.47262],[80.31962,7.47253],[80.31955,7.47239],[80.31968,7.47228],[80.31945,7.47217],[80.31923,7.47226],[80.31912,7.4722],[80.31911,7.4721],[80.31895,7.4723]]]}},{"type":"Feature","properties":{"c":"forest"},"geometry":{"type":"Polygon","coordinates":[[[80.28348,7.43864],[80.28373,7.43863],[80.28385,7.43778],[80.28358,7.43768],[80.28348,7.43864]]]}},{"type":"Feature","properties":{"c":"farmland"},"geometry":{"type":"Polygon","coordinates":[[[80.28392,7.43678],[80.28429,7.43693],[80.28475,7.43621],[80.28434,7.43603],[80.28392,7.43678]]]}},{"type":"Feature","properties":{"c":"forest"},"geometry":{"type":"Polygon","coordinates":[[[80.28297,7.43666],[80.28374,7.43746],[80.28417,7.43707],[80.28332,7.43627],[80.28297,7.43666]]]}},{"type":"Feature","properties":{"c":"quarry"},"geometry":{"type":"Polygon","coordinates":[[[80.28653,7.42572],[80.28659,7.42587],[80.2868,7.4258],[80.28693,7.42587],[80.287,7.42553],[80.28692,7.42517],[80.28669,7.42519],[80.28666,7.42549],[80.28653,7.42572]]]}},{"type":"Feature","properties":{"c":"farmland"},"geometry":{"type":"Polygon","coordinates":[[[80.28407,7.42677],[80.28429,7.42764],[80.2845,7.42785],[80.28539,7.42785],[80.28548,7.42757],[80.28567,7.42653],[80.28586,7.4265],[80.28596,7.42615],[80.28596,7.42589],[80.28552,7.42593],[80.28553,7.42602],[80.28541,7.42634],[80.28525,7.42637],[80.28508,7.42689],[80.2844,7.4267],[80.28407,7.42677]]]}},{"type":"Feature","properties":{"c":"farmland"},"geometry":{"type":"Polygon","coordinates":[[[80.24077,7.50532],[80.24081,7.50549],[80.24116,7.50601],[80.24112,7.50618],[80.24121,7.50625],[80.24145,7.50622],[80.24163,7.50591],[80.24157,7.50542],[80.24171,7.50479],[80.24135,7.50466],[80.24092,7.50477],[80.24077,7.50532]]]}},{"type":"Feature","properties":{"c":"farmland"},"geometry":{"type":"Polygon","coordinates":[[[80.23998,7.50557],[80.24004,7.50562],[80.2403,7.50564],[80.24035,7.50582],[80.24027,7.50598],[80.2401,7.506],[80.24003,7.50609],[80.24006,7.50635],[80.24011,7.50651],[80.24019,7.50659],[80.24041,7.50741],[80.24078,7.50743],[80.24086,7.50735],[80.24091,7.50711],[80.24099,7.50704],[80.24104,7.50687],[80.24116,7.50688],[80.2412,7.50684],[80.24125,7.50636],[80.24097,7.50625],[80.24101,7.50597],[80.24073,7.50546],[80.2407,7.50528],[80.24088,7.50478],[80.24036,7.50471],[80.24044,7.50509],[80.24042,7.50527],[80.24034,7.50541],[80.24007,7.50541],[80.23999,7.50549],[80.23998,7.50557]]]}},{"type":"Feature","properties":{"c":"farmland"},"geometry":{"type":"Polygon","coordinates":[[[80.24185,7.50579],[80.24193,7.50606],[80.242,7.50615],[80.24206,7.50649],[80.24216,7.50663],[80.24221,7.50704],[80.24201,7.50712],[80.2421,7.50738],[80.24234,7.50735],[80.24235,7.50768],[80.24249,7.50782],[80.24261,7.50779],[80.24267,7.50796],[80.24264,7.50801],[80.24251,7.50789],[80.24222,7.50784],[80.2421,7.50787],[80.24198,7.508],[80.24222,7.50806],[80.24244,7.5083],[80.24306,7.50858],[80.24346,7.50871],[80.24364,7.50869],[80.2438,7.50856],[80.24388,7.50841],[80.24406,7.50838],[80.24413,7.50823],[80.24414,7.5081],[80.24403,7.5078],[80.24415,7.50754],[80.24408,7.50704],[80.24433,7.50658],[80.24434,7.50613],[80.24353,7.50571],[80.24341,7.50602],[80.24322,7.5061],[80.24323,7.50622],[80.24319,7.50626],[80.243,7.50632],[80.24261,7.50615],[80.24241,7.50597],[80.24198,7.5057],[80.24192,7.5057],[80.24185,7.50579]]]}},{"type":"Feature","properties":{"c":"farmland"},"geometry":{"type":"Polygon","coordinates":[[[80.24542,7.50726],[80.24543,7.50738],[80.246,7.50859],[80.24632,7.5083],[80.24643,7.50833],[80.24636,7.50855],[80.24616,7.50884],[80.24622,7.50893],[80.24689,7.50885],[80.24709,7.50862],[80.24726,7.50856],[80.2473,7.50851],[80.24724,7.5084],[80.24726,7.50835],[80.24738,7.50821],[80.24749,7.5082],[80.24758,7.50806],[80.24801,7.50821],[80.24899,7.50819],[80.24949,7.50838],[80.24968,7.50856],[80.2499,7.50889],[80.24999,7.50946],[80.24975,7.50992],[80.24976,7.51003],[80.24997,7.51006],[80.25009,7.51003],[80.25016,7.50984],[80.25029,7.50974],[80.25038,7.50957],[80.25052,7.50946],[80.2506,7.50929],[80.2507,7.50922],[80.2521,7.5096],[80.25298,7.5105],[80.25312,7.51085],[80.2531,7.51147],[80.25289,7.51155],[80.25266,7.51207],[80.25244,7.51244],[80.25259,7.51296],[80.2525,7.51299],[80.25244,7.51308],[80.25251,7.51327],[80.25273,7.51343],[80.25298,7.51339],[80.25307,7.51331],[80.25333,7.5129],[80.25343,7.51226],[80.2536,7.51153],[80.25351,7.51131],[80.25367,7.51067],[80.2538,7.51046],[80.25389,7.51045],[80.25389,7.50986],[80.25337,7.50976],[80.25303,7.50953],[80.25207,7.50876],[80.25198,7.50863],[80.25195,7.50852],[80.25216,7.50739],[80.2522,7.50728],[80.25257,7.50695],[80.25268,7.50673],[80.25268,7.50662],[80.25163,7.50581],[80.2513,7.50623],[80.2513,7.50659],[80.25086,7.50698],[80.25045,7.50724],[80.25045,7.50748],[80.25037,7.50755],[80.25021,7.50739],[80.24975,7.50743],[80.24966,7.50736],[80.24961,7.50725],[80.24927,7.50694],[80.24922,7.50684],[80.24932,7.50662],[80.24934,7.50615],[80.24953,7.506],[80.24951,7.50516],[80.24963,7.50495],[80.24944,7.50376],[80.24937,7.50371],[80.24913,7.50372],[80.24905,7.50381],[80.24889,7.50468],[80.24883,7.50479],[80.24863,7.50491],[80.24856,7.505],[80.24876,7.50513],[80.24871,7.50552],[80.24866,7.50563],[80.24824,7.50586],[80.24819,7.50596],[80.24788,7.50619],[80.24783,7.50631],[80.24748,7.50648],[80.24722,7.50653],[80.24707,7.50671],[80.2463,7.50662],[80.24605,7.50688],[80.2457,7.50692],[80.24542,7.50726]]]}},{"type":"Feature","properties":{"c":"farmland"},"geometry":{"type":"Polygon","coordinates":[[[80.24434,7.50868],[80.2444,7.50879],[80.24516,7.50893],[80.24513,7.50902],[80.24473,7.5091],[80.2447,7.50915],[80.24474,7.50932],[80.24505,7.50932],[80.24531,7.50917],[80.24557,7.50856],[80.24552,7.50852],[80.24504,7.50851],[80.24476,7.50844],[80.24466,7.50836],[80.2444,7.50851],[80.24434,7.50868]]]}},{"type":"Feature","properties":{"c":"industrial"},"geometry":{"type":"Polygon","coordinates":[[[80.24498,7.51282],[80.24516,7.51298],[80.24515,7.51308],[80.24503,7.51301],[80.24499,7.51308],[80.24534,7.5133],[80.24532,7.51345],[80.24552,7.51348],[80.24551,7.51362],[80.24565,7.51369],[80.24561,7.51383],[80.24576,7.51389],[80.24572,7.51408],[80.24617,7.51434],[80.24645,7.51442],[80.24653,7.51433],[80.24653,7.51417],[80.24664,7.51412],[80.24697,7.51347],[80.24715,7.51278],[80.24724,7.51263],[80.24732,7.51253],[80.24802,7.51217],[80.24794,7.51201],[80.24758,7.51221],[80.24723,7.51207],[80.24692,7.51181],[80.24666,7.51202],[80.24661,7.51199],[80.24665,7.51182],[80.24651,7.51184],[80.24648,7.51177],[80.24642,7.51175],[80.24634,7.51184],[80.24622,7.51187],[80.24586,7.51165],[80.24573,7.51166],[80.24556,7.51161],[80.24542,7.51171],[80.24532,7.51211],[80.2452,7.51211],[80.24514,7.51227],[80.24505,7.51235],[80.2451,7.5124],[80.24498,7.51282]]]}},{"type":"Feature","properties":{"c":"farmland"},"geometry":{"type":"Polygon","coordinates":[[[80.24415,7.51055],[80.2442,7.51066],[80.24444,7.51071],[80.24477,7.51086],[80.24557,7.51099],[80.24611,7.51116],[80.24623,7.51101],[80.24655,7.51102],[80.24667,7.51049],[80.24655,7.51015],[80.2463,7.50989],[80.24619,7.50985],[80.24607,7.5099],[80.2459,7.50973],[80.24543,7.50963],[80.24531,7.50965],[80.24512,7.50979],[80.24477,7.50971],[80.24467,7.50977],[80.24463,7.50989],[80.24439,7.51015],[80.24434,7.51039],[80.24415,7.51055]]]}},{"type":"Feature","properties":{"c":"residential"},"geometry":{"type":"Polygon","coordinates":[[[80.25085,7.48939],[80.25098,7.48944],[80.25102,7.4893],[80.25087,7.48928],[80.25085,7.48939]]]}},{"type":"Feature","properties":{"c":"residential"},"geometry":{"type":"Polygon","coordinates":[[[80.2507,7.4894],[80.2508,7.4894],[80.25081,7.48929],[80.25072,7.48928],[80.2507,7.4894]]]}},{"type":"Feature","properties":{"c":"farmland"},"geometry":{"type":"Polygon","coordinates":[[[80.2497,7.49251],[80.24971,7.49313],[80.25394,7.49318],[80.2551,7.49225],[80.25506,7.49058],[80.25468,7.49061],[80.25445,7.49053],[80.25448,7.49018],[80.255,7.48977],[80.25504,7.48869],[80.25399,7.4901],[80.25313,7.49037],[80.25151,7.49067],[80.2497,7.49251]]]}},{"type":"Feature","properties":{"c":"residential"},"geometry":{"type":"Polygon","coordinates":[[[80.2542,7.489],[80.25432,7.4891],[80.25439,7.48902],[80.25428,7.48892],[80.2542,7.489]]]}},{"type":"Feature","properties":{"c":"residential"},"geometry":{"type":"Polygon","coordinates":[[[80.25425,7.48846],[80.25432,7.48858],[80.25445,7.4885],[80.2544,7.48839],[80.25425,7.48846]]]}},{"type":"Feature","properties":{"c":"residential"},"geometry":{"type":"Polygon","coordinates":[[[80.25464,7.48867],[80.25468,7.48877],[80.25473,7.48875],[80.25474,7.48878],[80.25483,7.48871],[80.25479,7.48861],[80.25464,7.48867]]]}},{"type":"Feature","properties":{"c":"farmland"},"geometry":{"type":"Polygon","coordinates":[[[80.24964,7.48777],[80.24964,7.48809],[80.25095,7.48829],[80.25149,7.48824],[80.25162,7.48797],[80.25198,7.48794],[80.25188,7.48776],[80.24964,7.48777]]]}},{"type":"Feature","properties":{"c":"residential"},"geometry":{"type":"Polygon","coordinates":[[[80.25024,7.48878],[80.25042,7.48886],[80.25045,7.48874],[80.25026,7.48869],[80.25024,7.48878]]]}},{"type":"Feature","properties":{"c":"residential"},"geometry":{"type":"Polygon","coordinates":[[[80.25256,7.4892],[80.25272,7.48921],[80.25273,7.48904],[80.25262,7.48903],[80.25256,7.4892]]]}},{"type":"Feature","properties":{"c":"residential"},"geometry":{"type":"Polygon","coordinates":[[[80.25197,7.4891],[80.25208,7.4891],[80.25208,7.48896],[80.25197,7.48896],[80.25197,7.4891]]]}},{"type":"Feature","properties":{"c":"residential"},"geometry":{"type":"Polygon","coordinates":[[[80.2528,7.48856],[80.25305,7.48876],[80.25318,7.48918],[80.2534,7.48914],[80.25332,7.48877],[80.25363,7.48874],[80.25413,7.48837],[80.25295,7.48813],[80.2528,7.48856]]]}},{"type":"Feature","properties":{"c":"residential"},"geometry":{"type":"Polygon","coordinates":[[[80.24994,7.49017],[80.25008,7.4902],[80.25013,7.48999],[80.24998,7.48996],[80.24994,7.49017]]]}},{"type":"Feature","properties":{"c":"farmland"},"geometry":{"type":"Polygon","coordinates":[[[80.25394,7.50293],[80.25435,7.50451],[80.25529,7.50435],[80.25492,7.50392],[80.25491,7.5037],[80.25537,7.50322],[80.25596,7.5033],[80.25648,7.50323],[80.25698,7.50347],[80.25738,7.50338],[80.25753,7.50357],[80.25722,7.50407],[80.25843,7.50401],[80.25706,7.50222],[80.25713,7.50186],[80.25803,7.5018],[80.25845,7.50108],[80.25831,7.50105],[80.25778,7.50161],[80.25723,7.50161],[80.25733,7.50121],[80.25801,7.50076],[80.25785,7.50058],[80.25771,7.5006],[80.25789,7.50026],[80.25821,7.50004],[80.25821,7.49983],[80.25829,7.49969],[80.25807,7.49956],[80.25788,7.49991],[80.25761,7.4999],[80.25711,7.50036],[80.2569,7.50185],[80.25534,7.50219],[80.25574,7.50041],[80.25515,7.5002],[80.25478,7.50103],[80.25448,7.50215],[80.25435,7.50221],[80.25394,7.50293]]]}},{"type":"Feature","properties":{"c":"forest"},"geometry":{"type":"Polygon","coordinates":[[[80.25516,7.50356],[80.25518,7.50405],[80.25722,7.50407],[80.25753,7.50357],[80.25738,7.50338],[80.25698,7.50347],[80.25648,7.50323],[80.25596,7.5033],[80.25537,7.50322],[80.25516,7.50356]]]}},{"type":"Feature","properties":{"c":"forest"},"geometry":{"type":"Polygon","coordinates":[[[80.25684,7.49928],[80.25686,7.49975],[80.25788,7.49991],[80.25807,7.49956],[80.25829,7.49969],[80.25821,7.49983],[80.25821,7.50004],[80.25789,7.50026],[80.258,7.50036],[80.2579,7.50048],[80.25797,7.50056],[80.2584,7.50028],[80.25873,7.50063],[80.25803,7.5018],[80.25713,7.50186],[80.25706,7.50222],[80.25843,7.50401],[80.25902,7.50419],[80.25896,7.50426],[80.25925,7.5045],[80.25931,7.50445],[80.25977,7.50471],[80.26001,7.5048],[80.2602,7.50475],[80.26017,7.5044],[80.26009,7.50438],[80.26007,7.50416],[80.26003,7.50415],[80.26009,7.50396],[80.26004,7.50395],[80.2602,7.50356],[80.26041,7.50356],[80.26046,7.50342],[80.2606,7.50343],[80.26078,7.50301],[80.26072,7.50297],[80.26085,7.50274],[80.26074,7.50269],[80.26092,7.50242],[80.26104,7.50246],[80.26114,7.50221],[80.26128,7.50225],[80.26147,7.50188],[80.26162,7.50172],[80.26194,7.50115],[80.26175,7.50106],[80.26107,7.50093],[80.261,7.50144],[80.26087,7.50161],[80.26081,7.50183],[80.26054,7.5021],[80.2605,7.50204],[80.26061,7.50193],[80.26045,7.50189],[80.25983,7.5026],[80.25956,7.50245],[80.2597,7.50196],[80.25869,7.5014],[80.2588,7.50132],[80.2597,7.50112],[80.26007,7.50135],[80.26006,7.50155],[80.26045,7.50176],[80.26069,7.50179],[80.26094,7.5009],[80.26053,7.50052],[80.25782,7.49832],[80.25714,7.49934],[80.25684,7.49928]]]}},{"type":"Feature","properties":{"c":"forest"},"geometry":{"type":"Polygon","coordinates":[[[80.25967,7.49967],[80.2603,7.50017],[80.26096,7.50079],[80.2609,7.50004],[80.2607,7.50002],[80.26063,7.49991],[80.26042,7.5],[80.25984,7.49968],[80.25967,7.49967]]]}},{"type":"Feature","properties":{"c":"farmland"},"geometry":{"type":"Polygon","coordinates":[[[80.25516,7.49989],[80.25577,7.49992],[80.2559,7.49951],[80.25567,7.49919],[80.25518,7.49926],[80.25516,7.49989]]]}},{"type":"Feature","properties":{"c":"farmland"},"geometry":{"type":"Polygon","coordinates":[[[80.26003,7.50415],[80.26007,7.50416],[80.26009,7.50438],[80.26017,7.5044],[80.2602,7.50475],[80.2607,7.50457],[80.2606,7.50443],[80.2606,7.50429],[80.26052,7.50428],[80.26055,7.504],[80.26078,7.50375],[80.26096,7.50344],[80.26067,7.50325],[80.2606,7.50343],[80.26046,7.50342],[80.26041,7.50356],[80.2602,7.50356],[80.26004,7.50395],[80.26009,7.50396],[80.26003,7.50415]]]}},{"type":"Feature","properties":{"c":"forest"},"geometry":{"type":"Polygon","coordinates":[[[80.2811,7.45969],[80.28176,7.46049],[80.28254,7.46051],[80.28259,7.45837],[80.28139,7.45912],[80.2811,7.45969]]]}},{"type":"Feature","properties":{"c":"forest"},"geometry":{"type":"Polygon","coordinates":[[[80.27711,7.46049],[80.27982,7.46046],[80.27891,7.46004],[80.27919,7.45991],[80.27901,7.45924],[80.27714,7.45963],[80.27711,7.46049]]]}},{"type":"Feature","properties":{"c":"forest"},"geometry":{"type":"Polygon","coordinates":[[[80.27712,7.45721],[80.27812,7.45514],[80.27714,7.45515],[80.27712,7.45721]]]}},{"type":"Feature","properties":{"c":"farmland"},"geometry":{"type":"Polygon","coordinates":[[[80.27891,7.45513],[80.27919,7.45597],[80.27942,7.45593],[80.27992,7.45517],[80.27891,7.45513]]]}},{"type":"Feature","properties":{"c":"forest"},"geometry":{"type":"Polygon","coordinates":[[[80.27711,7.45855],[80.27712,7.45877],[80.27724,7.45877],[80.27804,7.45826],[80.27818,7.45803],[80.27806,7.45767],[80.27875,7.45689],[80.27883,7.4566],[80.27903,7.45623],[80.27938,7.45623],[80.27953,7.45663],[80.27905,7.45712],[80.27871,7.45717],[80.27869,7.45749],[80.27971,7.45787],[80.28003,7.45764],[80.28126,7.45762],[80.28139,7.45737],[80.28198,7.45742],[80.28226,7.4571],[80.2825,7.45717],[80.27997,7.45511],[80.27938,7.45602],[80.27919,7.45597],[80.27891,7.45513],[80.27859,7.45511],[80.27893,7.45601],[80.2786,7.45648],[80.27856,7.4569],[80.27788,7.45766],[80.27802,7.45801],[80.27711,7.45855]]]}},{"type":"Feature","properties":{"c":"forest"},"geometry":{"type":"Polygon","coordinates":[[[80.28003,7.45515],[80.2825,7.45717],[80.28256,7.45511],[80.28003,7.45515]]]}},{"type":"Feature","properties":{"c":"farmland"},"geometry":{"type":"Polygon","coordinates":[[[80.27711,7.45855],[80.27802,7.45801],[80.27788,7.45766],[80.27856,7.4569],[80.2786,7.45648],[80.27893,7.45601],[80.27859,7.45511],[80.27812,7.45514],[80.27712,7.45721],[80.27711,7.45855]]]}},{"type":"Feature","properties":{"c":"farmland"},"geometry":{"type":"Polygon","coordinates":[[[80.27712,7.45877],[80.27714,7.45963],[80.27901,7.45924],[80.27919,7.45991],[80.27906,7.46009],[80.27998,7.4605],[80.28175,7.46049],[80.2811,7.45969],[80.28139,7.45912],[80.28259,7.45837],[80.2825,7.45717],[80.28226,7.4571],[80.28198,7.45742],[80.28139,7.45737],[80.28126,7.45762],[80.28003,7.45764],[80.27971,7.45787],[80.27869,7.45749],[80.27871,7.45717],[80.27905,7.45712],[80.27953,7.45663],[80.27938,7.45623],[80.27903,7.45623],[80.27877,7.45683],[80.27806,7.45767],[80.27818,7.45803],[80.27804,7.45826],[80.27712,7.45877]]]}},{"type":"Feature","properties":{"c":"residential"},"geometry":{"type":"Polygon","coordinates":[[[80.28595,7.48379],[80.28609,7.48385],[80.28615,7.48375],[80.286,7.48368],[80.28595,7.48379]]]}},{"type":"Feature","properties":{"c":"farmland"},"geometry":{"type":"Polygon","coordinates":[[[80.276,7.43498],[80.27614,7.43524],[80.27674,7.4354],[80.27677,7.43513],[80.27674,7.43498],[80.27685,7.43456],[80.27691,7.43395],[80.27707,7.43392],[80.27708,7.43329],[80.2765,7.4333],[80.27635,7.43344],[80.27623,7.43383],[80.27606,7.43417],[80.2762,7.43426],[80.27651,7.43417],[80.27658,7.4342],[80.27616,7.4349],[80.276,7.43498]]]}},{"type":"Feature","properties":{"c":"farmland"},"geometry":{"type":"Polygon","coordinates":[[[80.26611,7.49863],[80.26612,7.49991],[80.26716,7.49998],[80.26751,7.50009],[80.26771,7.5003],[80.26773,7.50081],[80.26814,7.50098],[80.26859,7.50089],[80.26887,7.50047],[80.26885,7.49865],[80.26611,7.49863]]]}},{"type":"Feature","properties":{"c":"residential"},"geometry":{"type":"Polygon","coordinates":[[[80.28608,7.48369],[80.28622,7.48376],[80.28628,7.48365],[80.28613,7.48358],[80.28608,7.48369]]]}},{"type":"Feature","properties":{"c":"forest"},"geometry":{"type":"Polygon","coordinates":[[[80.2498,7.42988],[80.2499,7.43013],[80.25007,7.43019],[80.25016,7.43074],[80.2508,7.43101],[80.25099,7.43095],[80.25105,7.43118],[80.25139,7.43109],[80.25152,7.43119],[80.2517,7.43119],[80.25238,7.43196],[80.25261,7.43231],[80.25297,7.43226],[80.25303,7.43239],[80.25314,7.43235],[80.25319,7.43264],[80.25346,7.43258],[80.25355,7.43232],[80.25371,7.43255],[80.25406,7.43239],[80.25414,7.43216],[80.25393,7.43179],[80.25411,7.43151],[80.25369,7.43133],[80.25369,7.43119],[80.25387,7.43119],[80.25398,7.43109],[80.25404,7.43122],[80.25422,7.43114],[80.25461,7.4305],[80.25437,7.43024],[80.25472,7.43015],[80.25449,7.43007],[80.25473,7.42996],[80.25465,7.4299],[80.2545,7.42931],[80.25427,7.42917],[80.25437,7.42907],[80.25436,7.42868],[80.25424,7.42861],[80.25426,7.4285],[80.25382,7.42797],[80.2507,7.42793],[80.2501,7.42808],[80.25005,7.42836],[80.2501,7.42869],[80.25033,7.42894],[80.25001,7.4289],[80.24981,7.42929],[80.2498,7.42988]]]}},{"type":"Feature","properties":{"c":"forest"},"geometry":{"type":"Polygon","coordinates":[[[80.2515,7.43174],[80.25161,7.43194],[80.25158,7.43198],[80.25169,7.43208],[80.25177,7.43226],[80.25189,7.43234],[80.25169,7.43196],[80.25167,7.43177],[80.2515,7.43164],[80.2515,7.43174]]]}},{"type":"Feature","properties":{"c":"farmland"},"geometry":{"type":"Polygon","coordinates":[[[80.25514,7.41964],[80.25554,7.41962],[80.25597,7.41837],[80.25615,7.41832],[80.25622,7.41802],[80.25643,7.41775],[80.25675,7.4172],[80.25644,7.41697],[80.25598,7.41695],[80.25517,7.41824],[80.25514,7.41964]]]}},{"type":"Feature","properties":{"c":"farmland"},"geometry":{"type":"Polygon","coordinates":[[[80.24888,7.44121],[80.24901,7.44151],[80.24912,7.44163],[80.24927,7.44163],[80.24967,7.44208],[80.24974,7.44201],[80.24984,7.44206],[80.24978,7.44218],[80.25005,7.4423],[80.25024,7.44297],[80.25005,7.44322],[80.25035,7.44337],[80.25013,7.4439],[80.25034,7.44401],[80.25028,7.44415],[80.25053,7.44427],[80.25074,7.44398],[80.25061,7.44363],[80.25063,7.44334],[80.25102,7.44328],[80.25132,7.44382],[80.25109,7.44397],[80.25108,7.44407],[80.25159,7.44429],[80.25171,7.44374],[80.25226,7.44317],[80.25202,7.44279],[80.25207,7.44234],[80.25186,7.44216],[80.25161,7.44225],[80.25157,7.44211],[80.25133,7.44209],[80.25086,7.44148],[80.25047,7.44137],[80.24997,7.44145],[80.24963,7.44133],[80.24946,7.44135],[80.24925,7.44113],[80.24909,7.44116],[80.24893,7.4411],[80.24888,7.44121]]]}},{"type":"Feature","properties":{"c":"farmland"},"geometry":{"type":"Polygon","coordinates":[[[80.32442,7.46007],[80.32446,7.46026],[80.32506,7.46045],[80.32523,7.4599],[80.3246,7.45978],[80.32442,7.46007]]]}},{"type":"Feature","properties":{"c":"farmland"},"geometry":{"type":"Polygon","coordinates":[[[80.32276,7.46652],[80.32281,7.46657],[80.32279,7.46687],[80.32316,7.46696],[80.32324,7.46691],[80.32328,7.46681],[80.32322,7.46669],[80.3233,7.46649],[80.32326,7.4664],[80.32283,7.4664],[80.32279,7.46642],[80.32276,7.46652]]]}},{"type":"Feature","properties":{"c":"farmland"},"geometry":{"type":"Polygon","coordinates":[[[80.32203,7.46495],[80.32206,7.46523],[80.32217,7.46547],[80.32276,7.46598],[80.32277,7.46616],[80.32272,7.46628],[80.32276,7.46638],[80.32305,7.46636],[80.32301,7.46626],[80.32314,7.46611],[80.3232,7.46572],[80.32346,7.46565],[80.32343,7.46544],[80.32325,7.46536],[80.32326,7.46527],[80.32379,7.46506],[80.32328,7.46498],[80.32315,7.46491],[80.323,7.46502],[80.32267,7.46515],[80.32241,7.46495],[80.32203,7.46495]]]}},{"type":"Feature","properties":{"c":"farmland"},"geometry":{"type":"Polygon","coordinates":[[[80.32283,7.46433],[80.32315,7.46491],[80.32329,7.46498],[80.3238,7.46504],[80.32392,7.46487],[80.32386,7.46472],[80.32381,7.46427],[80.32391,7.46401],[80.32408,7.46401],[80.32413,7.46394],[80.32409,7.46361],[80.32437,7.46339],[80.32445,7.46322],[80.32463,7.46314],[80.32482,7.46298],[80.32502,7.46294],[80.32514,7.46275],[80.32511,7.46199],[80.32496,7.46191],[80.32463,7.46194],[80.32442,7.46249],[80.32424,7.46275],[80.32395,7.46288],[80.32386,7.46303],[80.32365,7.46313],[80.32356,7.46332],[80.32358,7.46358],[80.32349,7.46364],[80.32318,7.46367],[80.32301,7.4638],[80.3231,7.46395],[80.32315,7.46424],[80.32283,7.46433]]]}},{"type":"Feature","properties":{"c":"farmland"},"geometry":{"type":"Polygon","coordinates":[[[80.32007,7.46012],[80.32025,7.4606],[80.32087,7.46112],[80.32146,7.46069],[80.32217,7.46044],[80.3223,7.4601],[80.32246,7.45987],[80.32259,7.4595],[80.32254,7.45898],[80.32242,7.45877],[80.32226,7.45876],[80.32229,7.45854],[80.3222,7.45836],[80.32223,7.45816],[80.32102,7.45817],[80.32107,7.45872],[80.32099,7.45903],[80.32043,7.45969],[80.32021,7.45965],[80.32007,7.46012]]]}},{"type":"Feature","properties":{"c":"farmland"},"geometry":{"type":"Polygon","coordinates":[[[80.21505,7.52159],[80.21589,7.52183],[80.2172,7.52203],[80.21738,7.52181],[80.21757,7.52141],[80.21733,7.52131],[80.21727,7.52157],[80.21683,7.52131],[80.21664,7.52143],[80.21631,7.52136],[80.2165,7.52072],[80.21637,7.52042],[80.21644,7.51992],[80.2157,7.51986],[80.21505,7.52159]]]}},{"type":"Feature","properties":{"c":"farmland"},"geometry":{"type":"Polygon","coordinates":[[[80.2194,7.52252],[80.22063,7.52316],[80.22098,7.52247],[80.21972,7.522],[80.2194,7.52252]]]}},{"type":"Feature","properties":{"c":"farmland"},"geometry":{"type":"Polygon","coordinates":[[[80.21926,7.52084],[80.2196,7.52106],[80.21947,7.52117],[80.21927,7.52167],[80.22168,7.52264],[80.22336,7.5207],[80.22335,7.51939],[80.21964,7.51848],[80.21926,7.52084]]]}},{"type":"Feature","properties":{"c":"farmland"},"geometry":{"type":"Polygon","coordinates":[[[80.22218,7.52225],[80.22223,7.52269],[80.22264,7.52307],[80.22343,7.52341],[80.22429,7.52302],[80.22415,7.52283],[80.22249,7.52183],[80.22218,7.52225]]]}},{"type":"Feature","properties":{"c":"farmland"},"geometry":{"type":"Polygon","coordinates":[[[80.22258,7.52515],[80.22259,7.52552],[80.22336,7.52565],[80.22413,7.52607],[80.22458,7.52569],[80.22465,7.52531],[80.22453,7.52489],[80.22459,7.5243],[80.22433,7.52315],[80.22361,7.52362],[80.22375,7.5244],[80.22325,7.52467],[80.22345,7.52504],[80.22314,7.525],[80.22258,7.52515]]]}},{"type":"Feature","properties":{"c":"farmland"},"geometry":{"type":"Polygon","coordinates":[[[80.22424,7.52726],[80.2243,7.52764],[80.22464,7.52743],[80.22475,7.5277],[80.22552,7.52802],[80.22748,7.52664],[80.22855,7.52581],[80.22876,7.52513],[80.23127,7.52483],[80.23402,7.52343],[80.23398,7.52268],[80.2323,7.52247],[80.2307,7.52267],[80.23007,7.52239],[80.23069,7.52056],[80.22934,7.51988],[80.22936,7.52151],[80.22813,7.52206],[80.22772,7.52233],[80.2273,7.52241],[80.22722,7.52166],[80.22576,7.51928],[80.2249,7.51981],[80.22623,7.52158],[80.22595,7.52311],[80.22617,7.5247],[80.22597,7.52498],[80.22481,7.52579],[80.2243,7.52621],[80.22447,7.52696],[80.22424,7.52726]]]}},{"type":"Feature","properties":{"c":"farmland"},"geometry":{"type":"Polygon","coordinates":[[[80.26401,7.48792],[80.26444,7.48944],[80.26747,7.48959],[80.2676,7.48828],[80.26401,7.48792]]]}},{"type":"Feature","properties":{"c":"farmland"},"geometry":{"type":"Polygon","coordinates":[[[80.22779,7.51284],[80.22789,7.51356],[80.22861,7.51434],[80.22836,7.51552],[80.22844,7.51557],[80.22911,7.51571],[80.22967,7.51485],[80.22943,7.51465],[80.22921,7.51483],[80.22903,7.51463],[80.22901,7.51422],[80.22866,7.51348],[80.22838,7.51305],[80.22847,7.5126],[80.22865,7.51205],[80.22796,7.51181],[80.22779,7.51284]]]}},{"type":"Feature","properties":{"c":"farmland"},"geometry":{"type":"Polygon","coordinates":[[[80.21554,7.51871],[80.2156,7.51903],[80.21579,7.51911],[80.2157,7.51973],[80.21641,7.51978],[80.21658,7.51967],[80.21637,7.51863],[80.2164,7.51798],[80.21674,7.51707],[80.2163,7.51684],[80.21574,7.51781],[80.21554,7.51871]]]}},{"type":"Feature","properties":{"c":"farmland"},"geometry":{"type":"Polygon","coordinates":[[[80.22198,7.51778],[80.22212,7.51822],[80.22245,7.51787],[80.22366,7.51829],[80.22407,7.51773],[80.2244,7.51747],[80.2243,7.51706],[80.22396,7.51708],[80.22337,7.51726],[80.22289,7.51733],[80.22275,7.51754],[80.22198,7.51778]]]}},{"type":"Feature","properties":{"c":"farmland"},"geometry":{"type":"Polygon","coordinates":[[[80.22378,7.51627],[80.22387,7.5169],[80.22425,7.51683],[80.22451,7.51546],[80.22404,7.51534],[80.22378,7.51627]]]}},{"type":"Feature","properties":{"c":"farmland"},"geometry":{"type":"Polygon","coordinates":[[[80.22334,7.50873],[80.22385,7.50909],[80.22418,7.50877],[80.22368,7.5083],[80.22436,7.5076],[80.22495,7.50712],[80.22563,7.50631],[80.22463,7.50578],[80.22399,7.50719],[80.22357,7.50778],[80.2234,7.50774],[80.22334,7.50873]]]}},{"type":"Feature","properties":{"c":"farmland"},"geometry":{"type":"Polygon","coordinates":[[[80.23001,7.51047],[80.23061,7.51081],[80.231,7.51046],[80.23054,7.50997],[80.23001,7.51047]]]}},{"type":"Feature","properties":{"c":"farmland"},"geometry":{"type":"Polygon","coordinates":[[[80.22824,7.51185],[80.22874,7.51204],[80.22898,7.51166],[80.22889,7.51151],[80.229,7.51146],[80.22913,7.51163],[80.22921,7.51116],[80.23041,7.51004],[80.23015,7.50974],[80.22952,7.50994],[80.22857,7.51086],[80.22864,7.51111],[80.22824,7.51185]]]}},{"type":"Feature","properties":{"c":"farmland"},"geometry":{"type":"Polygon","coordinates":[[[80.23571,7.52258],[80.23594,7.52353],[80.23702,7.52311],[80.23833,7.52291],[80.23878,7.52351],[80.23959,7.52328],[80.23948,7.51971],[80.23974,7.51847],[80.2386,7.51831],[80.23801,7.51979],[80.23841,7.51999],[80.2382,7.52079],[80.23779,7.52143],[80.23742,7.52185],[80.23622,7.52277],[80.23571,7.52258]]]}},{"type":"Feature","properties":{"c":"farmland"},"geometry":{"type":"Polygon","coordinates":[[[80.23672,7.51611],[80.23754,7.51714],[80.23752,7.51747],[80.23766,7.5176],[80.23776,7.51734],[80.23787,7.51742],[80.23775,7.51786],[80.23761,7.51782],[80.23753,7.51802],[80.23817,7.51815],[80.23849,7.51786],[80.23865,7.51751],[80.23841,7.51637],[80.23802,7.51672],[80.23699,7.51604],[80.23692,7.51595],[80.23672,7.51611]]]}},{"type":"Feature","properties":{"c":"farmland"},"geometry":{"type":"Polygon","coordinates":[[[80.23885,7.5174],[80.23917,7.51745],[80.23922,7.51715],[80.23981,7.51707],[80.24014,7.51558],[80.23967,7.51548],[80.23959,7.51582],[80.23941,7.51587],[80.23885,7.5174]]]}},{"type":"Feature","properties":{"c":"farmland"},"geometry":{"type":"Polygon","coordinates":[[[80.23972,7.5151],[80.23985,7.5153],[80.24056,7.51541],[80.24103,7.51489],[80.24123,7.51485],[80.24181,7.51448],[80.24159,7.51399],[80.24071,7.51412],[80.24036,7.51346],[80.24015,7.51316],[80.23985,7.51314],[80.23992,7.51444],[80.23972,7.5151]]]}},{"type":"Feature","properties":{"c":"farmland"},"geometry":{"type":"Polygon","coordinates":[[[80.2425,7.51147],[80.24279,7.51163],[80.243,7.51123],[80.2426,7.51102],[80.2425,7.51147]]]}},{"type":"Feature","properties":{"c":"farmland"},"geometry":{"type":"Polygon","coordinates":[[[80.24337,7.51077],[80.24361,7.51075],[80.24369,7.51042],[80.24346,7.51036],[80.24337,7.51077]]]}},{"type":"Feature","properties":{"c":"farmland"},"geometry":{"type":"Polygon","coordinates":[[[80.243,7.51054],[80.24318,7.51063],[80.24334,7.51028],[80.24317,7.5102],[80.243,7.51054]]]}},{"type":"Feature","properties":{"c":"farmland"},"geometry":{"type":"Polygon","coordinates":[[[80.23481,7.49989],[80.23516,7.50019],[80.23678,7.49891],[80.2383,7.49902],[80.23818,7.49849],[80.23817,7.49728],[80.23839,7.49692],[80.23816,7.49616],[80.23735,7.49631],[80.23645,7.49556],[80.23585,7.49589],[80.23684,7.49738],[80.23638,7.49809],[80.23653,7.4983],[80.23644,7.49845],[80.23619,7.49821],[80.23494,7.49942],[80.23481,7.49989]]]}},{"type":"Feature","properties":{"c":"farmland"},"geometry":{"type":"Polygon","coordinates":[[[80.23822,7.498],[80.2387,7.5],[80.23882,7.50155],[80.23833,7.50173],[80.23854,7.50275],[80.23854,7.50383],[80.23958,7.50386],[80.24039,7.50463],[80.24129,7.5046],[80.24131,7.50444],[80.24194,7.50409],[80.24192,7.50374],[80.24126,7.50372],[80.24116,7.50341],[80.24178,7.50326],[80.24186,7.5025],[80.24153,7.50169],[80.24071,7.50218],[80.24002,7.5015],[80.23982,7.50065],[80.23956,7.50056],[80.2396,7.49974],[80.2394,7.49859],[80.24017,7.49765],[80.24001,7.4969],[80.23999,7.49626],[80.23946,7.49566],[80.23966,7.4947],[80.24005,7.49449],[80.24014,7.49401],[80.24043,7.49359],[80.23913,7.49339],[80.23849,7.49473],[80.23844,7.49599],[80.2386,7.49673],[80.23822,7.498]]]}},{"type":"Feature","properties":{"c":"farmland"},"geometry":{"type":"Polygon","coordinates":[[[80.24131,7.50021],[80.24199,7.50038],[80.24229,7.49926],[80.24204,7.49866],[80.24169,7.49881],[80.24131,7.50021]]]}},{"type":"Feature","properties":{"c":"farmland"},"geometry":{"type":"Polygon","coordinates":[[[80.24451,7.49786],[80.24484,7.49797],[80.24492,7.49774],[80.24471,7.49759],[80.24451,7.49786]]]}},{"type":"Feature","properties":{"c":"farmland"},"geometry":{"type":"Polygon","coordinates":[[[80.24564,7.49609],[80.24571,7.49635],[80.24614,7.49667],[80.24643,7.49667],[80.24665,7.49612],[80.24618,7.49578],[80.24647,7.49493],[80.24609,7.49426],[80.24585,7.49464],[80.24598,7.49492],[80.24564,7.49609]]]}},{"type":"Feature","properties":{"c":"farmland"},"geometry":{"type":"Polygon","coordinates":[[[80.24644,7.49379],[80.24716,7.49408],[80.24776,7.49332],[80.248,7.49338],[80.24807,7.4935],[80.24877,7.49338],[80.24972,7.49352],[80.24959,7.49348],[80.24965,7.49249],[80.2489,7.4923],[80.24871,7.49196],[80.24808,7.49194],[80.24644,7.49379]]]}},{"type":"Feature","properties":{"c":"farmland"},"geometry":{"type":"Polygon","coordinates":[[[80.24959,7.49348],[80.25011,7.49355],[80.2502,7.49376],[80.24984,7.49402],[80.25004,7.49431],[80.24996,7.49523],[80.25051,7.49547],[80.25076,7.49491],[80.2517,7.49533],[80.25183,7.49504],[80.25077,7.49457],[80.25138,7.49321],[80.24965,7.493],[80.24959,7.49348]]]}},{"type":"Feature","properties":{"c":"forest"},"geometry":{"type":"Polygon","coordinates":[[[80.25046,7.49656],[80.25144,7.49697],[80.25177,7.49618],[80.25078,7.49578],[80.25046,7.49656]]]}},{"type":"Feature","properties":{"c":"farmland"},"geometry":{"type":"Polygon","coordinates":[[[80.25172,7.49549],[80.25193,7.49607],[80.2521,7.49741],[80.25244,7.49737],[80.25239,7.49697],[80.25255,7.4969],[80.25265,7.49591],[80.25211,7.49586],[80.25195,7.49527],[80.25172,7.49549]]]}},{"type":"Feature","properties":{"c":"farmland"},"geometry":{"type":"Polygon","coordinates":[[[80.25136,7.49348],[80.2521,7.49395],[80.25203,7.4943],[80.25266,7.49466],[80.25232,7.49523],[80.25216,7.49539],[80.25218,7.49576],[80.2528,7.49574],[80.25311,7.49498],[80.25357,7.49456],[80.25372,7.49451],[80.25381,7.49337],[80.25145,7.49319],[80.25136,7.49348]]]}},{"type":"Feature","properties":{"c":"farmland"},"geometry":{"type":"Polygon","coordinates":[[[80.25512,7.49029],[80.25524,7.49225],[80.25664,7.49334],[80.25687,7.49344],[80.25726,7.49346],[80.25747,7.49296],[80.25765,7.49267],[80.2574,7.49245],[80.25723,7.49114],[80.25574,7.49043],[80.25512,7.49029]]]}},{"type":"Feature","properties":{"c":"farmland"},"geometry":{"type":"Polygon","coordinates":[[[80.25734,7.49346],[80.25774,7.49348],[80.25822,7.49402],[80.2583,7.49423],[80.25889,7.494],[80.25863,7.49358],[80.25847,7.49368],[80.258,7.49293],[80.25775,7.49272],[80.25768,7.49271],[80.25753,7.49296],[80.25734,7.49346]]]}},{"type":"Feature","properties":{"c":"farmland"},"geometry":{"type":"Polygon","coordinates":[[[80.25832,7.49431],[80.25866,7.49497],[80.25908,7.49522],[80.25958,7.49567],[80.26027,7.49616],[80.2611,7.49645],[80.2619,7.49693],[80.26205,7.49746],[80.26268,7.49751],[80.26243,7.49802],[80.26264,7.49858],[80.26317,7.49862],[80.26396,7.49893],[80.2645,7.49933],[80.26519,7.49964],[80.26583,7.49973],[80.26607,7.4981],[80.26493,7.49781],[80.26464,7.49796],[80.26385,7.49694],[80.26421,7.49663],[80.26438,7.49584],[80.26476,7.49486],[80.26515,7.49451],[80.26503,7.49418],[80.26492,7.4942],[80.26408,7.49539],[80.26377,7.49605],[80.2633,7.49594],[80.26296,7.49559],[80.26247,7.49551],[80.26241,7.4956],[80.26219,7.49546],[80.26209,7.49563],[80.26185,7.49559],[80.26167,7.49567],[80.26109,7.49561],[80.26105,7.49542],[80.26093,7.49543],[80.26083,7.49531],[80.26069,7.49529],[80.26061,7.49551],[80.26045,7.49547],[80.2596,7.49455],[80.25905,7.49436],[80.25895,7.49407],[80.25832,7.49431]]]}},{"type":"Feature","properties":{"c":"farmland"},"geometry":{"type":"Polygon","coordinates":[[[80.26611,7.49853],[80.26891,7.4986],[80.26897,7.50049],[80.26978,7.4997],[80.27089,7.49916],[80.27157,7.49917],[80.27171,7.49885],[80.2726,7.49861],[80.27273,7.49847],[80.27274,7.49762],[80.27233,7.49758],[80.2722,7.49714],[80.27169,7.49732],[80.27134,7.49643],[80.27067,7.49616],[80.27,7.49712],[80.26942,7.49674],[80.269,7.49755],[80.26781,7.49779],[80.26627,7.49799],[80.26611,7.49853]]]}},{"type":"Feature","properties":{"c":"farmland"},"geometry":{"type":"Polygon","coordinates":[[[80.26155,7.49113],[80.26199,7.4911],[80.2622,7.49129],[80.26249,7.49097],[80.26226,7.49076],[80.26189,7.49068],[80.26155,7.49113]]]}},{"type":"Feature","properties":{"c":"farmland"},"geometry":{"type":"Polygon","coordinates":[[[80.2583,7.4882],[80.25845,7.48955],[80.25908,7.48957],[80.2595,7.48969],[80.26008,7.48999],[80.26125,7.49014],[80.26121,7.49029],[80.26138,7.49059],[80.26183,7.49041],[80.26154,7.48985],[80.26089,7.48942],[80.26124,7.4891],[80.26138,7.4893],[80.26182,7.48929],[80.26197,7.48933],[80.26204,7.48898],[80.26162,7.48882],[80.2615,7.48852],[80.2613,7.48836],[80.26117,7.48849],[80.26093,7.48845],[80.26017,7.48951],[80.25956,7.48934],[80.25961,7.48799],[80.25893,7.48833],[80.2583,7.4882]]]}},{"type":"Feature","properties":{"c":"farmland"},"geometry":{"type":"Polygon","coordinates":[[[80.22069,7.51666],[80.22177,7.51705],[80.22292,7.51691],[80.22282,7.51628],[80.22322,7.51625],[80.22346,7.51603],[80.22321,7.5158],[80.22354,7.51518],[80.22222,7.51432],[80.22069,7.51666]]]}},{"type":"Feature","properties":{"c":"farmland"},"geometry":{"type":"Polygon","coordinates":[[[80.21625,7.51653],[80.21678,7.5169],[80.2166,7.51841],[80.21935,7.51931],[80.21949,7.51853],[80.21881,7.5181],[80.21882,7.5175],[80.21909,7.51805],[80.21951,7.51813],[80.21985,7.51749],[80.22195,7.51436],[80.22095,7.51367],[80.22027,7.513],[80.22035,7.51291],[80.2197,7.51248],[80.2188,7.51271],[80.21763,7.51467],[80.21625,7.51653]]]}},{"type":"Feature","properties":{"c":"farmland"},"geometry":{"type":"Polygon","coordinates":[[[80.22528,7.50766],[80.22606,7.50792],[80.22558,7.5079],[80.22547,7.50806],[80.22556,7.50896],[80.22614,7.50912],[80.22627,7.50848],[80.22614,7.50845],[80.22637,7.50803],[80.22666,7.50768],[80.22701,7.50775],[80.22728,7.50723],[80.22709,7.50707],[80.22712,7.50657],[80.2272,7.50638],[80.22742,7.50661],[80.2281,7.50639],[80.22856,7.50591],[80.22857,7.50532],[80.22792,7.50513],[80.22604,7.50658],[80.2259,7.50722],[80.22567,7.50707],[80.22528,7.50766]]]}},{"type":"Feature","properties":{"c":"farmland"},"geometry":{"type":"Polygon","coordinates":[[[80.22789,7.50673],[80.22795,7.50716],[80.22879,7.50722],[80.2296,7.50651],[80.23007,7.50688],[80.23017,7.50675],[80.22993,7.50626],[80.23001,7.50543],[80.23026,7.50516],[80.22973,7.50475],[80.22927,7.50523],[80.22865,7.50533],[80.22861,7.50586],[80.22832,7.50632],[80.22789,7.50673]]]}},{"type":"Feature","properties":{"c":"farmland"},"geometry":{"type":"Polygon","coordinates":[[[80.22979,7.50459],[80.23034,7.50502],[80.23086,7.50433],[80.23088,7.50418],[80.23099,7.50406],[80.23075,7.50387],[80.22979,7.50459]]]}},{"type":"Feature","properties":{"c":"farmland"},"geometry":{"type":"Polygon","coordinates":[[[80.23144,7.50188],[80.23302,7.50297],[80.23345,7.50023],[80.23144,7.50188]]]}},{"type":"Feature","properties":{"c":"farmland"},"geometry":{"type":"Polygon","coordinates":[[[80.23345,7.50276],[80.23434,7.50285],[80.23461,7.50208],[80.2362,7.50203],[80.23627,7.50156],[80.2362,7.50131],[80.2366,7.50132],[80.2367,7.50072],[80.23619,7.50072],[80.23669,7.50035],[80.23632,7.49945],[80.23515,7.50027],[80.23345,7.50276]]]}},{"type":"Feature","properties":{"c":"farmland"},"geometry":{"type":"Polygon","coordinates":[[[80.2352,7.49408],[80.2353,7.49435],[80.23541,7.49445],[80.23569,7.49451],[80.23595,7.4944],[80.23609,7.49416],[80.2361,7.49402],[80.23597,7.49376],[80.23585,7.49367],[80.23555,7.49363],[80.23529,7.4938],[80.2352,7.49408]]]}},{"type":"Feature","properties":{"c":"farmland"},"geometry":{"type":"Polygon","coordinates":[[[80.2328,7.49324],[80.2329,7.49341],[80.2332,7.49367],[80.23335,7.4931],[80.2337,7.49275],[80.23362,7.49249],[80.2338,7.49224],[80.23371,7.49206],[80.23352,7.49223],[80.23335,7.49214],[80.23335,7.49206],[80.23298,7.49227],[80.233,7.49256],[80.23281,7.49299],[80.2328,7.49324]]]}},{"type":"Feature","properties":{"c":"farmland"},"geometry":{"type":"Polygon","coordinates":[[[80.23121,7.49457],[80.23123,7.49495],[80.23186,7.49528],[80.23245,7.49464],[80.23267,7.49426],[80.23315,7.49394],[80.2328,7.49352],[80.23237,7.49356],[80.23212,7.4939],[80.2317,7.49382],[80.23158,7.49369],[80.23133,7.49413],[80.23121,7.49457]]]}},{"type":"Feature","properties":{"c":"farmland"},"geometry":{"type":"Polygon","coordinates":[[[80.23025,7.49403],[80.23061,7.49501],[80.23097,7.49499],[80.23064,7.49418],[80.23041,7.49402],[80.23025,7.49403]]]}},{"type":"Feature","properties":{"c":"farmland"},"geometry":{"type":"Polygon","coordinates":[[[80.2315,7.49326],[80.23169,7.49337],[80.232,7.49298],[80.2319,7.49278],[80.23175,7.49279],[80.23159,7.49315],[80.2315,7.49326]]]}},{"type":"Feature","properties":{"c":"farmland"},"geometry":{"type":"Polygon","coordinates":[[[80.23106,7.4932],[80.23122,7.49325],[80.23125,7.49316],[80.23108,7.49311],[80.23106,7.4932]]]}},{"type":"Feature","properties":{"c":"farmland"},"geometry":{"type":"Polygon","coordinates":[[[80.2178,7.48006],[80.21854,7.48007],[80.21868,7.47979],[80.21902,7.47988],[80.21906,7.47996],[80.21932,7.47993],[80.21928,7.47941],[80.21946,7.47944],[80.21988,7.47984],[80.22011,7.4794],[80.22043,7.47855],[80.22124,7.47717],[80.22082,7.47691],[80.22064,7.47694],[80.21989,7.47635],[80.22012,7.47562],[80.22009,7.47545],[80.21987,7.47544],[80.21978,7.47532],[80.2195,7.47539],[80.21953,7.47593],[80.21919,7.47594],[80.21907,7.4765],[80.21912,7.47715],[80.21901,7.47749],[80.21941,7.47796],[80.2194,7.47817],[80.21897,7.47813],[80.21906,7.47847],[80.21877,7.47893],[80.2184,7.47892],[80.2178,7.48006]]]}},{"type":"Feature","properties":{"c":"farmland"},"geometry":{"type":"Polygon","coordinates":[[[80.22128,7.47616],[80.22184,7.47649],[80.22261,7.47657],[80.22297,7.47691],[80.22344,7.47593],[80.22273,7.47605],[80.22321,7.47543],[80.22361,7.47506],[80.22372,7.47527],[80.22401,7.47529],[80.22457,7.47571],[80.22486,7.4753],[80.22547,7.47482],[80.22558,7.47444],[80.22625,7.47425],[80.22629,7.4737],[80.22585,7.47372],[80.22532,7.47359],[80.22512,7.47385],[80.22405,7.47415],[80.22354,7.47447],[80.22349,7.47436],[80.22302,7.47471],[80.22203,7.47525],[80.22185,7.47579],[80.22128,7.47616]]]}},{"type":"Feature","properties":{"c":"farmland"},"geometry":{"type":"Polygon","coordinates":[[[80.22098,7.47694],[80.22164,7.47731],[80.22185,7.47703],[80.22201,7.47723],[80.22218,7.47662],[80.22173,7.47656],[80.2212,7.4763],[80.22098,7.47694]]]}},{"type":"Feature","properties":{"c":"farmland"},"geometry":{"type":"Polygon","coordinates":[[[80.21594,7.46928],[80.21858,7.46974],[80.2196,7.46753],[80.21635,7.46697],[80.21594,7.46928]]]}},{"type":"Feature","properties":{"c":"farmland"},"geometry":{"type":"Polygon","coordinates":[[[80.22841,7.48448],[80.23055,7.48595],[80.231,7.4856],[80.23127,7.48591],[80.23098,7.48617],[80.23137,7.48672],[80.23185,7.4869],[80.23241,7.48647],[80.23297,7.48645],[80.23319,7.48594],[80.23351,7.48616],[80.23375,7.48571],[80.23348,7.48543],[80.23376,7.48501],[80.23338,7.48488],[80.23325,7.48442],[80.23337,7.48351],[80.23236,7.48317],[80.23156,7.48273],[80.23107,7.48358],[80.2305,7.48409],[80.23052,7.48426],[80.23038,7.48433],[80.23023,7.48411],[80.23008,7.48412],[80.22998,7.48434],[80.22967,7.48421],[80.22956,7.48392],[80.229,7.4838],[80.22845,7.48378],[80.22875,7.48423],[80.22841,7.48448]]]}},{"type":"Feature","properties":{"c":"farmland"},"geometry":{"type":"Polygon","coordinates":[[[80.22969,7.46725],[80.23002,7.46733],[80.23066,7.46806],[80.23023,7.46842],[80.23062,7.46908],[80.23012,7.47022],[80.23003,7.47084],[80.23031,7.47096],[80.23107,7.46987],[80.23133,7.46999],[80.23101,7.471],[80.23127,7.47151],[80.2316,7.47135],[80.23141,7.47092],[80.23161,7.47055],[80.23186,7.47096],[80.23208,7.47122],[80.23276,7.47117],[80.2329,7.47148],[80.23282,7.47193],[80.23242,7.47291],[80.23269,7.47314],[80.23284,7.4736],[80.23315,7.47297],[80.23349,7.47244],[80.23362,7.47299],[80.23397,7.47324],[80.23405,7.47301],[80.23433,7.47302],[80.23414,7.47383],[80.23433,7.47431],[80.23483,7.47428],[80.23472,7.47406],[80.23479,7.47395],[80.23468,7.47348],[80.23483,7.4732],[80.23433,7.47233],[80.23465,7.47211],[80.23504,7.47174],[80.23487,7.47162],[80.23492,7.4712],[80.23531,7.4703],[80.23497,7.46959],[80.23449,7.46905],[80.2339,7.4687],[80.2338,7.46824],[80.23344,7.46794],[80.23316,7.46755],[80.23314,7.46728],[80.23292,7.46707],[80.23276,7.46723],[80.23228,7.4669],[80.23176,7.46602],[80.22972,7.46717],[80.22969,7.46725]]]}},{"type":"Feature","properties":{"c":"farmland"},"geometry":{"type":"Polygon","coordinates":[[[80.22373,7.46449],[80.2242,7.46466],[80.22435,7.46487],[80.2255,7.46474],[80.22665,7.46483],[80.22658,7.46578],[80.22594,7.46604],[80.22595,7.46631],[80.22524,7.46676],[80.22523,7.46706],[80.22632,7.46801],[80.22576,7.46881],[80.22566,7.46998],[80.22535,7.4709],[80.22531,7.47126],[80.22567,7.4715],[80.22586,7.47125],[80.22596,7.47131],[80.22624,7.47072],[80.22633,7.47082],[80.22624,7.47104],[80.22658,7.47112],[80.22679,7.4707],[80.22698,7.47051],[80.22716,7.47058],[80.22706,7.47111],[80.22775,7.47079],[80.22771,7.47044],[80.22792,7.47022],[80.22781,7.46973],[80.22733,7.46957],[80.22754,7.46874],[80.22774,7.46815],[80.22919,7.46842],[80.22951,7.46727],[80.22973,7.46704],[80.23163,7.46598],[80.23234,7.46594],[80.23228,7.46548],[80.23191,7.46537],[80.23194,7.46491],[80.23204,7.46484],[80.23206,7.46426],[80.23223,7.46398],[80.23218,7.46357],[80.23245,7.46353],[80.23244,7.46295],[80.23213,7.46292],[80.2321,7.46192],[80.23177,7.46174],[80.23178,7.46124],[80.23116,7.46121],[80.231,7.4615],[80.22966,7.46139],[80.22949,7.46174],[80.22915,7.46184],[80.22863,7.46184],[80.22854,7.46192],[80.22845,7.4621],[80.22679,7.46235],[80.2266,7.46229],[80.22638,7.46213],[80.22591,7.46205],[80.22534,7.46297],[80.22523,7.4635],[80.22522,7.46382],[80.22393,7.46386],[80.22373,7.46449]]]}},{"type":"Feature","properties":{"c":"farmland"},"geometry":{"type":"Polygon","coordinates":[[[80.26231,7.43377],[80.26284,7.43439],[80.26244,7.43475],[80.26271,7.43494],[80.26307,7.43478],[80.26316,7.43504],[80.26232,7.43602],[80.26239,7.43634],[80.26362,7.43714],[80.26412,7.43729],[80.26513,7.43721],[80.26533,7.43688],[80.26558,7.43688],[80.26544,7.43672],[80.26574,7.4369],[80.26589,7.43654],[80.26524,7.43612],[80.26447,7.43623],[80.26448,7.43577],[80.26495,7.43519],[80.26431,7.43492],[80.26426,7.43467],[80.26479,7.43449],[80.2653,7.43462],[80.26616,7.43365],[80.26563,7.43341],[80.26517,7.43405],[80.26436,7.43394],[80.26417,7.43411],[80.26331,7.43331],[80.26299,7.43337],[80.26231,7.43377]]]}},{"type":"Feature","properties":{"c":"farmland"},"geometry":{"type":"Polygon","coordinates":[[[80.24377,7.45629],[80.24499,7.45659],[80.24514,7.45677],[80.24534,7.45661],[80.24602,7.45673],[80.24618,7.45654],[80.2464,7.45661],[80.2464,7.45695],[80.24776,7.45688],[80.24896,7.45642],[80.24866,7.45605],[80.24793,7.45632],[80.24753,7.45622],[80.24679,7.45592],[80.24638,7.45591],[80.24611,7.45527],[80.24548,7.45546],[80.24545,7.45518],[80.24566,7.45501],[80.24645,7.45456],[80.24684,7.45426],[80.24676,7.45406],[80.24689,7.45389],[80.24724,7.45375],[80.24772,7.45347],[80.2477,7.45329],[80.24786,7.4532],[80.24787,7.45341],[80.24815,7.45349],[80.24837,7.45303],[80.24736,7.45284],[80.24721,7.45294],[80.24689,7.45265],[80.24693,7.45252],[80.24626,7.45227],[80.24531,7.45147],[80.24498,7.45189],[80.24556,7.45259],[80.24572,7.45262],[80.24555,7.45324],[80.24532,7.45384],[80.24553,7.45394],[80.24508,7.45455],[80.24485,7.4545],[80.24443,7.45511],[80.24467,7.45531],[80.24416,7.45562],[80.24377,7.45629]]]}},{"type":"Feature","properties":{"c":"farmland"},"geometry":{"type":"Polygon","coordinates":[[[80.24262,7.45969],[80.24309,7.45981],[80.24333,7.45958],[80.24374,7.45965],[80.24382,7.45897],[80.24417,7.4586],[80.24409,7.45847],[80.24429,7.45808],[80.24442,7.45755],[80.24487,7.45665],[80.24376,7.45645],[80.24366,7.45692],[80.24377,7.45715],[80.24366,7.45739],[80.24371,7.45751],[80.24394,7.45774],[80.24385,7.45791],[80.24348,7.45798],[80.24327,7.4581],[80.24294,7.45867],[80.24303,7.45892],[80.24282,7.45914],[80.24262,7.45969]]]}},{"type":"Feature","properties":{"c":"farmland"},"geometry":{"type":"Polygon","coordinates":[[[80.25991,7.45314],[80.26006,7.45352],[80.26108,7.4536],[80.26121,7.45306],[80.26205,7.45294],[80.26193,7.45313],[80.26217,7.45307],[80.263,7.45269],[80.26285,7.45235],[80.26216,7.45234],[80.26189,7.45245],[80.26147,7.45172],[80.26134,7.4513],[80.2612,7.4511],[80.26051,7.4505],[80.26017,7.45057],[80.26017,7.45107],[80.26042,7.45179],[80.26103,7.45182],[80.26143,7.4525],[80.26056,7.45283],[80.25991,7.45314]]]}},{"type":"Feature","properties":{"c":"farmland"},"geometry":{"type":"Polygon","coordinates":[[[80.2576,7.45276],[80.25781,7.45326],[80.25798,7.45331],[80.25817,7.45354],[80.25833,7.45399],[80.259,7.45397],[80.25908,7.45379],[80.25934,7.45355],[80.25957,7.45381],[80.25991,7.45351],[80.25986,7.45321],[80.25948,7.45327],[80.25944,7.453],[80.25896,7.45276],[80.25879,7.45244],[80.25912,7.4518],[80.25853,7.4515],[80.25816,7.45181],[80.25824,7.45207],[80.25836,7.45215],[80.25816,7.45245],[80.25769,7.45234],[80.2576,7.45276]]]}},{"type":"Feature","properties":{"c":"farmland"},"geometry":{"type":"Polygon","coordinates":[[[80.25646,7.4561],[80.25676,7.45639],[80.25755,7.45631],[80.25784,7.45656],[80.25806,7.45685],[80.2586,7.45702],[80.25865,7.45722],[80.25813,7.4573],[80.25802,7.45752],[80.25759,7.45784],[80.25796,7.45831],[80.25844,7.45797],[80.25837,7.45777],[80.25847,7.45773],[80.25868,7.45786],[80.25911,7.45785],[80.25937,7.45823],[80.25984,7.4585],[80.26032,7.45865],[80.26075,7.45914],[80.26088,7.45935],[80.26092,7.45959],[80.26114,7.45994],[80.26181,7.4598],[80.26165,7.45939],[80.2615,7.45926],[80.26156,7.45898],[80.26123,7.45866],[80.26131,7.45839],[80.26074,7.45775],[80.26058,7.45751],[80.26031,7.45694],[80.26027,7.45656],[80.26001,7.45625],[80.25995,7.45579],[80.26039,7.45558],[80.2607,7.45523],[80.26092,7.45487],[80.26085,7.45466],[80.26092,7.45443],[80.26106,7.45365],[80.26033,7.4536],[80.26019,7.45364],[80.26027,7.45388],[80.25983,7.45418],[80.2594,7.45477],[80.25901,7.45402],[80.25834,7.45407],[80.25823,7.45442],[80.25857,7.45514],[80.25886,7.45549],[80.25911,7.45589],[80.25886,7.45628],[80.25799,7.45604],[80.25766,7.45572],[80.25735,7.4558],[80.25708,7.45577],[80.25674,7.45566],[80.25646,7.4561]]]}},{"type":"Feature","properties":{"c":"farmland"},"geometry":{"type":"Polygon","coordinates":[[[80.2612,7.46018],[80.26183,7.46101],[80.26217,7.46172],[80.26204,7.46234],[80.26201,7.46288],[80.26188,7.46337],[80.26279,7.46346],[80.26339,7.46395],[80.26373,7.46377],[80.2637,7.46288],[80.26405,7.46223],[80.26381,7.46221],[80.26351,7.4628],[80.26324,7.4627],[80.26346,7.46255],[80.26358,7.46214],[80.26402,7.46205],[80.26424,7.46159],[80.26449,7.46073],[80.26391,7.46121],[80.26342,7.46112],[80.26303,7.46125],[80.26282,7.46103],[80.26265,7.46075],[80.26256,7.46096],[80.26221,7.46107],[80.26213,7.46106],[80.26253,7.46074],[80.26241,7.46053],[80.26209,7.4604],[80.26232,7.46016],[80.26174,7.45998],[80.2612,7.46018]]]}},{"type":"Feature","properties":{"c":"farmland"},"geometry":{"type":"Polygon","coordinates":[[[80.26092,7.46507],[80.26157,7.46517],[80.26163,7.46481],[80.26159,7.46443],[80.26107,7.46415],[80.26092,7.46507]]]}},{"type":"Feature","properties":{"c":"farmland"},"geometry":{"type":"Polygon","coordinates":[[[80.26147,7.46419],[80.26172,7.46446],[80.26248,7.46456],[80.26258,7.46556],[80.26263,7.46565],[80.2626,7.46616],[80.26302,7.46637],[80.2629,7.46652],[80.26334,7.46667],[80.26405,7.46655],[80.2644,7.46612],[80.26487,7.4662],[80.26503,7.46583],[80.26534,7.46545],[80.26552,7.46531],[80.26586,7.4648],[80.26525,7.46446],[80.26489,7.46538],[80.26459,7.46565],[80.26432,7.4655],[80.26375,7.4657],[80.26308,7.46479],[80.263,7.46448],[80.26312,7.46421],[80.26328,7.46427],[80.26312,7.46387],[80.26185,7.46342],[80.26159,7.4639],[80.26172,7.46401],[80.26147,7.46419]]]}},{"type":"Feature","properties":{"c":"farmland"},"geometry":{"type":"Polygon","coordinates":[[[80.26536,7.46434],[80.26614,7.46483],[80.2668,7.46483],[80.26711,7.46439],[80.26715,7.46419],[80.2671,7.46395],[80.26699,7.46394],[80.26631,7.46412],[80.26551,7.46411],[80.26536,7.46434]]]}},{"type":"Feature","properties":{"c":"farmland"},"geometry":{"type":"Polygon","coordinates":[[[80.26719,7.46325],[80.26742,7.4637],[80.26846,7.46319],[80.26874,7.46343],[80.26907,7.46306],[80.26944,7.46166],[80.27039,7.46115],[80.26966,7.46052],[80.26874,7.46157],[80.26891,7.46166],[80.26778,7.46251],[80.26719,7.46325]]]}},{"type":"Feature","properties":{"c":"farmland"},"geometry":{"type":"Polygon","coordinates":[[[80.26615,7.46599],[80.26677,7.46671],[80.26735,7.46621],[80.26791,7.4663],[80.26794,7.46662],[80.2685,7.46679],[80.26946,7.46746],[80.26968,7.46714],[80.26965,7.46692],[80.26932,7.46684],[80.2677,7.46552],[80.26873,7.46497],[80.26948,7.46485],[80.27004,7.46407],[80.27047,7.46413],[80.27117,7.463],[80.27042,7.46255],[80.26989,7.46163],[80.26958,7.46181],[80.2693,7.46372],[80.26805,7.46354],[80.26749,7.46391],[80.26776,7.46432],[80.26709,7.46476],[80.26691,7.46504],[80.26711,7.46542],[80.26654,7.4657],[80.26635,7.46533],[80.26656,7.46523],[80.26657,7.46505],[80.2662,7.46503],[80.26615,7.46599]]]}},{"type":"Feature","properties":{"c":"farmland"},"geometry":{"type":"Polygon","coordinates":[[[80.26984,7.46055],[80.27033,7.46098],[80.27062,7.46065],[80.27132,7.46027],[80.27155,7.45991],[80.27152,7.45954],[80.27133,7.45932],[80.27111,7.4595],[80.27109,7.45972],[80.27083,7.46],[80.27057,7.45991],[80.27014,7.46013],[80.27025,7.46033],[80.26984,7.46055]]]}},{"type":"Feature","properties":{"c":"farmland"},"geometry":{"type":"Polygon","coordinates":[[[80.2701,7.46166],[80.27032,7.462],[80.272,7.46292],[80.27255,7.46264],[80.273,7.46251],[80.27375,7.46342],[80.27417,7.46369],[80.2743,7.46326],[80.27411,7.46298],[80.27353,7.46246],[80.27368,7.46157],[80.27445,7.46148],[80.27469,7.46077],[80.27432,7.46031],[80.27503,7.45964],[80.27504,7.45918],[80.2748,7.45908],[80.27395,7.45929],[80.27362,7.45895],[80.27281,7.45923],[80.27265,7.45906],[80.27233,7.4591],[80.27192,7.45935],[80.2714,7.46048],[80.27056,7.46095],[80.27053,7.46117],[80.2701,7.46166]]]}},{"type":"Feature","properties":{"c":"farmland"},"geometry":{"type":"Polygon","coordinates":[[[80.27191,7.46321],[80.27354,7.46404],[80.27374,7.4638],[80.27359,7.4634],[80.2732,7.46275],[80.27299,7.46276],[80.27191,7.46321]]]}},{"type":"Feature","properties":{"c":"farmland"},"geometry":{"type":"Polygon","coordinates":[[[80.27295,7.45865],[80.27295,7.45891],[80.27533,7.45963],[80.27602,7.45971],[80.27643,7.4603],[80.27689,7.46028],[80.27676,7.45989],[80.277,7.45964],[80.27705,7.45734],[80.27631,7.45747],[80.27606,7.45777],[80.27549,7.45723],[80.27525,7.45718],[80.27535,7.45796],[80.27373,7.45836],[80.27295,7.45865]]]}},{"type":"Feature","properties":{"c":"farmland"},"geometry":{"type":"Polygon","coordinates":[[[80.28007,7.46058],[80.28034,7.46086],[80.28077,7.46104],[80.28147,7.46282],[80.28183,7.46311],[80.28199,7.46315],[80.28252,7.46313],[80.28249,7.46251],[80.2824,7.4622],[80.28227,7.46204],[80.28199,7.46215],[80.28187,7.46184],[80.28213,7.46174],[80.28263,7.46182],[80.28286,7.46157],[80.2833,7.46156],[80.28329,7.46097],[80.28173,7.46098],[80.28173,7.46056],[80.28007,7.46058]]]}},{"type":"Feature","properties":{"c":"farmland"},"geometry":{"type":"Polygon","coordinates":[[[80.28247,7.46222],[80.28285,7.46229],[80.28309,7.46212],[80.28334,7.4622],[80.28352,7.46233],[80.28375,7.46235],[80.28394,7.4623],[80.28386,7.46205],[80.28398,7.46179],[80.28374,7.46183],[80.28372,7.46167],[80.2838,7.46153],[80.2833,7.46161],[80.28315,7.46174],[80.28266,7.46197],[80.28247,7.46222]]]}},{"type":"Feature","properties":{"c":"farmland"},"geometry":{"type":"Polygon","coordinates":[[[80.28261,7.45766],[80.28262,7.45815],[80.28302,7.4585],[80.28337,7.45853],[80.2833,7.4587],[80.28335,7.45894],[80.28389,7.45949],[80.28413,7.45937],[80.28386,7.45883],[80.28376,7.45841],[80.28387,7.45801],[80.28376,7.45773],[80.28418,7.45752],[80.28448,7.45752],[80.28464,7.4573],[80.28502,7.45735],[80.28512,7.45759],[80.28513,7.45717],[80.28501,7.45701],[80.28486,7.45711],[80.28451,7.45683],[80.28391,7.45725],[80.28355,7.45679],[80.28341,7.45685],[80.28349,7.45717],[80.28313,7.45728],[80.28272,7.45714],[80.28261,7.45766]]]}},{"type":"Feature","properties":{"c":"farmland"},"geometry":{"type":"Polygon","coordinates":[[[80.2847,7.46414],[80.28491,7.46482],[80.28512,7.46476],[80.28522,7.46532],[80.28613,7.46476],[80.28628,7.46453],[80.28645,7.46472],[80.28671,7.46481],[80.28752,7.46455],[80.28862,7.46444],[80.28861,7.46462],[80.28892,7.46461],[80.28961,7.46491],[80.28989,7.46529],[80.29041,7.46505],[80.28984,7.46448],[80.28942,7.46442],[80.28976,7.46427],[80.28984,7.46409],[80.29028,7.46401],[80.29112,7.46397],[80.29117,7.46378],[80.29099,7.46359],[80.29088,7.46371],[80.29067,7.46364],[80.29057,7.46337],[80.29008,7.46325],[80.28991,7.46331],[80.28978,7.46314],[80.2895,7.46328],[80.28904,7.46322],[80.28748,7.46375],[80.28683,7.46362],[80.28636,7.46369],[80.28625,7.46366],[80.28599,7.46394],[80.28523,7.46429],[80.28489,7.46407],[80.2847,7.46414]]]}},{"type":"Feature","properties":{"c":"farmland"},"geometry":{"type":"Polygon","coordinates":[[[80.28307,7.46559],[80.28331,7.46577],[80.2834,7.4657],[80.28345,7.46574],[80.28352,7.46573],[80.28368,7.46587],[80.28375,7.46581],[80.28381,7.46583],[80.28381,7.46598],[80.28466,7.46563],[80.28481,7.46531],[80.28463,7.46423],[80.28431,7.46466],[80.28388,7.46482],[80.2838,7.46497],[80.28372,7.46487],[80.28334,7.46514],[80.28332,7.4653],[80.28321,7.46536],[80.28307,7.46559]]]}},{"type":"Feature","properties":{"c":"farmland"},"geometry":{"type":"Polygon","coordinates":[[[80.2948,7.46141],[80.2949,7.46164],[80.2953,7.46141],[80.29579,7.46104],[80.29613,7.46102],[80.29658,7.46087],[80.29677,7.46065],[80.29724,7.46038],[80.29694,7.4601],[80.29673,7.46036],[80.29612,7.46044],[80.29603,7.46029],[80.29543,7.46069],[80.2948,7.46141]]]}},{"type":"Feature","properties":{"c":"farmland"},"geometry":{"type":"Polygon","coordinates":[[[80.23395,7.48083],[80.23406,7.48106],[80.23545,7.48154],[80.23566,7.48126],[80.23551,7.48123],[80.23544,7.4813],[80.23538,7.48125],[80.23549,7.48113],[80.23517,7.48082],[80.23501,7.48097],[80.23502,7.48109],[80.23461,7.48112],[80.23493,7.48063],[80.2348,7.48063],[80.2348,7.48082],[80.2343,7.48082],[80.2344,7.48073],[80.23422,7.48069],[80.23464,7.48049],[80.23428,7.48049],[80.23395,7.48083]]]}},{"type":"Feature","properties":{"c":"farmland"},"geometry":{"type":"Polygon","coordinates":[[[80.23417,7.47876],[80.23423,7.47952],[80.23496,7.48013],[80.23535,7.48036],[80.23577,7.48042],[80.23589,7.48029],[80.23603,7.48042],[80.23647,7.48024],[80.23655,7.47993],[80.23681,7.47985],[80.23674,7.47968],[80.23665,7.47974],[80.23622,7.47892],[80.23627,7.47876],[80.23605,7.47867],[80.23573,7.47884],[80.23533,7.47861],[80.23512,7.47875],[80.23476,7.47825],[80.23417,7.47876]]]}},{"type":"Feature","properties":{"c":"farmland"},"geometry":{"type":"Polygon","coordinates":[[[80.24181,7.47601],[80.24211,7.47612],[80.24221,7.47588],[80.2419,7.47577],[80.24181,7.47601]]]}},{"type":"Feature","properties":{"c":"farmland"},"geometry":{"type":"Polygon","coordinates":[[[80.24016,7.48668],[80.24024,7.48693],[80.24063,7.48752],[80.24124,7.48729],[80.24147,7.48651],[80.24127,7.48587],[80.24091,7.48579],[80.24052,7.48626],[80.24056,7.48632],[80.24035,7.48646],[80.24016,7.48668]]]}},{"type":"Feature","properties":{"c":"farmland"},"geometry":{"type":"Polygon","coordinates":[[[80.2387,7.48675],[80.23891,7.48681],[80.23903,7.48715],[80.23895,7.48722],[80.23933,7.48786],[80.24012,7.48762],[80.24041,7.48763],[80.2404,7.48746],[80.24032,7.4875],[80.23997,7.4866],[80.2394,7.48622],[80.23914,7.4864],[80.23905,7.48627],[80.23874,7.48649],[80.2387,7.48675]]]}},{"type":"Feature","properties":{"c":"farmland"},"geometry":{"type":"Polygon","coordinates":[[[80.23959,7.48796],[80.24022,7.48852],[80.24045,7.48848],[80.24042,7.48863],[80.24025,7.48872],[80.24023,7.48931],[80.24006,7.48979],[80.24094,7.48968],[80.24092,7.48944],[80.24073,7.48945],[80.24079,7.48933],[80.24097,7.48935],[80.24101,7.48889],[80.24089,7.48814],[80.24053,7.48769],[80.24008,7.48772],[80.23976,7.4878],[80.23959,7.48796]]]}},{"type":"Feature","properties":{"c":"farmland"},"geometry":{"type":"Polygon","coordinates":[[[80.23874,7.49325],[80.23995,7.49332],[80.24004,7.4931],[80.23983,7.49274],[80.2403,7.49207],[80.2405,7.49159],[80.24063,7.49119],[80.24051,7.49098],[80.24072,7.49082],[80.24085,7.49036],[80.24084,7.48982],[80.24006,7.48993],[80.24008,7.49012],[80.23942,7.49159],[80.23936,7.49156],[80.23876,7.49218],[80.23874,7.49325]]]}},{"type":"Feature","properties":{"c":"farmland"},"geometry":{"type":"Polygon","coordinates":[[[80.23727,7.49244],[80.23756,7.49264],[80.23764,7.49259],[80.23755,7.49251],[80.23766,7.49246],[80.23785,7.49267],[80.23821,7.49279],[80.23826,7.49249],[80.23856,7.49251],[80.2388,7.49201],[80.23767,7.4917],[80.23727,7.49244]]]}},{"type":"Feature","properties":{"c":"farmland"},"geometry":{"type":"Polygon","coordinates":[[[80.22463,7.50547],[80.22463,7.50569],[80.22576,7.50634],[80.22582,7.50617],[80.22597,7.50624],[80.22622,7.50619],[80.2274,7.50548],[80.22744,7.50527],[80.22735,7.5051],[80.22603,7.50442],[80.22611,7.50427],[80.22543,7.50393],[80.22475,7.50464],[80.22478,7.5051],[80.22463,7.50547]]]}},{"type":"Feature","properties":{"c":"farmland"},"geometry":{"type":"Polygon","coordinates":[[[80.25999,7.44928],[80.2607,7.44935],[80.2607,7.44906],[80.26101,7.44889],[80.26147,7.44789],[80.26193,7.44715],[80.26238,7.44576],[80.26174,7.44548],[80.26169,7.44621],[80.26142,7.44688],[80.26113,7.44745],[80.26086,7.44734],[80.26055,7.44751],[80.26062,7.44777],[80.26037,7.4489],[80.2601,7.44904],[80.25999,7.44928]]]}},{"type":"Feature","properties":{"c":"farmland"},"geometry":{"type":"Polygon","coordinates":[[[80.25987,7.44898],[80.26002,7.44897],[80.26024,7.44873],[80.26051,7.44802],[80.26039,7.44793],[80.26014,7.44806],[80.26009,7.44868],[80.25987,7.44898]]]}},{"type":"Feature","properties":{"c":"farmland"},"geometry":{"type":"Polygon","coordinates":[[[80.26144,7.4457],[80.26279,7.44622],[80.26331,7.44487],[80.26258,7.44459],[80.26234,7.44519],[80.26173,7.44496],[80.26144,7.4457]]]}},{"type":"Feature","properties":{"c":"farmland"},"geometry":{"type":"Polygon","coordinates":[[[80.26432,7.44267],[80.26498,7.44347],[80.26533,7.44255],[80.26567,7.4421],[80.26633,7.44137],[80.26517,7.44114],[80.26432,7.44267]]]}},{"type":"Feature","properties":{"c":"farmland"},"geometry":{"type":"Polygon","coordinates":[[[80.26267,7.44187],[80.26307,7.44223],[80.26317,7.44208],[80.2635,7.44111],[80.2642,7.43972],[80.26396,7.43961],[80.26408,7.43937],[80.26448,7.43919],[80.26494,7.43964],[80.26504,7.4394],[80.26465,7.43887],[80.2643,7.43878],[80.26403,7.43821],[80.26425,7.43768],[80.26411,7.43772],[80.26404,7.43731],[80.26341,7.43705],[80.26338,7.43812],[80.26347,7.43862],[80.26333,7.43936],[80.26336,7.43964],[80.2636,7.43955],[80.26357,7.43993],[80.26318,7.44078],[80.26297,7.44139],[80.2628,7.44153],[80.26267,7.44187]]]}},{"type":"Feature","properties":{"c":"farmland"},"geometry":{"type":"Polygon","coordinates":[[[80.26812,7.44982],[80.26895,7.45046],[80.26961,7.45057],[80.26997,7.45048],[80.27006,7.45033],[80.27008,7.45018],[80.27059,7.45044],[80.2706,7.45098],[80.27078,7.45101],[80.27128,7.45065],[80.27087,7.45005],[80.27098,7.44988],[80.27078,7.4489],[80.27,7.44816],[80.2698,7.44834],[80.27001,7.44909],[80.26939,7.45],[80.26939,7.44967],[80.26857,7.44953],[80.26812,7.44982]]]}},{"type":"Feature","properties":{"c":"farmland"},"geometry":{"type":"Polygon","coordinates":[[[80.27104,7.45103],[80.27202,7.45141],[80.27238,7.45107],[80.27248,7.45092],[80.27171,7.45045],[80.27104,7.45103]]]}},{"type":"Feature","properties":{"c":"farmland"},"geometry":{"type":"Polygon","coordinates":[[[80.27184,7.45036],[80.27267,7.45082],[80.27321,7.45063],[80.27372,7.45052],[80.27376,7.44989],[80.27352,7.44974],[80.2737,7.44842],[80.27425,7.44788],[80.27503,7.44755],[80.27531,7.44716],[80.27569,7.44698],[80.27554,7.4463],[80.27549,7.44568],[80.27581,7.44558],[80.27567,7.44472],[80.27184,7.45036]]]}},{"type":"Feature","properties":{"c":"farmland"},"geometry":{"type":"Polygon","coordinates":[[[80.2767,7.44692],[80.27672,7.44716],[80.27702,7.44746],[80.27741,7.44808],[80.27782,7.44823],[80.27854,7.44808],[80.27886,7.44773],[80.27892,7.44748],[80.27932,7.44735],[80.27992,7.4464],[80.28027,7.44596],[80.28045,7.44534],[80.28043,7.44503],[80.27985,7.44554],[80.27953,7.44597],[80.27934,7.44668],[80.27871,7.44752],[80.27812,7.4475],[80.27793,7.44736],[80.27797,7.44714],[80.27767,7.4471],[80.27768,7.44683],[80.2775,7.44683],[80.27738,7.44701],[80.2767,7.44692]]]}},{"type":"Feature","properties":{"c":"farmland"},"geometry":{"type":"Polygon","coordinates":[[[80.27861,7.44818],[80.27869,7.449],[80.27901,7.44974],[80.2793,7.45028],[80.27959,7.45101],[80.28001,7.45081],[80.27971,7.45021],[80.27981,7.44945],[80.27952,7.44911],[80.27971,7.44879],[80.27952,7.4485],[80.27957,7.4483],[80.27967,7.44819],[80.27984,7.44787],[80.27982,7.4476],[80.27999,7.44703],[80.27991,7.44671],[80.27927,7.44777],[80.27935,7.44779],[80.27912,7.44801],[80.27882,7.44789],[80.27861,7.44818]]]}},{"type":"Feature","properties":{"c":"farmland"},"geometry":{"type":"Polygon","coordinates":[[[80.28008,7.44645],[80.28044,7.44649],[80.28074,7.44607],[80.28123,7.44558],[80.28155,7.44508],[80.28144,7.44482],[80.28159,7.44466],[80.28181,7.44463],[80.28238,7.44394],[80.28215,7.44389],[80.28196,7.44408],[80.28158,7.444],[80.28104,7.44452],[80.28089,7.44489],[80.28065,7.44491],[80.28036,7.44605],[80.28013,7.44622],[80.28008,7.44645]]]}},{"type":"Feature","properties":{"c":"farmland"},"geometry":{"type":"Polygon","coordinates":[[[80.28048,7.44468],[80.2808,7.4447],[80.28094,7.44426],[80.28123,7.44417],[80.2813,7.44397],[80.28166,7.4438],[80.28196,7.44387],[80.28211,7.44376],[80.28255,7.44367],[80.2823,7.44314],[80.28193,7.44261],[80.28206,7.44216],[80.28158,7.44269],[80.28123,7.44316],[80.28086,7.44384],[80.28067,7.44436],[80.28048,7.44468]]]}},{"type":"Feature","properties":{"c":"farmland"},"geometry":{"type":"Polygon","coordinates":[[[80.28204,7.44265],[80.28229,7.44296],[80.28268,7.44326],[80.28333,7.4428],[80.28231,7.44205],[80.28204,7.44265]]]}},{"type":"Feature","properties":{"c":"farmland"},"geometry":{"type":"Polygon","coordinates":[[[80.28239,7.44198],[80.28283,7.44237],[80.28343,7.44275],[80.28373,7.44269],[80.2843,7.44289],[80.28456,7.44259],[80.28438,7.44243],[80.28458,7.44224],[80.28439,7.44188],[80.28385,7.44209],[80.28385,7.44221],[80.28354,7.44226],[80.28276,7.44163],[80.28239,7.44198]]]}},{"type":"Feature","properties":{"c":"farmland"},"geometry":{"type":"Polygon","coordinates":[[[80.28143,7.43938],[80.28182,7.43964],[80.28222,7.4396],[80.2822,7.43977],[80.28189,7.43981],[80.28194,7.44053],[80.28213,7.44169],[80.28225,7.44186],[80.28273,7.44142],[80.28325,7.44162],[80.28313,7.44071],[80.28313,7.44036],[80.28301,7.43957],[80.28263,7.43914],[80.28263,7.43865],[80.28156,7.4385],[80.28153,7.43892],[80.28143,7.43938]]]}},{"type":"Feature","properties":{"c":"farmland"},"geometry":{"type":"Polygon","coordinates":[[[80.28163,7.43831],[80.28189,7.43826],[80.28275,7.43844],[80.28298,7.43795],[80.28293,7.43776],[80.28333,7.43768],[80.28353,7.43776],[80.28358,7.43744],[80.28321,7.43713],[80.28308,7.43724],[80.28291,7.43715],[80.28299,7.43692],[80.28292,7.43671],[80.28323,7.43629],[80.28231,7.43608],[80.28176,7.43648],[80.28178,7.43702],[80.28211,7.43745],[80.28163,7.43831]]]}},{"type":"Feature","properties":{"c":"farmland"},"geometry":{"type":"Polygon","coordinates":[[[80.28084,7.4371],[80.28108,7.43833],[80.28151,7.43825],[80.28194,7.43756],[80.28159,7.43696],[80.28084,7.4371]]]}},{"type":"Feature","properties":{"c":"farmland"},"geometry":{"type":"Polygon","coordinates":[[[80.28016,7.434],[80.28024,7.43459],[80.28056,7.43466],[80.28058,7.43511],[80.28026,7.43517],[80.28054,7.43596],[80.28068,7.43612],[80.28071,7.43688],[80.28155,7.43675],[80.28157,7.43603],[80.28128,7.43567],[80.2811,7.43357],[80.28016,7.434]]]}},{"type":"Feature","properties":{"c":"farmland"},"geometry":{"type":"Polygon","coordinates":[[[80.27611,7.43124],[80.27635,7.43131],[80.27633,7.43171],[80.27673,7.43185],[80.27722,7.43193],[80.27795,7.43231],[80.27773,7.43272],[80.27727,7.43276],[80.2769,7.43246],[80.27663,7.43268],[80.2766,7.4332],[80.27712,7.43323],[80.27716,7.43361],[80.27712,7.43399],[80.27905,7.43564],[80.2796,7.43583],[80.27966,7.43546],[80.28006,7.43554],[80.28,7.43518],[80.28001,7.43457],[80.27981,7.43442],[80.27993,7.4339],[80.281,7.43353],[80.28127,7.43303],[80.28082,7.43271],[80.28062,7.43271],[80.2804,7.4323],[80.28079,7.43176],[80.28044,7.43071],[80.28087,7.42986],[80.28116,7.42892],[80.28144,7.42874],[80.28123,7.4285],[80.28087,7.42877],[80.28078,7.42868],[80.28094,7.42847],[80.28059,7.42827],[80.27957,7.42943],[80.27905,7.42974],[80.27873,7.43026],[80.27765,7.43093],[80.27684,7.43102],[80.27617,7.43099],[80.27611,7.43124]]]}},{"type":"Feature","properties":{"c":"farmland"},"geometry":{"type":"Polygon","coordinates":[[[80.27771,7.43026],[80.27784,7.43055],[80.27839,7.43032],[80.27864,7.43009],[80.27885,7.42978],[80.27906,7.42956],[80.27946,7.42932],[80.27969,7.42911],[80.2805,7.42813],[80.28039,7.42796],[80.28098,7.4271],[80.28133,7.42638],[80.28131,7.42604],[80.28143,7.42541],[80.28095,7.42572],[80.28065,7.42607],[80.28048,7.4261],[80.28073,7.42578],[80.28074,7.42563],[80.28107,7.42502],[80.28065,7.42478],[80.2804,7.42543],[80.27978,7.42544],[80.27911,7.42588],[80.27933,7.42615],[80.27958,7.42606],[80.27986,7.4261],[80.28008,7.42669],[80.27994,7.42711],[80.27953,7.42771],[80.27916,7.42754],[80.27903,7.42719],[80.27885,7.42712],[80.27872,7.42732],[80.27835,7.42736],[80.27816,7.42678],[80.27792,7.42675],[80.27783,7.4273],[80.27806,7.42781],[80.27854,7.42793],[80.27895,7.42819],[80.27893,7.42896],[80.27889,7.42932],[80.27845,7.42997],[80.27817,7.42927],[80.27775,7.42944],[80.27778,7.42975],[80.27771,7.43026]]]}},{"type":"Feature","properties":{"c":"farmland"},"geometry":{"type":"Polygon","coordinates":[[[80.28096,7.42777],[80.28146,7.42852],[80.2819,7.42809],[80.28207,7.42733],[80.28251,7.42658],[80.28273,7.42589],[80.28252,7.42591],[80.28265,7.42574],[80.28292,7.42573],[80.28338,7.42501],[80.28332,7.42481],[80.28347,7.42481],[80.28353,7.42456],[80.28339,7.42443],[80.28358,7.42395],[80.28275,7.42373],[80.28263,7.42429],[80.28216,7.42501],[80.2822,7.42479],[80.28207,7.42476],[80.28191,7.42509],[80.28182,7.42548],[80.28181,7.42509],[80.28148,7.42574],[80.28142,7.42643],[80.28101,7.42731],[80.28114,7.42741],[80.28096,7.42777]]]}},{"type":"Feature","properties":{"c":"farmland"},"geometry":{"type":"Polygon","coordinates":[[[80.28189,7.42899],[80.28249,7.43019],[80.28264,7.43017],[80.28262,7.43041],[80.28266,7.43094],[80.28345,7.43092],[80.28374,7.43063],[80.28316,7.42997],[80.28282,7.42916],[80.28307,7.42871],[80.28279,7.42842],[80.28251,7.42852],[80.2821,7.42892],[80.2821,7.42877],[80.28189,7.42899]]]}},{"type":"Feature","properties":{"c":"farmland"},"geometry":{"type":"Polygon","coordinates":[[[80.28687,7.42451],[80.28718,7.42469],[80.28722,7.42512],[80.28728,7.42523],[80.28708,7.4258],[80.28715,7.42606],[80.28757,7.4263],[80.28773,7.42613],[80.28787,7.42587],[80.28773,7.4259],[80.28768,7.42566],[80.28803,7.42527],[80.28803,7.42496],[80.28813,7.42474],[80.28858,7.42431],[80.28893,7.42446],[80.28916,7.42421],[80.28876,7.42376],[80.2883,7.4239],[80.28825,7.42373],[80.28848,7.42371],[80.28842,7.42355],[80.28771,7.42355],[80.28699,7.42419],[80.28687,7.42451]]]}},{"type":"Feature","properties":{"c":"farmland"},"geometry":{"type":"Polygon","coordinates":[[[80.28212,7.43572],[80.28325,7.43599],[80.28393,7.43664],[80.28427,7.43591],[80.28466,7.43561],[80.28464,7.43494],[80.28407,7.43506],[80.28414,7.43424],[80.28484,7.43378],[80.28499,7.43349],[80.28548,7.4338],[80.28593,7.43424],[80.28582,7.43458],[80.2865,7.43487],[80.28691,7.43383],[80.2866,7.43377],[80.28623,7.43414],[80.28585,7.43349],[80.28624,7.43321],[80.28674,7.43224],[80.28728,7.4317],[80.28953,7.4323],[80.29054,7.43188],[80.29092,7.43162],[80.29067,7.43127],[80.28996,7.43156],[80.28913,7.43152],[80.28811,7.43095],[80.28813,7.43023],[80.28904,7.429],[80.28966,7.42866],[80.29058,7.42876],[80.29154,7.42939],[80.29153,7.42987],[80.29274,7.42983],[80.29399,7.42986],[80.29383,7.42905],[80.29317,7.42889],[80.29366,7.42858],[80.29372,7.42795],[80.29315,7.42785],[80.29201,7.42889],[80.29126,7.42842],[80.29104,7.42723],[80.29139,7.42769],[80.29143,7.42694],[80.29094,7.42683],[80.29097,7.42647],[80.2915,7.42656],[80.29213,7.42573],[80.29277,7.42503],[80.29359,7.42443],[80.29409,7.4246],[80.29444,7.42453],[80.295,7.4246],[80.29483,7.42433],[80.29447,7.42431],[80.29414,7.42399],[80.29381,7.42415],[80.29309,7.42391],[80.2931,7.42342],[80.29361,7.42351],[80.29355,7.42326],[80.29282,7.42263],[80.29225,7.4235],[80.29155,7.42384],[80.29131,7.42409],[80.29155,7.42431],[80.291,7.42549],[80.2894,7.42798],[80.28869,7.42819],[80.28815,7.4286],[80.28777,7.42866],[80.28747,7.42918],[80.28722,7.42876],[80.2875,7.42704],[80.28741,7.42659],[80.28718,7.42655],[80.28693,7.42729],[80.28695,7.42752],[80.28677,7.42925],[80.28689,7.42964],[80.28626,7.43041],[80.28584,7.4312],[80.28491,7.43177],[80.28499,7.43141],[80.28451,7.43125],[80.28469,7.43055],[80.28429,7.43051],[80.28362,7.43112],[80.28341,7.43287],[80.283,7.43347],[80.28267,7.43466],[80.28251,7.43547],[80.28212,7.43572]]]}},{"type":"Feature","properties":{"c":"farmland"},"geometry":{"type":"Polygon","coordinates":[[[80.29997,7.42357],[80.30006,7.42391],[80.30044,7.42387],[80.30079,7.42354],[80.30143,7.42326],[80.30143,7.42316],[80.30161,7.42306],[80.30177,7.42329],[80.30286,7.42301],[80.30268,7.42266],[80.30268,7.42214],[80.30234,7.42103],[80.30211,7.42058],[80.30189,7.42038],[80.30173,7.42004],[80.3017,7.41951],[80.3014,7.41937],[80.30134,7.41913],[80.30167,7.419],[80.30192,7.41911],[80.30198,7.41887],[80.30186,7.41862],[80.30187,7.41837],[80.3017,7.41837],[80.30085,7.41921],[80.30024,7.42047],[80.30041,7.42067],[80.30033,7.42083],[80.30048,7.42098],[80.30039,7.42114],[80.3005,7.42143],[80.30076,7.42169],[80.30104,7.42173],[80.30087,7.42177],[80.30105,7.4223],[80.30033,7.42247],[80.30026,7.42286],[80.29997,7.42357]]]}},{"type":"Feature","properties":{"c":"farmland"},"geometry":{"type":"Polygon","coordinates":[[[80.29386,7.44063],[80.29462,7.44131],[80.29542,7.4413],[80.29617,7.44197],[80.29711,7.44123],[80.29707,7.43928],[80.29605,7.43913],[80.29607,7.4381],[80.2948,7.43942],[80.29457,7.43998],[80.29386,7.44063]]]}},{"type":"Feature","properties":{"c":"farmland"},"geometry":{"type":"Polygon","coordinates":[[[80.26245,7.48432],[80.26283,7.4848],[80.26412,7.4849],[80.26533,7.48522],[80.26654,7.48587],[80.26725,7.48572],[80.26731,7.48512],[80.26758,7.48491],[80.26778,7.48406],[80.2669,7.48375],[80.26691,7.48339],[80.26627,7.48296],[80.26666,7.48186],[80.26571,7.48157],[80.26435,7.48226],[80.26321,7.48334],[80.26245,7.48432]]]}},{"type":"Feature","properties":{"c":"farmland"},"geometry":{"type":"Polygon","coordinates":[[[80.2658,7.48098],[80.26668,7.48174],[80.26685,7.48171],[80.26691,7.48157],[80.26733,7.48121],[80.26783,7.48116],[80.26809,7.48118],[80.26814,7.48065],[80.26693,7.48036],[80.2665,7.4809],[80.26601,7.48077],[80.2658,7.48098]]]}},{"type":"Feature","properties":{"c":"farmland"},"geometry":{"type":"Polygon","coordinates":[[[80.26743,7.48627],[80.26767,7.48628],[80.26759,7.48588],[80.26782,7.48544],[80.26809,7.48538],[80.26825,7.48559],[80.26903,7.486],[80.26897,7.4864],[80.26915,7.48656],[80.26984,7.48639],[80.27024,7.48637],[80.27068,7.48704],[80.27085,7.48675],[80.27059,7.48636],[80.27069,7.48585],[80.27149,7.48582],[80.2714,7.48623],[80.27186,7.48628],[80.27218,7.48606],[80.27281,7.48598],[80.27407,7.4863],[80.27441,7.48549],[80.27412,7.48557],[80.27349,7.48536],[80.27321,7.48506],[80.27286,7.48527],[80.27083,7.48461],[80.27025,7.48463],[80.27,7.48436],[80.27032,7.48422],[80.27009,7.48345],[80.26944,7.48326],[80.26888,7.48381],[80.26936,7.4843],[80.26914,7.48439],[80.26862,7.48385],[80.26812,7.48399],[80.26791,7.48485],[80.26754,7.48529],[80.26743,7.48627]]]}},{"type":"Feature","properties":{"c":"farmland"},"geometry":{"type":"Polygon","coordinates":[[[80.26475,7.49656],[80.2662,7.49689],[80.26678,7.49755],[80.26812,7.49724],[80.26759,7.49632],[80.26853,7.49581],[80.26905,7.49637],[80.26975,7.49607],[80.27038,7.49556],[80.27157,7.49515],[80.27155,7.49476],[80.27272,7.49503],[80.27353,7.49632],[80.27423,7.49653],[80.27497,7.49484],[80.27553,7.49464],[80.27614,7.49329],[80.27564,7.49122],[80.27062,7.49188],[80.26556,7.49186],[80.26566,7.49433],[80.26475,7.49656]]]}},{"type":"Feature","properties":{"c":"farmland"},"geometry":{"type":"Polygon","coordinates":[[[80.254,7.48192],[80.25513,7.48277],[80.25522,7.48317],[80.25587,7.48332],[80.25737,7.4824],[80.25765,7.48304],[80.2574,7.48328],[80.25814,7.48441],[80.25866,7.4835],[80.25946,7.48377],[80.26007,7.48417],[80.2619,7.48416],[80.26224,7.48437],[80.26303,7.48344],[80.26238,7.48327],[80.2617,7.48258],[80.26073,7.48285],[80.26012,7.48282],[80.25952,7.48212],[80.26037,7.4812],[80.26127,7.48044],[80.26113,7.47992],[80.26043,7.48014],[80.26001,7.48068],[80.25961,7.48073],[80.25901,7.4814],[80.25871,7.48161],[80.25741,7.48131],[80.25631,7.4807],[80.25548,7.48122],[80.25509,7.48105],[80.25543,7.48018],[80.25479,7.48024],[80.25406,7.48118],[80.254,7.48192]]]}},{"type":"Feature","properties":{"c":"farmland"},"geometry":{"type":"Polygon","coordinates":[[[80.24986,7.48713],[80.24986,7.48768],[80.25196,7.48773],[80.25174,7.48731],[80.25168,7.48616],[80.25242,7.48494],[80.25268,7.48471],[80.25296,7.48534],[80.25356,7.48548],[80.25401,7.48494],[80.25482,7.48569],[80.25498,7.48535],[80.25486,7.48475],[80.25471,7.48472],[80.2543,7.48421],[80.25404,7.48418],[80.25289,7.48315],[80.25276,7.48293],[80.25237,7.483],[80.25193,7.48422],[80.2516,7.48419],[80.25121,7.48501],[80.25051,7.48676],[80.24986,7.48713]]]}},{"type":"Feature","properties":{"c":"farmland"},"geometry":{"type":"Polygon","coordinates":[[[80.24725,7.4894],[80.24759,7.48982],[80.24815,7.48858],[80.24803,7.48821],[80.2477,7.48851],[80.2473,7.48905],[80.24725,7.4894]]]}},{"type":"Feature","properties":{"c":"farmland"},"geometry":{"type":"Polygon","coordinates":[[[80.24462,7.48672],[80.24492,7.48749],[80.24569,7.48789],[80.24607,7.48841],[80.24662,7.48865],[80.24677,7.48825],[80.24505,7.48634],[80.24462,7.48672]]]}},{"type":"Feature","properties":{"c":"farmland"},"geometry":{"type":"Polygon","coordinates":[[[80.24071,7.48328],[80.24156,7.48589],[80.24187,7.48702],[80.24343,7.48685],[80.24449,7.48695],[80.24448,7.48591],[80.24527,7.48587],[80.24525,7.48639],[80.24628,7.48745],[80.247,7.48673],[80.24679,7.48643],[80.24655,7.48437],[80.24677,7.48315],[80.24071,7.48328]]]}},{"type":"Feature","properties":{"c":"forest"},"geometry":{"type":"Polygon","coordinates":[[[80.25723,7.50161],[80.25778,7.50161],[80.25831,7.50105],[80.25801,7.50076],[80.25733,7.50121],[80.25723,7.50161]]]}}]}