{"type":"FeatureCollection","features":[{"type":"Feature","properties":{"c":"residential"},"geometry":{"type":"Polygon","coordinates":[[[80.32001,7.53402],[80.32115,7.53491],[80.32149,7.53451],[80.32151,7.53432],[80.32044,7.53354],[80.32001,7.53402]]]}},{"type":"Feature","properties":{"c":"forest"},"geometry":{"type":"Polygon","coordinates":[[[80.30602,7.62542],[80.30653,7.62565],[80.30664,7.62635],[80.30716,7.6264],[80.30701,7.62734],[80.30683,7.62782],[80.30685,7.62839],[80.30664,7.62947],[80.30647,7.62971],[80.30621,7.63053],[80.30669,7.63056],[80.307,7.63048],[80.30857,7.62956],[80.30913,7.62908],[80.31045,7.6283],[80.31034,7.62739],[80.31046,7.62738],[80.31052,7.62763],[80.31102,7.62753],[80.31126,7.62763],[80.31118,7.62782],[80.31134,7.62792],[80.31142,7.62781],[80.31153,7.62788],[80.31177,7.62786],[80.31206,7.62772],[80.31208,7.6276],[80.31184,7.62763],[80.31148,7.62731],[80.31062,7.62726],[80.31003,7.62739],[80.30975,7.62724],[80.30968,7.62713],[80.30988,7.62668],[80.31021,7.62565],[80.31017,7.62524],[80.30996,7.62495],[80.31052,7.62436],[80.31134,7.6248],[80.31114,7.62526],[80.31137,7.62543],[80.31139,7.62567],[80.3116,7.62578],[80.31191,7.62541],[80.31203,7.62569],[80.31221,7.62579],[80.31206,7.62609],[80.31174,7.62594],[80.3116,7.62608],[80.31168,7.62637],[80.31181,7.62658],[80.31178,7.62686],[80.31207,7.62743],[80.3123,7.62729],[80.31215,7.62691],[80.31244,7.62641],[80.31249,7.62644],[80.31223,7.62693],[80.31236,7.62721],[80.31282,7.62723],[80.3128,7.62758],[80.31234,7.62738],[80.31219,7.62751],[80.31272,7.62797],[80.31294,7.62803],[80.31298,7.62827],[80.31339,7.62862],[80.31392,7.62883],[80.3142,7.62831],[80.31408,7.62819],[80.3143,7.62774],[80.31427,7.62743],[80.31463,7.62726],[80.31475,7.62682],[80.31557,7.62698],[80.31559,7.62716],[80.3163,7.62771],[80.31642,7.62743],[80.31628,7.62704],[80.31649,7.62697],[80.31672,7.62736],[80.31711,7.62763],[80.31756,7.6278],[80.31762,7.62761],[80.31681,7.62701],[80.31692,7.62682],[80.31728,7.62704],[80.31763,7.62713],[80.31799,7.62702],[80.31777,7.6268],[80.31796,7.62658],[80.31831,7.62685],[80.31827,7.62701],[80.3185,7.6271],[80.31862,7.62684],[80.31851,7.62668],[80.31883,7.62577],[80.31935,7.62565],[80.31954,7.62582],[80.31954,7.62609],[80.32011,7.62629],[80.32028,7.62605],[80.31961,7.62538],[80.31977,7.62503],[80.32009,7.62466],[80.31999,7.6236],[80.32172,7.62105],[80.32371,7.61945],[80.3255,7.61767],[80.32788,7.61517],[80.32767,7.61363],[80.32686,7.61234],[80.32506,7.61246],[80.32339,7.61294],[80.32129,7.61462],[80.31899,7.61736],[80.31713,7.61886],[80.31665,7.61787],[80.31668,7.61647],[80.31757,7.61203],[80.31765,7.60883],[80.3158,7.6074],[80.31565,7.60398],[80.31498,7.60038],[80.31463,7.5976],[80.31536,7.59737],[80.31782,7.59792],[80.31982,7.59669],[80.32197,7.59482],[80.32569,7.58928],[80.32769,7.58755],[80.32965,7.58536],[80.32985,7.58231],[80.3311,7.58249],[80.3308,7.5816],[80.33126,7.58093],[80.33185,7.58088],[80.33208,7.57995],[80.33441,7.57768],[80.33537,7.57638],[80.33862,7.57415],[80.34017,7.57255],[80.34115,7.57116],[80.34174,7.57076],[80.34246,7.57008],[80.34252,7.56912],[80.34405,7.56786],[80.34458,7.56644],[80.34581,7.56567],[80.34674,7.5652],[80.34754,7.56401],[80.34889,7.56352],[80.34947,7.56222],[80.35064,7.56173],[80.35116,7.56015],[80.35185,7.55842],[80.354,7.55732],[80.35606,7.55553],[80.35663,7.55416],[80.35568,7.55347],[80.35601,7.55297],[80.3562,7.55242],[80.35652,7.55178],[80.35684,7.55185],[80.3567,7.55267],[80.35723,7.55295],[80.35783,7.55157],[80.35846,7.55088],[80.35979,7.55109],[80.36029,7.55054],[80.36068,7.55084],[80.36247,7.54921],[80.36366,7.54843],[80.36322,7.5473],[80.36218,7.54639],[80.36403,7.54569],[80.36472,7.54454],[80.36529,7.54325],[80.36631,7.54228],[80.3665,7.54121],[80.36566,7.53978],[80.36589,7.53824],[80.36582,7.53776],[80.36622,7.53725],[80.36748,7.5366],[80.36936,7.5362],[80.3705,7.5341],[80.37046,7.53367],[80.37096,7.53219],[80.371,7.5315],[80.37123,7.53066],[80.37196,7.52984],[80.3714,7.52866],[80.37054,7.52771],[80.37017,7.52655],[80.37073,7.52512],[80.37113,7.52436],[80.37148,7.52267],[80.37159,7.52084],[80.37201,7.51852],[80.3725,7.5164],[80.37449,7.51301],[80.37524,7.50881],[80.37563,7.50766],[80.37533,7.50668],[80.37383,7.50668],[80.3732,7.50713],[80.37284,7.50677],[80.37261,7.50677],[80.37268,7.50764],[80.37223,7.50872],[80.37031,7.50896],[80.36671,7.51103],[80.36623,7.51433],[80.36358,7.51758],[80.36337,7.51847],[80.3635,7.51901],[80.36272,7.5191],[80.3626,7.51932],[80.36232,7.51932],[80.36203,7.52048],[80.36187,7.52071],[80.36185,7.52091],[80.36237,7.52116],[80.36293,7.5213],[80.36332,7.52177],[80.3636,7.5218],[80.36352,7.52235],[80.36312,7.52286],[80.36298,7.52285],[80.36276,7.52303],[80.36252,7.52288],[80.36217,7.52295],[80.36229,7.52308],[80.36282,7.5234],[80.3627,7.52376],[80.36243,7.52381],[80.36221,7.52357],[80.36206,7.52353],[80.36209,7.52393],[80.36232,7.52426],[80.36305,7.52476],[80.36253,7.52529],[80.3623,7.52507],[80.362,7.52526],[80.36222,7.5256],[80.36177,7.52589],[80.36161,7.52638],[80.36123,7.5264],[80.36097,7.52697],[80.36126,7.52704],[80.36116,7.52734],[80.36085,7.52728],[80.3607,7.5277],[80.36018,7.52863],[80.35997,7.52886],[80.35999,7.52897],[80.36012,7.52912],[80.36015,7.52928],[80.36006,7.52956],[80.3608,7.52966],[80.36069,7.53026],[80.36045,7.53028],[80.36043,7.53036],[80.36052,7.53057],[80.36079,7.53056],[80.36084,7.53075],[80.36068,7.53081],[80.36061,7.53101],[80.36036,7.53098],[80.36039,7.53078],[80.36021,7.53075],[80.36016,7.53093],[80.35991,7.53085],[80.36011,7.53127],[80.36011,7.53143],[80.35998,7.53155],[80.35995,7.53178],[80.36,7.53198],[80.35964,7.53314],[80.35953,7.53328],[80.35948,7.53355],[80.3592,7.53356],[80.35891,7.53399],[80.35884,7.53397],[80.35917,7.53343],[80.3588,7.53345],[80.3587,7.5333],[80.35837,7.53312],[80.35808,7.53357],[80.35873,7.53386],[80.35859,7.53412],[80.35816,7.53419],[80.3577,7.53401],[80.35752,7.53421],[80.35737,7.53426],[80.3574,7.53448],[80.35771,7.53466],[80.35765,7.53496],[80.35719,7.53486],[80.35719,7.53464],[80.35691,7.53457],[80.3568,7.53465],[80.35619,7.5345],[80.35618,7.53435],[80.35579,7.53427],[80.35576,7.53411],[80.35518,7.53418],[80.35432,7.5342],[80.35418,7.53426],[80.3542,7.53434],[80.35405,7.53442],[80.35398,7.53434],[80.35354,7.5346],[80.35347,7.53469],[80.35355,7.53483],[80.35341,7.53505],[80.35317,7.53501],[80.35282,7.53484],[80.35263,7.53485],[80.3526,7.53495],[80.3525,7.53495],[80.35247,7.53503],[80.3526,7.53511],[80.35254,7.53521],[80.35244,7.53515],[80.35235,7.53501],[80.35235,7.53471],[80.35194,7.53466],[80.35185,7.53492],[80.35176,7.535],[80.352,7.5353],[80.35199,7.53592],[80.35225,7.53598],[80.35745,7.53624],[80.35771,7.53893],[80.35714,7.54139],[80.35653,7.54249],[80.35552,7.54471],[80.35348,7.54873],[80.35136,7.55244],[80.34614,7.55895],[80.34402,7.55916],[80.34309,7.5607],[80.34171,7.56195],[80.34093,7.56213],[80.33842,7.56356],[80.33699,7.56529],[80.33457,7.56715],[80.33318,7.56835],[80.3322,7.56896],[80.33138,7.57029],[80.33158,7.57036],[80.33119,7.57103],[80.33123,7.57136],[80.331,7.57176],[80.33068,7.57193],[80.33002,7.57164],[80.32798,7.57343],[80.32687,7.57455],[80.32367,7.57698],[80.32294,7.57745],[80.32236,7.57769],[80.32049,7.5779],[80.31868,7.57854],[80.31822,7.57897],[80.31793,7.57943],[80.31746,7.57988],[80.31704,7.58015],[80.316,7.581],[80.31484,7.58329],[80.31227,7.58765],[80.30985,7.59206],[80.30893,7.59459],[80.30798,7.59697],[80.30775,7.5996],[80.30714,7.60354],[80.30704,7.60767],[80.30724,7.61055],[80.30845,7.61285],[80.30912,7.61671],[80.30948,7.61955],[80.30812,7.61975],[80.30822,7.62038],[80.30908,7.62055],[80.30939,7.62145],[80.30946,7.62219],[80.30835,7.622],[80.30806,7.62332],[80.30736,7.62408],[80.30743,7.62473],[80.30725,7.62535],[80.30625,7.62494],[80.30602,7.62542]]]}},{"type":"Feature","properties":{"c":"meadow"},"geometry":{"type":"Polygon","coordinates":[[[80.32768,7.52741],[80.32767,7.52769],[80.32847,7.52766],[80.32865,7.52695],[80.32856,7.52693],[80.3285,7.527],[80.32821,7.52691],[80.3281,7.52695],[80.32802,7.52689],[80.328,7.52672],[80.32788,7.52672],[80.32775,7.52737],[80.32768,7.52741]]]}},{"type":"Feature","properties":{"c":"meadow"},"geometry":{"type":"Polygon","coordinates":[[[80.33302,7.52916],[80.33338,7.52964],[80.33331,7.52995],[80.33342,7.53015],[80.33344,7.53032],[80.33324,7.53074],[80.33308,7.53096],[80.33333,7.53102],[80.33348,7.53123],[80.33358,7.53098],[80.33388,7.53066],[80.33397,7.53048],[80.33397,7.53002],[80.33411,7.52925],[80.3341,7.52901],[80.33425,7.52885],[80.33432,7.52867],[80.3342,7.52813],[80.33424,7.5278],[80.33432,7.52764],[80.33426,7.52733],[80.33413,7.52728],[80.33398,7.52733],[80.33394,7.52755],[80.3338,7.52767],[80.3339,7.52774],[80.33386,7.52786],[80.33362,7.52823],[80.33372,7.52835],[80.3336,7.5285],[80.33332,7.52847],[80.33323,7.52885],[80.33302,7.52916]]]}},{"type":"Feature","properties":{"c":"farmland"},"geometry":{"type":"Polygon","coordinates":[[[80.32235,7.50894],[80.32236,7.50924],[80.32246,7.5094],[80.32262,7.50942],[80.32293,7.50932],[80.3236,7.50919],[80.32376,7.50896],[80.32403,7.50839],[80.32432,7.50815],[80.32466,7.50779],[80.32489,7.5074],[80.32549,7.50677],[80.32576,7.50612],[80.32605,7.50585],[80.32687,7.50567],[80.32753,7.50541],[80.32791,7.50533],[80.32813,7.50548],[80.32834,7.50575],[80.32847,7.50603],[80.32873,7.50609],[80.32894,7.50596],[80.32908,7.50576],[80.32927,7.50563],[80.32932,7.50552],[80.3295,7.50552],[80.32985,7.5058],[80.33007,7.50584],[80.33067,7.50581],[80.33081,7.50591],[80.33127,7.50598],[80.33185,7.5064],[80.33224,7.50656],[80.33234,7.5068],[80.33235,7.50715],[80.33254,7.50759],[80.33297,7.50782],[80.33323,7.50781],[80.33355,7.50768],[80.33413,7.50767],[80.33434,7.50775],[80.33476,7.50778],[80.33489,7.50792],[80.33508,7.50804],[80.33578,7.50837],[80.33596,7.50856],[80.33633,7.50867],[80.33681,7.509],[80.33714,7.50936],[80.33734,7.50973],[80.33754,7.51034],[80.33777,7.51028],[80.3386,7.50958],[80.3389,7.50913],[80.33896,7.50877],[80.33821,7.50831],[80.33793,7.50758],[80.33782,7.50749],[80.33759,7.50751],[80.33662,7.50664],[80.33585,7.50612],[80.33565,7.50585],[80.33552,7.50576],[80.33516,7.50586],[80.33498,7.5056],[80.3348,7.50551],[80.33465,7.50553],[80.33458,7.50541],[80.33458,7.50527],[80.33449,7.50517],[80.33422,7.50512],[80.33381,7.5053],[80.33361,7.50523],[80.33342,7.50512],[80.33336,7.50484],[80.33267,7.50438],[80.33264,7.50412],[80.33303,7.50362],[80.33324,7.50325],[80.33324,7.50282],[80.333,7.50266],[80.33259,7.5026],[80.33251,7.50226],[80.33259,7.50165],[80.33281,7.50117],[80.33308,7.50091],[80.33349,7.50071],[80.33442,7.50098],[80.33456,7.50136],[80.33481,7.50151],[80.33516,7.50189],[80.33552,7.50204],[80.33587,7.50233],[80.33598,7.50263],[80.33624,7.50291],[80.33644,7.50292],[80.33699,7.50312],[80.33776,7.50358],[80.33807,7.50349],[80.33865,7.5041],[80.33912,7.50423],[80.33926,7.50409],[80.33913,7.5037],[80.33934,7.50336],[80.3397,7.50317],[80.34089,7.50303],[80.34111,7.50292],[80.34142,7.50289],[80.34161,7.50268],[80.34173,7.50236],[80.34248,7.50171],[80.34339,7.50129],[80.34353,7.50107],[80.34359,7.50073],[80.34355,7.50026],[80.34361,7.50013],[80.34379,7.50006],[80.34431,7.50028],[80.34574,7.50042],[80.34596,7.50036],[80.34597,7.5002],[80.34548,7.49958],[80.34487,7.49954],[80.34406,7.49963],[80.34384,7.49949],[80.3435,7.49857],[80.34327,7.4985],[80.34253,7.4988],[80.3424,7.49893],[80.34223,7.49929],[80.34208,7.49941],[80.34191,7.49934],[80.34178,7.49944],[80.34153,7.49991],[80.34157,7.50009],[80.34168,7.50019],[80.34152,7.50048],[80.3411,7.50099],[80.34105,7.50134],[80.34021,7.50162],[80.33988,7.50181],[80.33962,7.50175],[80.33906,7.50197],[80.33881,7.5019],[80.33834,7.50143],[80.33812,7.50139],[80.33798,7.50142],[80.33755,7.50161],[80.33718,7.50154],[80.33699,7.50133],[80.33679,7.50101],[80.33732,7.50073],[80.33749,7.50049],[80.33757,7.50017],[80.33786,7.5],[80.33823,7.49997],[80.33844,7.49987],[80.33852,7.49974],[80.3384,7.49947],[80.33839,7.49934],[80.33854,7.49918],[80.33929,7.49865],[80.33989,7.49794],[80.34017,7.49775],[80.34044,7.49767],[80.34067,7.49771],[80.34085,7.49792],[80.34089,7.4983],[80.34109,7.49838],[80.34122,7.49831],[80.34138,7.49787],[80.34138,7.49752],[80.34109,7.49682],[80.34097,7.49668],[80.34076,7.49669],[80.3407,7.49671],[80.34075,7.49686],[80.34072,7.49698],[80.34004,7.49716],[80.34001,7.49737],[80.33958,7.49744],[80.33945,7.49738],[80.33856,7.49787],[80.33833,7.49793],[80.3382,7.49782],[80.33797,7.49797],[80.338,7.49873],[80.33795,7.49884],[80.3378,7.49891],[80.33751,7.49933],[80.33729,7.49953],[80.33684,7.49963],[80.33628,7.49956],[80.33608,7.49961],[80.3359,7.49958],[80.33585,7.49944],[80.33598,7.49911],[80.33596,7.49897],[80.335,7.49897],[80.33456,7.49903],[80.3345,7.49908],[80.3345,7.49928],[80.33444,7.49942],[80.33423,7.49957],[80.33377,7.49967],[80.33331,7.49988],[80.33294,7.50019],[80.33198,7.50125],[80.33175,7.5019],[80.33116,7.50242],[80.33077,7.50291],[80.32928,7.50339],[80.32876,7.50379],[80.3282,7.50396],[80.32764,7.5043],[80.32619,7.50504],[80.3255,7.50563],[80.32477,7.50669],[80.32435,7.50742],[80.32391,7.50764],[80.32346,7.50767],[80.32318,7.50793],[80.32267,7.50828],[80.32235,7.50894]]]}},{"type":"Feature","properties":{"c":"farmland"},"geometry":{"type":"Polygon","coordinates":[[[80.34634,7.50043],[80.34662,7.50063],[80.34699,7.50077],[80.34726,7.50071],[80.34756,7.50056],[80.3478,7.50032],[80.34781,7.50019],[80.34774,7.49996],[80.34759,7.49984],[80.34713,7.49961],[80.34669,7.4996],[80.3465,7.49972],[80.34634,7.50043]]]}},{"type":"Feature","properties":{"c":"farmland"},"geometry":{"type":"Polygon","coordinates":[[[80.35092,7.50169],[80.35103,7.5021],[80.35128,7.50215],[80.35183,7.50177],[80.35195,7.50143],[80.35182,7.50134],[80.35162,7.5014],[80.35149,7.50154],[80.35124,7.50146],[80.35101,7.50146],[80.35094,7.50154],[80.35092,7.50169]]]}},{"type":"Feature","properties":{"c":"farmland"},"geometry":{"type":"Polygon","coordinates":[[[80.34977,7.5008],[80.34993,7.50101],[80.35019,7.50108],[80.35041,7.50099],[80.35055,7.50073],[80.35044,7.50049],[80.35036,7.50042],[80.35024,7.50042],[80.34977,7.5008]]]}},{"type":"Feature","properties":{"c":"farmland"},"geometry":{"type":"Polygon","coordinates":[[[80.34576,7.49293],[80.34579,7.4931],[80.34586,7.4932],[80.34647,7.49288],[80.3467,7.49296],[80.34703,7.49297],[80.34717,7.49281],[80.34702,7.49262],[80.34709,7.49236],[80.34702,7.49225],[80.34722,7.49194],[80.34716,7.4918],[80.34763,7.49149],[80.3475,7.49134],[80.34784,7.49096],[80.34811,7.49101],[80.34832,7.49095],[80.34844,7.49129],[80.34859,7.49132],[80.34869,7.49127],[80.34865,7.49101],[80.3484,7.49086],[80.34843,7.49046],[80.34837,7.49036],[80.34814,7.49028],[80.3473,7.49043],[80.34719,7.49058],[80.34712,7.49088],[80.34668,7.49145],[80.34657,7.49169],[80.34647,7.49171],[80.34606,7.49156],[80.34592,7.49165],[80.34576,7.49293]]]}},{"type":"Feature","properties":{"c":"forest"},"geometry":{"type":"Polygon","coordinates":[[[80.35239,7.50522],[80.35281,7.50596],[80.35267,7.50641],[80.35301,7.50718],[80.35334,7.50734],[80.3537,7.50744],[80.35415,7.50746],[80.35433,7.50768],[80.35402,7.50854],[80.354,7.50973],[80.35393,7.51001],[80.35371,7.51018],[80.35348,7.51023],[80.35276,7.51008],[80.35253,7.51022],[80.35245,7.51047],[80.35258,7.51106],[80.35273,7.5112],[80.35301,7.51129],[80.35424,7.51117],[80.35503,7.5112],[80.35517,7.51116],[80.35582,7.51068],[80.35603,7.51064],[80.35621,7.51072],[80.35641,7.51089],[80.35676,7.51096],[80.35688,7.51108],[80.3569,7.51121],[80.35685,7.51146],[80.35694,7.51202],[80.35816,7.51193],[80.35937,7.51172],[80.35965,7.51143],[80.35965,7.51116],[80.3595,7.51084],[80.35947,7.51048],[80.35936,7.51007],[80.35948,7.50956],[80.35939,7.5093],[80.35879,7.50883],[80.35859,7.50851],[80.35828,7.50818],[80.35762,7.50768],[80.35744,7.50725],[80.35781,7.50692],[80.3581,7.50689],[80.35892,7.50733],[80.3592,7.50739],[80.35989,7.50707],[80.36126,7.50675],[80.3614,7.50652],[80.36142,7.50623],[80.36128,7.50611],[80.36105,7.50604],[80.3608,7.50604],[80.36031,7.50615],[80.36001,7.50617],[80.35968,7.50605],[80.35956,7.50584],[80.35955,7.50563],[80.35963,7.50531],[80.3596,7.50525],[80.35887,7.50486],[80.35736,7.50513],[80.35701,7.5054],[80.35668,7.50557],[80.35599,7.50564],[80.35552,7.50556],[80.3551,7.50541],[80.35494,7.50526],[80.35501,7.50486],[80.35492,7.50451],[80.35494,7.50411],[80.35517,7.50384],[80.3549,7.50371],[80.35427,7.50403],[80.35392,7.50428],[80.35367,7.50458],[80.35344,7.50471],[80.35259,7.505],[80.35239,7.50522]]]}},{"type":"Feature","properties":{"c":"orchard"},"geometry":{"type":"Polygon","coordinates":[[[80.35492,7.50454],[80.35501,7.50486],[80.35494,7.50526],[80.3551,7.50541],[80.35552,7.50556],[80.35599,7.50564],[80.35668,7.50557],[80.35701,7.5054],[80.35736,7.50513],[80.35911,7.50481],[80.35973,7.50485],[80.36016,7.50451],[80.36046,7.50403],[80.3606,7.50337],[80.36047,7.50309],[80.36024,7.50296],[80.35997,7.50294],[80.35979,7.50298],[80.35942,7.50314],[80.35927,7.50342],[80.35895,7.50382],[80.35852,7.50388],[80.35835,7.50381],[80.35813,7.50363],[80.3579,7.50317],[80.35761,7.50315],[80.35664,7.50355],[80.35553,7.50372],[80.35517,7.50384],[80.35494,7.50411],[80.35492,7.50454]]]}},{"type":"Feature","properties":{"c":"grass"},"geometry":{"type":"Polygon","coordinates":[[[80.35635,7.50146],[80.35643,7.50171],[80.35672,7.50172],[80.35693,7.50157],[80.35694,7.50137],[80.35689,7.50121],[80.35675,7.50113],[80.35655,7.50113],[80.35646,7.50119],[80.35635,7.50146]]]}},{"type":"Feature","properties":{"c":"orchard"},"geometry":{"type":"Polygon","coordinates":[[[80.35651,7.49899],[80.35654,7.4991],[80.35691,7.4992],[80.35732,7.49948],[80.35744,7.49931],[80.35756,7.49936],[80.35795,7.50009],[80.35801,7.5003],[80.35821,7.50066],[80.35853,7.50147],[80.35866,7.50151],[80.35877,7.50147],[80.359,7.50097],[80.35883,7.50073],[80.3588,7.50036],[80.35865,7.49999],[80.35879,7.49973],[80.35907,7.49961],[80.35913,7.49949],[80.35912,7.49931],[80.359,7.49915],[80.35897,7.49904],[80.35899,7.4987],[80.35924,7.49828],[80.35926,7.49813],[80.35912,7.4978],[80.3589,7.49772],[80.35875,7.4976],[80.35831,7.49702],[80.3576,7.4969],[80.35776,7.49778],[80.35772,7.49824],[80.35799,7.49831],[80.3581,7.49842],[80.35812,7.49855],[80.35806,7.49873],[80.35797,7.49883],[80.35777,7.4989],[80.35758,7.49889],[80.35731,7.4987],[80.35676,7.49845],[80.35659,7.49859],[80.35662,7.49871],[80.35651,7.49899]]]}},{"type":"Feature","properties":{"c":"farmland"},"geometry":{"type":"Polygon","coordinates":[[[80.34142,7.49103],[80.34184,7.49137],[80.34179,7.4915],[80.34208,7.49188],[80.34284,7.49251],[80.34323,7.49238],[80.34323,7.49222],[80.3435,7.49229],[80.34372,7.49249],[80.34381,7.49302],[80.34408,7.49328],[80.34436,7.49327],[80.34435,7.49264],[80.3441,7.4924],[80.34394,7.49242],[80.3437,7.49214],[80.3437,7.49201],[80.34402,7.49203],[80.34446,7.49187],[80.34465,7.49178],[80.34468,7.49166],[80.34434,7.49155],[80.34395,7.49175],[80.34323,7.49121],[80.34288,7.49168],[80.34247,7.49149],[80.34209,7.49092],[80.34151,7.49086],[80.34142,7.49103]]]}},{"type":"Feature","properties":{"c":"park","n":"Aswedduma Playground"},"geometry":{"type":"Polygon","coordinates":[[[80.33737,7.49385],[80.33772,7.49431],[80.33843,7.4938],[80.33802,7.49308],[80.33784,7.49319],[80.33777,7.49353],[80.33737,7.49385]]]}},{"type":"Feature","properties":{"c":"farmland"},"geometry":{"type":"Polygon","coordinates":[[[80.33358,7.49095],[80.33372,7.49182],[80.33627,7.49125],[80.33767,7.49203],[80.3379,7.49237],[80.33796,7.49262],[80.33811,7.49244],[80.33828,7.49233],[80.33954,7.49168],[80.33986,7.49164],[80.34021,7.49144],[80.34058,7.49134],[80.34085,7.49086],[80.34081,7.49071],[80.34065,7.49063],[80.3404,7.49064],[80.33984,7.49093],[80.3396,7.49089],[80.33892,7.49053],[80.33877,7.49077],[80.3392,7.49128],[80.33876,7.49149],[80.33861,7.49146],[80.33827,7.49128],[80.33825,7.49114],[80.33853,7.4906],[80.33823,7.49045],[80.33809,7.49077],[80.33797,7.49083],[80.33755,7.49085],[80.33747,7.49073],[80.33746,7.49046],[80.3374,7.49037],[80.33726,7.49032],[80.33708,7.49033],[80.33701,7.49048],[80.33685,7.49048],[80.3366,7.49031],[80.33646,7.49039],[80.33617,7.49036],[80.33619,7.4901],[80.33611,7.48998],[80.33596,7.49001],[80.33574,7.49019],[80.33506,7.49024],[80.3348,7.49043],[80.33471,7.49061],[80.33445,7.49065],[80.3343,7.49081],[80.33396,7.49077],[80.3337,7.49086],[80.33358,7.49095]]]}},{"type":"Feature","properties":{"c":"farmland"},"geometry":{"type":"Polygon","coordinates":[[[80.32818,7.49518],[80.3284,7.49563],[80.32847,7.49591],[80.33002,7.49588],[80.33063,7.49566],[80.33071,7.49573],[80.33073,7.49585],[80.33127,7.49585],[80.33128,7.49581],[80.33171,7.49585],[80.33205,7.49608],[80.33256,7.49632],[80.33263,7.49639],[80.33265,7.49653],[80.33282,7.49662],[80.3335,7.49738],[80.33382,7.49709],[80.33402,7.49732],[80.33419,7.49728],[80.33426,7.49707],[80.33433,7.49701],[80.33439,7.49667],[80.33468,7.49654],[80.3348,7.49628],[80.33499,7.49613],[80.33537,7.49596],[80.33498,7.49552],[80.33418,7.49584],[80.33358,7.49586],[80.33294,7.49565],[80.3328,7.49553],[80.33247,7.49546],[80.33239,7.49531],[80.33177,7.49509],[80.3318,7.49491],[80.33173,7.49484],[80.33179,7.49459],[80.33155,7.49449],[80.33088,7.49454],[80.33074,7.49473],[80.33064,7.49477],[80.33051,7.49465],[80.33017,7.49477],[80.33011,7.49483],[80.3298,7.49481],[80.32983,7.49461],[80.32915,7.49469],[80.32915,7.49481],[80.32898,7.49482],[80.32897,7.49472],[80.32828,7.49475],[80.32818,7.49518]]]}},{"type":"Feature","properties":{"c":"farmland","n":"paddy"},"geometry":{"type":"Polygon","coordinates":[[[80.32655,7.53259],[80.32663,7.53369],[80.32659,7.53415],[80.32663,7.53429],[80.32708,7.53455],[80.32843,7.53436],[80.32916,7.53454],[80.32951,7.53434],[80.329,7.53405],[80.32917,7.53375],[80.32944,7.53381],[80.32967,7.53348],[80.32967,7.53317],[80.32953,7.5331],[80.32897,7.53322],[80.32867,7.53344],[80.32841,7.53346],[80.32793,7.53316],[80.32754,7.53308],[80.32713,7.53313],[80.3269,7.53302],[80.32678,7.53272],[80.32655,7.53259]]]}},{"type":"Feature","properties":{"c":"farmland","n":"paddy"},"geometry":{"type":"Polygon","coordinates":[[[80.32517,7.53403],[80.32543,7.53413],[80.32591,7.53399],[80.32611,7.53412],[80.32651,7.53425],[80.32647,7.53257],[80.32598,7.53218],[80.32571,7.53229],[80.32538,7.53226],[80.32533,7.53289],[80.32556,7.53291],[80.32555,7.53304],[80.32531,7.53316],[80.32525,7.53334],[80.32528,7.53375],[80.32517,7.53403]]]}},{"type":"Feature","properties":{"c":"farmland","n":"paddy"},"geometry":{"type":"Polygon","coordinates":[[[80.32522,7.53463],[80.3259,7.53498],[80.32599,7.53512],[80.32627,7.5352],[80.32651,7.53471],[80.32643,7.5343],[80.32615,7.53423],[80.32599,7.53413],[80.32577,7.5341],[80.32547,7.53419],[80.32522,7.53463]]]}},{"type":"Feature","properties":{"c":"farmland","n":"paddy"},"geometry":{"type":"Polygon","coordinates":[[[80.32238,7.5455],[80.32242,7.54596],[80.32301,7.54612],[80.32314,7.54595],[80.32338,7.54583],[80.32329,7.54565],[80.3234,7.54549],[80.3235,7.54509],[80.32374,7.54469],[80.32362,7.54423],[80.32387,7.54362],[80.32467,7.5429],[80.32494,7.54243],[80.32424,7.54205],[80.32373,7.54204],[80.32266,7.544],[80.32291,7.54413],[80.32277,7.5444],[80.32267,7.54489],[80.32238,7.5455]]]}},{"type":"Feature","properties":{"c":"farmland","n":"paddy"},"geometry":{"type":"Polygon","coordinates":[[[80.32213,7.54629],[80.32219,7.54662],[80.32236,7.54669],[80.32268,7.54759],[80.32286,7.54769],[80.32313,7.54745],[80.32334,7.54699],[80.3234,7.54669],[80.32329,7.54634],[80.32301,7.54612],[80.32301,7.54622],[80.32236,7.54601],[80.32213,7.54629]]]}},{"type":"Feature","properties":{"c":"farmland","n":"paddy"},"geometry":{"type":"Polygon","coordinates":[[[80.32154,7.54848],[80.32156,7.54905],[80.32163,7.54927],[80.32193,7.54964],[80.32233,7.54952],[80.32245,7.54931],[80.32238,7.54912],[80.32243,7.54903],[80.32266,7.54904],[80.32282,7.5488],[80.32284,7.54865],[80.32314,7.54843],[80.32311,7.54831],[80.32282,7.54823],[80.32257,7.54829],[80.32249,7.5484],[80.32219,7.54843],[80.32209,7.54831],[80.32207,7.54843],[80.32181,7.54852],[80.32154,7.54848]]]}},{"type":"Feature","properties":{"c":"forest"},"geometry":{"type":"Polygon","coordinates":[[[80.33875,7.49934],[80.33885,7.49958],[80.33909,7.49971],[80.33922,7.49971],[80.33945,7.49959],[80.33956,7.49934],[80.33948,7.49909],[80.33928,7.49894],[80.33915,7.49892],[80.33902,7.49894],[80.33882,7.4991],[80.33875,7.49934]]]}},{"type":"Feature","properties":{"c":"forest"},"geometry":{"type":"Polygon","coordinates":[[[80.33783,7.50034],[80.33786,7.50053],[80.33796,7.50071],[80.33812,7.50084],[80.33831,7.50091],[80.33851,7.50091],[80.3387,7.50085],[80.33886,7.50072],[80.33897,7.50055],[80.33901,7.50036],[80.33899,7.50017],[80.33891,7.5],[80.33862,7.49977],[80.33843,7.49974],[80.33824,7.49977],[80.33794,7.49998],[80.33785,7.50015],[80.33783,7.50034]]]}},{"type":"Feature","properties":{"c":"farmland"},"geometry":{"type":"Polygon","coordinates":[[[80.29395,7.6264],[80.2942,7.62653],[80.29409,7.62687],[80.29527,7.62748],[80.29544,7.62718],[80.29581,7.62731],[80.29645,7.6266],[80.29661,7.62594],[80.29651,7.62543],[80.29658,7.62499],[80.29615,7.62489],[80.29593,7.62458],[80.29554,7.6242],[80.29565,7.62379],[80.29605,7.62347],[80.29605,7.62309],[80.29573,7.62311],[80.29543,7.62321],[80.29507,7.62345],[80.29506,7.62384],[80.29485,7.624],[80.29485,7.62482],[80.29462,7.62512],[80.29401,7.62548],[80.294,7.6257],[80.29433,7.62588],[80.29479,7.62531],[80.29503,7.62482],[80.29527,7.62472],[80.29528,7.62498],[80.29548,7.62527],[80.29554,7.62569],[80.29524,7.62631],[80.29486,7.62643],[80.29454,7.62634],[80.29445,7.62607],[80.29435,7.62607],[80.29429,7.62623],[80.29408,7.62615],[80.29395,7.6264]]]}},{"type":"Feature","properties":{"c":"farmland"},"geometry":{"type":"Polygon","coordinates":[[[80.31399,7.55913],[80.31636,7.55929],[80.31631,7.55844],[80.31599,7.5585],[80.31547,7.55834],[80.31409,7.55775],[80.31399,7.55913]]]}},{"type":"Feature","properties":{"c":"farmland"},"geometry":{"type":"Polygon","coordinates":[[[80.30851,7.56226],[80.30943,7.56251],[80.30998,7.56272],[80.31047,7.56231],[80.31092,7.5621],[80.31161,7.56125],[80.31237,7.56129],[80.31246,7.56094],[80.31266,7.56097],[80.31331,7.55977],[80.31388,7.55902],[80.31399,7.55773],[80.31373,7.55773],[80.3135,7.55785],[80.31252,7.55881],[80.31226,7.55919],[80.31233,7.5594],[80.31176,7.56061],[80.31103,7.56096],[80.31096,7.56119],[80.31063,7.56138],[80.31025,7.5614],[80.31009,7.56156],[80.30955,7.56167],[80.30887,7.56159],[80.30851,7.56226]]]}},{"type":"Feature","properties":{"c":"farmland"},"geometry":{"type":"Polygon","coordinates":[[[80.30873,7.55776],[80.30942,7.55795],[80.30945,7.5579],[80.30915,7.5576],[80.30894,7.55755],[80.30877,7.55758],[80.30873,7.55776]]]}},{"type":"Feature","properties":{"c":"farmland"},"geometry":{"type":"Polygon","coordinates":[[[80.30876,7.55789],[80.30882,7.55814],[80.30894,7.5582],[80.30895,7.55857],[80.30888,7.55879],[80.30887,7.5592],[80.30899,7.55962],[80.30883,7.56014],[80.30966,7.56056],[80.30986,7.56038],[80.31017,7.56028],[80.31029,7.56013],[80.31027,7.55991],[80.31039,7.55967],[80.31043,7.55942],[80.30968,7.55935],[80.30955,7.55923],[80.30949,7.55905],[80.30941,7.55845],[80.3095,7.55809],[80.30876,7.55789]]]}},{"type":"Feature","properties":{"c":"farmland"},"geometry":{"type":"Polygon","coordinates":[[[80.30365,7.56419],[80.30375,7.56452],[80.3048,7.56567],[80.30543,7.56605],[80.30544,7.56648],[80.30555,7.56699],[80.30578,7.56707],[80.3059,7.56658],[80.30609,7.56637],[80.30643,7.56621],[80.30672,7.5659],[80.30677,7.56566],[80.30695,7.56529],[80.30663,7.5651],[80.30607,7.56534],[80.30592,7.56523],[80.30588,7.56474],[80.30572,7.56454],[80.30541,7.56401],[80.30505,7.56388],[80.30475,7.56366],[80.30448,7.56376],[80.30425,7.56366],[80.30386,7.56311],[80.30367,7.56322],[80.3037,7.56383],[80.30376,7.56413],[80.30365,7.56419]]]}},{"type":"Feature","properties":{"c":"farmland"},"geometry":{"type":"Polygon","coordinates":[[[80.30411,7.56866],[80.30461,7.56958],[80.30485,7.56955],[80.30523,7.56925],[80.30572,7.56915],[80.30631,7.56942],[80.30676,7.56944],[80.30715,7.56878],[80.30695,7.56859],[80.30626,7.56844],[80.3058,7.56853],[80.30546,7.56833],[80.30552,7.56797],[80.30574,7.56734],[80.30544,7.56718],[80.30516,7.56785],[80.30411,7.56866]]]}},{"type":"Feature","properties":{"c":"farmland"},"geometry":{"type":"Polygon","coordinates":[[[80.32771,7.55341],[80.32776,7.55358],[80.32835,7.55393],[80.3288,7.55381],[80.32925,7.55342],[80.32916,7.55328],[80.32889,7.55345],[80.3288,7.55333],[80.32848,7.55348],[80.32802,7.55313],[80.32771,7.55341]]]}},{"type":"Feature","properties":{"c":"farmland"},"geometry":{"type":"Polygon","coordinates":[[[80.32479,7.50165],[80.32494,7.50172],[80.32537,7.50152],[80.32562,7.5017],[80.32632,7.5013],[80.32717,7.50095],[80.32777,7.50084],[80.3285,7.50088],[80.32972,7.50051],[80.33008,7.50038],[80.33039,7.50017],[80.33101,7.49999],[80.33138,7.49983],[80.33146,7.49966],[80.33162,7.49947],[80.3316,7.49931],[80.33155,7.49919],[80.33143,7.49915],[80.33085,7.49921],[80.32958,7.49951],[80.32824,7.49954],[80.32801,7.49943],[80.32784,7.4995],[80.32776,7.49971],[80.3276,7.49978],[80.32743,7.49978],[80.32752,7.49992],[80.32745,7.50007],[80.32658,7.50022],[80.3263,7.50024],[80.32624,7.50019],[80.32596,7.50055],[80.3258,7.50062],[80.32572,7.5006],[80.32558,7.5004],[80.32546,7.50039],[80.32531,7.50055],[80.32522,7.50095],[80.32504,7.50125],[80.32491,7.50132],[80.32479,7.50165]]]}},{"type":"Feature","properties":{"c":"farmland"},"geometry":{"type":"Polygon","coordinates":[[[80.31963,7.5049],[80.31975,7.50511],[80.32043,7.50472],[80.3209,7.50477],[80.32105,7.50497],[80.32139,7.50491],[80.32151,7.50486],[80.32141,7.50439],[80.32155,7.50415],[80.32229,7.50353],[80.32278,7.50342],[80.32303,7.50348],[80.32333,7.50348],[80.32373,7.50359],[80.32451,7.50353],[80.32537,7.50333],[80.32586,7.50314],[80.32614,7.50294],[80.32609,7.50262],[80.32596,7.50248],[80.32579,7.50238],[80.32549,7.50256],[80.3253,7.50259],[80.32505,7.50245],[80.3245,7.50242],[80.32422,7.50235],[80.32397,7.50172],[80.32457,7.50157],[80.32475,7.50127],[80.32467,7.50109],[80.3245,7.50098],[80.32406,7.50124],[80.32361,7.50136],[80.32389,7.50227],[80.32395,7.50269],[80.32394,7.50287],[80.32374,7.50305],[80.3235,7.50301],[80.32338,7.50285],[80.32318,7.50284],[80.32298,7.50296],[80.32247,7.50293],[80.32217,7.50297],[80.32166,7.50375],[80.32132,7.50401],[80.32102,7.50409],[80.32085,7.50429],[80.32065,7.50436],[80.32044,7.50436],[80.3201,7.50417],[80.31987,7.50428],[80.31975,7.50448],[80.31963,7.5049]]]}},{"type":"Feature","properties":{"c":"farmland"},"geometry":{"type":"Polygon","coordinates":[[[80.32628,7.4988],[80.32649,7.49896],[80.32669,7.49873],[80.32643,7.49851],[80.32628,7.4988]]]}},{"type":"Feature","properties":{"c":"farmland"},"geometry":{"type":"Polygon","coordinates":[[[80.32627,7.49826],[80.32673,7.49862],[80.32695,7.49885],[80.32707,7.49862],[80.32702,7.49854],[80.32715,7.49812],[80.32701,7.49787],[80.32702,7.49754],[80.3269,7.4975],[80.32682,7.49757],[80.3267,7.49799],[80.32662,7.49811],[80.3264,7.4981],[80.32627,7.49826]]]}},{"type":"Feature","properties":{"c":"farmland"},"geometry":{"type":"Polygon","coordinates":[[[80.33718,7.53364],[80.33722,7.53373],[80.33751,7.53378],[80.33778,7.53366],[80.33745,7.53399],[80.33739,7.53392],[80.33737,7.53452],[80.33744,7.53463],[80.33792,7.53461],[80.33811,7.53507],[80.3382,7.53501],[80.33819,7.53536],[80.33832,7.53545],[80.33784,7.53639],[80.33787,7.53669],[80.33803,7.53636],[80.33868,7.53533],[80.33899,7.535],[80.33886,7.53471],[80.33879,7.53387],[80.33828,7.53379],[80.33831,7.53359],[80.33827,7.53347],[80.33817,7.53335],[80.33812,7.53317],[80.33788,7.53286],[80.33735,7.5329],[80.33727,7.5331],[80.33733,7.53347],[80.33718,7.53364]]]}},{"type":"Feature","properties":{"c":"farmland"},"geometry":{"type":"Polygon","coordinates":[[[80.33803,7.53655],[80.33805,7.53674],[80.33956,7.53674],[80.33954,7.53485],[80.33938,7.53498],[80.33908,7.53498],[80.33905,7.53511],[80.33861,7.53553],[80.33828,7.53605],[80.33803,7.53655]]]}},{"type":"Feature","properties":{"c":"farmland"},"geometry":{"type":"Polygon","coordinates":[[[80.34169,7.53314],[80.34188,7.53376],[80.34215,7.53419],[80.3421,7.53447],[80.34243,7.53486],[80.34251,7.53482],[80.34266,7.53488],[80.34273,7.53476],[80.34283,7.53472],[80.34306,7.53417],[80.34315,7.53384],[80.34331,7.53376],[80.34325,7.53361],[80.34338,7.53324],[80.34356,7.53321],[80.34372,7.53296],[80.34419,7.53285],[80.34203,7.53285],[80.34169,7.53314]]]}},{"type":"Feature","properties":{"c":"farmland"},"geometry":{"type":"Polygon","coordinates":[[[80.33961,7.53286],[80.33964,7.53676],[80.34009,7.53671],[80.34024,7.53621],[80.34023,7.53597],[80.3403,7.53559],[80.34043,7.53548],[80.34058,7.53546],[80.3407,7.53533],[80.34109,7.53513],[80.34122,7.53515],[80.34133,7.53499],[80.34152,7.53502],[80.34171,7.53458],[80.34129,7.53437],[80.34116,7.53414],[80.34149,7.53384],[80.34125,7.53359],[80.34098,7.53349],[80.34087,7.53331],[80.34089,7.53303],[80.34078,7.53295],[80.34058,7.5329],[80.33961,7.53286]]]}},{"type":"Feature","properties":{"c":"farmland"},"geometry":{"type":"Polygon","coordinates":[[[80.34283,7.5367],[80.34708,7.53674],[80.34705,7.53543],[80.34691,7.5359],[80.34665,7.53592],[80.34624,7.5357],[80.34597,7.5358],[80.34586,7.53567],[80.34594,7.53526],[80.3461,7.53501],[80.34582,7.53494],[80.34562,7.5351],[80.34538,7.53503],[80.34538,7.53484],[80.34563,7.53442],[80.34569,7.53407],[80.34587,7.5339],[80.34703,7.534],[80.34708,7.53361],[80.34689,7.53333],[80.34642,7.53343],[80.34549,7.53323],[80.34519,7.53352],[80.34501,7.53394],[80.34498,7.53414],[80.34514,7.53423],[80.34514,7.53437],[80.34494,7.53483],[80.34474,7.535],[80.34393,7.53547],[80.34365,7.53578],[80.34328,7.5363],[80.34313,7.53627],[80.34283,7.5367]]]}},{"type":"Feature","properties":{"c":"farmland"},"geometry":{"type":"Polygon","coordinates":[[[80.33752,7.531],[80.33779,7.5311],[80.33791,7.5309],[80.33804,7.53089],[80.33832,7.53011],[80.3383,7.52998],[80.33819,7.52995],[80.33808,7.53008],[80.33766,7.53068],[80.33752,7.531]]]}},{"type":"Feature","properties":{"c":"farmland"},"geometry":{"type":"Polygon","coordinates":[[[80.34204,7.53275],[80.34419,7.53285],[80.34424,7.53249],[80.34436,7.53233],[80.34452,7.5324],[80.34468,7.53225],[80.34485,7.53232],[80.34498,7.53205],[80.34531,7.53187],[80.34542,7.53186],[80.34538,7.53216],[80.34526,7.53243],[80.34525,7.53276],[80.34544,7.5328],[80.34567,7.53203],[80.34563,7.53152],[80.34609,7.53118],[80.34657,7.53119],[80.34679,7.53114],[80.34684,7.53086],[80.34645,7.53073],[80.34627,7.53047],[80.34627,7.53023],[80.34664,7.53],[80.34703,7.52987],[80.34703,7.52893],[80.34403,7.52894],[80.34435,7.52917],[80.34432,7.52945],[80.34403,7.52976],[80.34333,7.531],[80.34222,7.5319],[80.34229,7.53238],[80.34204,7.53275]]]}},{"type":"Feature","properties":{"c":"farmland"},"geometry":{"type":"Polygon","coordinates":[[[80.34289,7.52679],[80.34298,7.52721],[80.34319,7.52754],[80.3432,7.52639],[80.34308,7.52639],[80.34303,7.52646],[80.34289,7.52679]]]}},{"type":"Feature","properties":{"c":"farmland"},"geometry":{"type":"Polygon","coordinates":[[[80.3426,7.52843],[80.34263,7.52856],[80.3428,7.5285],[80.3433,7.52848],[80.34318,7.52807],[80.34271,7.52831],[80.3426,7.52843]]]}},{"type":"Feature","properties":{"c":"farmland"},"geometry":{"type":"Polygon","coordinates":[[[80.34206,7.5243],[80.34225,7.52449],[80.34248,7.5253],[80.34256,7.52585],[80.34289,7.52593],[80.34312,7.52632],[80.34318,7.52632],[80.34317,7.52455],[80.34291,7.52439],[80.34239,7.52389],[80.34206,7.5243]]]}},{"type":"Feature","properties":{"c":"farmland"},"geometry":{"type":"Polygon","coordinates":[[[80.29083,7.63311],[80.29065,7.63438],[80.29092,7.63442],[80.29086,7.63471],[80.29129,7.63472],[80.29137,7.63455],[80.29178,7.63459],[80.29183,7.6344],[80.29135,7.63426],[80.29136,7.63399],[80.29153,7.63309],[80.29164,7.63305],[80.29171,7.63251],[80.29157,7.63243],[80.29183,7.63175],[80.29198,7.631],[80.2922,7.63078],[80.29239,7.63079],[80.29262,7.63096],[80.29275,7.63097],[80.29283,7.6311],[80.29325,7.63127],[80.29329,7.63141],[80.29325,7.63197],[80.29315,7.63214],[80.29336,7.63229],[80.29355,7.63259],[80.29355,7.63097],[80.29343,7.63109],[80.29332,7.63109],[80.29335,7.63099],[80.29325,7.63079],[80.29302,7.63051],[80.29251,7.63043],[80.29207,7.63022],[80.29195,7.63033],[80.29165,7.63047],[80.29152,7.63066],[80.29165,7.6308],[80.29149,7.63118],[80.29157,7.63155],[80.29146,7.63173],[80.29144,7.63186],[80.29148,7.63195],[80.2914,7.63204],[80.2914,7.63221],[80.29129,7.63236],[80.29088,7.63241],[80.29085,7.63258],[80.29096,7.63267],[80.29104,7.63314],[80.29083,7.63311]]]}},{"type":"Feature","properties":{"c":"farmland"},"geometry":{"type":"Polygon","coordinates":[[[80.29243,7.63435],[80.2926,7.63463],[80.29274,7.63475],[80.29305,7.63475],[80.29354,7.6337],[80.29355,7.63274],[80.29333,7.63239],[80.29308,7.63248],[80.2931,7.63271],[80.29333,7.63276],[80.29324,7.63344],[80.29315,7.63357],[80.29284,7.63362],[80.2926,7.63374],[80.29243,7.63435]]]}},{"type":"Feature","properties":{"c":"farmland"},"geometry":{"type":"Polygon","coordinates":[[[80.29314,7.63475],[80.29355,7.63476],[80.29354,7.63413],[80.29346,7.63412],[80.29314,7.63475]]]}},{"type":"Feature","properties":{"c":"farmland"},"geometry":{"type":"Polygon","coordinates":[[[80.2936,7.63412],[80.2936,7.63475],[80.29476,7.63476],[80.29477,7.6346],[80.29486,7.63456],[80.29481,7.63442],[80.29465,7.63442],[80.29462,7.63424],[80.29494,7.6342],[80.29496,7.63415],[80.29509,7.63414],[80.29516,7.6339],[80.295,7.63381],[80.29472,7.63335],[80.29413,7.63309],[80.29381,7.63336],[80.29394,7.63348],[80.2939,7.63368],[80.29373,7.63368],[80.29365,7.63363],[80.29361,7.63383],[80.29386,7.63391],[80.29377,7.63411],[80.2936,7.63412]]]}},{"type":"Feature","properties":{"c":"farmland"},"geometry":{"type":"Polygon","coordinates":[[[80.29358,7.63311],[80.29359,7.63356],[80.29383,7.6332],[80.29374,7.63306],[80.29358,7.63311]]]}},{"type":"Feature","properties":{"c":"farmland"},"geometry":{"type":"Polygon","coordinates":[[[80.29359,7.6328],[80.29361,7.63303],[80.29372,7.63301],[80.29359,7.6328]]]}},{"type":"Feature","properties":{"c":"farmland"},"geometry":{"type":"Polygon","coordinates":[[[80.2936,7.63026],[80.2936,7.63267],[80.29386,7.63312],[80.29408,7.633],[80.29418,7.633],[80.29474,7.63327],[80.29482,7.633],[80.29494,7.63293],[80.29511,7.6327],[80.29399,7.63136],[80.29405,7.63136],[80.29394,7.63035],[80.2936,7.63026]]]}},{"type":"Feature","properties":{"c":"farmland"},"geometry":{"type":"Polygon","coordinates":[[[80.29516,7.63427],[80.29531,7.63474],[80.2963,7.63475],[80.29637,7.63466],[80.2967,7.63469],[80.29677,7.63448],[80.29694,7.63446],[80.29701,7.63418],[80.29664,7.63407],[80.29659,7.63375],[80.29676,7.63344],[80.29659,7.6335],[80.29618,7.63384],[80.29525,7.63394],[80.29516,7.63427]]]}},{"type":"Feature","properties":{"c":"farmland"},"geometry":{"type":"Polygon","coordinates":[[[80.29669,7.63142],[80.29699,7.63246],[80.29728,7.63284],[80.29724,7.63256],[80.29729,7.63214],[80.29719,7.63177],[80.29696,7.63177],[80.29685,7.63149],[80.29669,7.63142]]]}},{"type":"Feature","properties":{"c":"farmland"},"geometry":{"type":"Polygon","coordinates":[[[80.29744,7.62433],[80.29797,7.625],[80.2979,7.62536],[80.29811,7.62539],[80.2983,7.62512],[80.2988,7.62519],[80.29886,7.62498],[80.299,7.62495],[80.29901,7.62451],[80.29894,7.62418],[80.29843,7.624],[80.29802,7.62394],[80.29794,7.62403],[80.29755,7.624],[80.29744,7.62433]]]}},{"type":"Feature","properties":{"c":"farmland"},"geometry":{"type":"Polygon","coordinates":[[[80.29891,7.58053],[80.29894,7.58085],[80.29924,7.58079],[80.29929,7.58059],[80.29942,7.58049],[80.29977,7.58083],[80.29979,7.58043],[80.29939,7.58037],[80.29921,7.5804],[80.29919,7.58055],[80.29891,7.58053]]]}},{"type":"Feature","properties":{"c":"farmland"},"geometry":{"type":"Polygon","coordinates":[[[80.29987,7.58038],[80.29988,7.58098],[80.30251,7.58101],[80.3025,7.58058],[80.30256,7.58044],[80.30287,7.58035],[80.30316,7.58002],[80.30321,7.57984],[80.30312,7.57964],[80.30277,7.5797],[80.30273,7.58012],[80.3025,7.58031],[80.30235,7.5803],[80.3023,7.58014],[80.30235,7.57992],[80.30256,7.57964],[80.30216,7.57961],[80.30191,7.57972],[80.30159,7.58008],[80.30159,7.58033],[80.30143,7.58046],[80.30099,7.58038],[80.30082,7.58048],[80.30045,7.58027],[80.30025,7.58024],[80.30001,7.58025],[80.29987,7.58038]]]}},{"type":"Feature","properties":{"c":"farmland"},"geometry":{"type":"Polygon","coordinates":[[[80.30749,7.5804],[80.30769,7.58047],[80.30781,7.58074],[80.30804,7.58102],[80.31054,7.58101],[80.31052,7.58018],[80.31013,7.58005],[80.30983,7.58008],[80.30959,7.58017],[80.30921,7.5802],[80.30869,7.58012],[80.3084,7.57985],[80.30801,7.57978],[80.30776,7.57965],[80.30749,7.5804]]]}},{"type":"Feature","properties":{"c":"farmland"},"geometry":{"type":"Polygon","coordinates":[[[80.30547,7.57895],[80.30579,7.57939],[80.30576,7.57983],[80.30604,7.57983],[80.30651,7.57995],[80.30679,7.58011],[80.30715,7.5802],[80.30731,7.58033],[80.30758,7.57966],[80.30714,7.57951],[80.30699,7.57924],[80.30705,7.57911],[80.30759,7.57889],[80.30791,7.57884],[80.30854,7.57815],[80.30876,7.57778],[80.30918,7.57756],[80.30925,7.57739],[80.30925,7.57703],[80.30954,7.57701],[80.30968,7.57695],[80.30984,7.57672],[80.3101,7.57649],[80.31051,7.57627],[80.31052,7.57252],[80.30974,7.57331],[80.30972,7.57349],[80.30964,7.57364],[80.30944,7.57376],[80.30935,7.574],[80.3091,7.57424],[80.30928,7.5745],[80.30941,7.57456],[80.30914,7.57498],[80.30894,7.57508],[80.30894,7.57528],[80.30906,7.57532],[80.30894,7.57566],[80.30897,7.57602],[80.30905,7.57619],[80.309,7.57629],[80.30884,7.57642],[80.30881,7.57655],[80.3086,7.57664],[80.30855,7.57687],[80.30858,7.57709],[80.3088,7.57715],[80.30885,7.5773],[80.30823,7.57748],[80.3081,7.57735],[80.3078,7.5774],[80.30755,7.57752],[80.30734,7.57754],[80.30703,7.57783],[80.30664,7.57799],[80.30634,7.57832],[80.30606,7.57845],[80.30601,7.57867],[80.30547,7.57895]]]}},{"type":"Feature","properties":{"c":"forest"},"geometry":{"type":"Polygon","coordinates":[[[80.30631,7.59832],[80.30631,7.59877],[80.30687,7.59877],[80.30677,7.59825],[80.30631,7.59832]]]}},{"type":"Feature","properties":{"c":"forest"},"geometry":{"type":"Polygon","coordinates":[[[80.30792,7.60233],[80.31037,7.60225],[80.31042,7.59553],[80.30956,7.59474],[80.30858,7.59719],[80.30792,7.60233]]]}},{"type":"Feature","properties":{"c":"farmland"},"geometry":{"type":"Polygon","coordinates":[[[80.34614,7.54827],[80.3463,7.54853],[80.34652,7.54833],[80.34646,7.54825],[80.34614,7.54827]]]}},{"type":"Feature","properties":{"c":"farmland"},"geometry":{"type":"Polygon","coordinates":[[[80.34631,7.54854],[80.34644,7.54875],[80.3467,7.54853],[80.34652,7.54834],[80.34631,7.54854]]]}},{"type":"Feature","properties":{"c":"farmland"},"geometry":{"type":"Polygon","coordinates":[[[80.29989,7.58629],[80.30097,7.5863],[80.30135,7.58527],[80.30136,7.58508],[80.30153,7.58482],[80.30162,7.58436],[80.30184,7.58412],[80.30285,7.58409],[80.30333,7.58429],[80.30416,7.58441],[80.30494,7.58483],[80.30496,7.58495],[80.30576,7.58516],[80.3059,7.58544],[80.30726,7.58573],[80.30734,7.58593],[80.30779,7.58617],[80.30809,7.58642],[80.30835,7.58682],[80.30839,7.58721],[80.30851,7.58755],[80.30888,7.58785],[80.30927,7.58803],[80.30989,7.58818],[80.31005,7.58809],[80.3101,7.58789],[80.31014,7.58707],[80.31045,7.58658],[80.31051,7.58431],[80.31043,7.58394],[80.31006,7.58374],[80.30975,7.58373],[80.3097,7.58355],[80.30935,7.58366],[80.30921,7.58345],[80.30897,7.58337],[80.30841,7.58337],[80.30811,7.5835],[80.30794,7.58402],[80.30769,7.58399],[80.30745,7.58417],[80.30734,7.58385],[80.30699,7.58374],[80.3067,7.58383],[80.30673,7.58408],[80.30642,7.58409],[80.30564,7.58394],[80.30576,7.58324],[80.30588,7.58299],[80.30596,7.58266],[80.30596,7.58202],[80.30616,7.58187],[80.30652,7.58189],[80.30642,7.58116],[80.3061,7.58117],[80.30603,7.5813],[80.30535,7.58119],[80.29991,7.58108],[80.29989,7.58629]]]}},{"type":"Feature","properties":{"c":"farmland"},"geometry":{"type":"Polygon","coordinates":[[[80.32191,7.54967],[80.32216,7.55005],[80.32352,7.54971],[80.32415,7.55011],[80.3245,7.55003],[80.32463,7.54977],[80.32514,7.54963],[80.32533,7.54976],[80.32538,7.54992],[80.32524,7.55029],[80.32532,7.55042],[80.32545,7.55052],[80.32581,7.55059],[80.32614,7.55033],[80.32625,7.55036],[80.32644,7.55027],[80.32644,7.55015],[80.32655,7.55015],[80.32679,7.55034],[80.32701,7.55037],[80.32755,7.55004],[80.32804,7.55022],[80.32824,7.54989],[80.32866,7.5499],[80.32896,7.5506],[80.32927,7.5504],[80.32874,7.54953],[80.32792,7.54941],[80.32784,7.54957],[80.32774,7.5495],[80.32787,7.54919],[80.3282,7.54889],[80.32879,7.5482],[80.32945,7.54794],[80.32987,7.54795],[80.33014,7.54781],[80.33031,7.5474],[80.3301,7.54723],[80.33007,7.54712],[80.32992,7.54695],[80.3296,7.54699],[80.3294,7.54687],[80.32876,7.54717],[80.32862,7.54736],[80.32853,7.54703],[80.32839,7.54695],[80.32842,7.54659],[80.32812,7.54656],[80.32792,7.54697],[80.32722,7.54696],[80.32682,7.5473],[80.32663,7.5477],[80.32708,7.54778],[80.32717,7.54871],[80.32688,7.54915],[80.32647,7.54922],[80.32638,7.54905],[80.32609,7.54907],[80.32613,7.54926],[80.32579,7.54934],[80.32531,7.54922],[80.32539,7.54869],[80.32535,7.54838],[80.32526,7.54835],[80.32507,7.54838],[80.32499,7.54847],[80.32518,7.54873],[80.32516,7.54884],[80.32507,7.54885],[80.32498,7.54899],[80.32478,7.5489],[80.3246,7.54897],[80.32448,7.54911],[80.32414,7.54922],[80.32382,7.54927],[80.32339,7.54921],[80.32191,7.54967]]]}},{"type":"Feature","properties":{"c":"forest"},"geometry":{"type":"Polygon","coordinates":[[[80.35563,7.53103],[80.35578,7.53116],[80.35589,7.53137],[80.35618,7.53157],[80.35621,7.53178],[80.35613,7.53185],[80.3569,7.53234],[80.35706,7.53156],[80.35705,7.53151],[80.35674,7.53147],[80.35676,7.53105],[80.35566,7.53096],[80.35563,7.53103]]]}},{"type":"Feature","properties":{"c":"forest"},"geometry":{"type":"Polygon","coordinates":[[[80.35487,7.52926],[80.35506,7.52937],[80.35555,7.5292],[80.35686,7.52907],[80.35703,7.52933],[80.35624,7.52944],[80.35626,7.52968],[80.35708,7.52956],[80.35709,7.52962],[80.35635,7.52974],[80.35636,7.52989],[80.35662,7.53002],[80.35709,7.52997],[80.35715,7.53045],[80.3566,7.53046],[80.35658,7.53059],[80.35683,7.53075],[80.35703,7.53075],[80.35715,7.53081],[80.35705,7.53141],[80.35714,7.53145],[80.3576,7.53089],[80.35872,7.53007],[80.35941,7.52948],[80.35975,7.52915],[80.36017,7.52863],[80.36029,7.52836],[80.36012,7.52821],[80.3603,7.52796],[80.36047,7.528],[80.36065,7.52771],[80.36074,7.52738],[80.3603,7.5273],[80.35988,7.52705],[80.3598,7.52675],[80.35987,7.52634],[80.3598,7.52584],[80.36011,7.52591],[80.36028,7.52606],[80.36103,7.52612],[80.36107,7.52589],[80.35998,7.52567],[80.36002,7.52543],[80.3603,7.52542],[80.36033,7.5252],[80.36065,7.52505],[80.36092,7.52467],[80.36077,7.52458],[80.36093,7.52425],[80.36072,7.52401],[80.36057,7.52354],[80.36075,7.52346],[80.36089,7.5236],[80.36106,7.52352],[80.36088,7.52329],[80.36034,7.52302],[80.36032,7.52275],[80.36057,7.52269],[80.36017,7.52231],[80.35995,7.52219],[80.3595,7.52221],[80.35921,7.52199],[80.35873,7.52186],[80.35859,7.52203],[80.35824,7.52195],[80.35795,7.52205],[80.35791,7.52273],[80.35768,7.52293],[80.35685,7.52253],[80.35648,7.52241],[80.35614,7.52256],[80.35608,7.5227],[80.35617,7.52274],[80.35614,7.52291],[80.35628,7.52314],[80.35612,7.52357],[80.35593,7.52379],[80.3557,7.5238],[80.35573,7.52406],[80.35615,7.52404],[80.35624,7.52394],[80.35626,7.52379],[80.35659,7.52381],[80.35659,7.5241],[80.35627,7.52416],[80.35622,7.52431],[80.35607,7.52433],[80.35606,7.52451],[80.35568,7.52448],[80.35548,7.52506],[80.35561,7.52518],[80.35594,7.52523],[80.35593,7.52542],[80.35541,7.5254],[80.35519,7.52558],[80.35542,7.52559],[80.35541,7.52579],[80.35573,7.52579],[80.35574,7.52563],[80.3559,7.52562],[80.35595,7.52577],[80.3563,7.52578],[80.35633,7.52552],[80.35724,7.52567],[80.35703,7.52658],[80.35633,7.52644],[80.3561,7.52646],[80.35529,7.52624],[80.35519,7.52643],[80.35555,7.52672],[80.3554,7.52709],[80.35541,7.52723],[80.35578,7.52737],[80.3555,7.52789],[80.35572,7.52794],[80.35516,7.52874],[80.35521,7.52908],[80.35493,7.52912],[80.35487,7.52926]]]}},{"type":"Feature","properties":{"c":"forest"},"geometry":{"type":"Polygon","coordinates":[[[80.35355,7.52783],[80.35367,7.52802],[80.35413,7.52822],[80.3545,7.52815],[80.35439,7.528],[80.35425,7.52797],[80.35418,7.52782],[80.35403,7.52772],[80.35404,7.52761],[80.35438,7.52746],[80.35447,7.52718],[80.35444,7.52701],[80.35459,7.52679],[80.35446,7.52672],[80.35427,7.52713],[80.35385,7.52714],[80.35361,7.52754],[80.35355,7.52783]]]}},{"type":"Feature","properties":{"c":"forest"},"geometry":{"type":"Polygon","coordinates":[[[80.35316,7.52841],[80.35325,7.52848],[80.3532,7.52873],[80.35336,7.52903],[80.35346,7.52901],[80.35363,7.5286],[80.35383,7.5287],[80.35374,7.52886],[80.35361,7.52886],[80.35354,7.52906],[80.35375,7.52917],[80.354,7.52915],[80.35431,7.52904],[80.35439,7.52882],[80.35454,7.52873],[80.35446,7.52859],[80.35415,7.52858],[80.35414,7.52843],[80.3538,7.52835],[80.35349,7.52832],[80.35325,7.52824],[80.35316,7.52841]]]}},{"type":"Feature","properties":{"c":"forest"},"geometry":{"type":"Polygon","coordinates":[[[80.35314,7.5307],[80.3537,7.53103],[80.35378,7.53095],[80.35355,7.53081],[80.35368,7.53047],[80.35383,7.53043],[80.35404,7.53046],[80.35396,7.53034],[80.35379,7.53031],[80.35404,7.53003],[80.35368,7.52983],[80.3535,7.53006],[80.35327,7.53006],[80.35314,7.5307]]]}},{"type":"Feature","properties":{"c":"forest"},"geometry":{"type":"Polygon","coordinates":[[[80.35465,7.53122],[80.35519,7.53182],[80.35532,7.5321],[80.35613,7.53266],[80.35678,7.53273],[80.35687,7.53243],[80.35643,7.5322],[80.35603,7.5319],[80.35573,7.5312],[80.35535,7.53086],[80.35493,7.5306],[80.35494,7.5309],[80.35465,7.53122]]]}},{"type":"Feature","properties":{"c":"forest"},"geometry":{"type":"Polygon","coordinates":[[[80.35947,7.52954],[80.35957,7.52988],[80.35974,7.52993],[80.35981,7.52971],[80.36002,7.52975],[80.36014,7.52934],[80.36012,7.52919],[80.35998,7.52901],[80.35947,7.52954]]]}},{"type":"Feature","properties":{"c":"forest"},"geometry":{"type":"Polygon","coordinates":[[[80.35689,7.53282],[80.35711,7.53284],[80.35717,7.53291],[80.35783,7.53287],[80.35814,7.53263],[80.35816,7.53246],[80.35835,7.53203],[80.35844,7.53121],[80.35835,7.5312],[80.35842,7.53095],[80.35888,7.53048],[80.35923,7.53034],[80.35949,7.53039],[80.35968,7.53029],[80.35955,7.53018],[80.35918,7.53027],[80.35911,7.53019],[80.35934,7.52996],[80.35922,7.52984],[80.35922,7.52973],[80.35878,7.53013],[80.35768,7.53098],[80.3572,7.53152],[80.35746,7.53192],[80.35742,7.53204],[80.35724,7.53209],[80.35705,7.53203],[80.35689,7.53282]]]}},{"type":"Feature","properties":{"c":"farmland"},"geometry":{"type":"Polygon","coordinates":[[[80.31565,7.52317],[80.31616,7.52356],[80.31647,7.52368],[80.31677,7.52315],[80.31696,7.52316],[80.31742,7.52278],[80.31769,7.52233],[80.31767,7.52229],[80.31714,7.52216],[80.31666,7.52174],[80.31638,7.52214],[80.31603,7.52249],[80.31582,7.52277],[80.31565,7.52317]]]}},{"type":"Feature","properties":{"c":"farmland"},"geometry":{"type":"Polygon","coordinates":[[[80.31547,7.52423],[80.31566,7.52449],[80.31582,7.52439],[80.3165,7.52468],[80.31675,7.5247],[80.31698,7.52451],[80.31724,7.52466],[80.31723,7.5247],[80.31735,7.52484],[80.31753,7.52499],[80.31768,7.52505],[80.31806,7.52503],[80.31804,7.52493],[80.31832,7.52487],[80.31843,7.52467],[80.3182,7.52419],[80.31811,7.52384],[80.31772,7.52414],[80.3172,7.52396],[80.31673,7.52388],[80.31651,7.52374],[80.31649,7.52388],[80.31614,7.52385],[80.31601,7.52394],[80.31587,7.52388],[80.31573,7.52405],[80.31547,7.52423]]]}},{"type":"Feature","properties":{"c":"farmland"},"geometry":{"type":"Polygon","coordinates":[[[80.3181,7.52366],[80.31822,7.52414],[80.31846,7.52464],[80.31834,7.52495],[80.31871,7.52513],[80.31883,7.5253],[80.31902,7.52546],[80.31925,7.52532],[80.31933,7.52503],[80.31927,7.52489],[80.31885,7.52467],[80.31888,7.52449],[80.31931,7.52433],[80.31966,7.52399],[80.31991,7.52391],[80.32002,7.52402],[80.32017,7.524],[80.3206,7.52376],[80.32133,7.52376],[80.32166,7.52401],[80.32259,7.52365],[80.32268,7.52314],[80.32049,7.52276],[80.3192,7.52301],[80.31854,7.52333],[80.3181,7.52366]]]}}]}