{"type":"FeatureCollection","features":[{"type":"Feature","properties":{"c":"residential"},"geometry":{"type":"Polygon","coordinates":[[[79.97299,7.74613],[79.97396,7.74682],[79.97615,7.74907],[79.97701,7.75057],[79.97904,7.75225],[79.98166,7.75225],[79.98165,7.75171],[79.9848,7.75192],[79.98531,7.75202],[79.9877,7.75043],[79.99045,7.74888],[79.99573,7.74665],[79.99622,7.74488],[79.99508,7.74206],[79.98875,7.74025],[79.98822,7.73924],[79.9878,7.73905],[79.98561,7.73667],[79.9846,7.73713],[79.98335,7.7366],[79.98201,7.73589],[79.98151,7.7366],[79.98143,7.73688],[79.9813,7.7371],[79.97958,7.73862],[79.97697,7.74112],[79.97768,7.7439],[79.97667,7.74439],[79.97547,7.74488],[79.97387,7.74461],[79.97299,7.74613]]]}},{"type":"Feature","properties":{"c":"heath"},"geometry":{"type":"Polygon","coordinates":[[[80.02161,7.79043],[80.02164,7.79048],[80.02179,7.79049],[80.02168,7.79055],[80.02187,7.79068],[80.02218,7.79056],[80.0219,7.79017],[80.02183,7.79025],[80.02173,7.79026],[80.02185,7.79036],[80.02166,7.79037],[80.02161,7.79043]]]}},{"type":"Feature","properties":{"c":"farmland"},"geometry":{"type":"Polygon","coordinates":[[[80.01001,7.82236],[80.01036,7.82294],[80.0117,7.82236],[80.01146,7.82174],[80.01001,7.82236]]]}},{"type":"Feature","properties":{"c":"farmland"},"geometry":{"type":"Polygon","coordinates":[[[80.01166,7.82527],[80.01343,7.82528],[80.01339,7.8237],[80.01276,7.82381],[80.01166,7.82527]]]}},{"type":"Feature","properties":{"c":"farmland"},"geometry":{"type":"Polygon","coordinates":[[[80.00993,7.82169],[80.01035,7.82187],[80.01056,7.82169],[80.01068,7.82146],[80.01022,7.8212],[80.00993,7.82169]]]}},{"type":"Feature","properties":{"c":"farmland"},"geometry":{"type":"Polygon","coordinates":[[[80.01036,7.82294],[80.01071,7.82329],[80.01099,7.82386],[80.01126,7.8238],[80.01124,7.82359],[80.01088,7.82272],[80.01036,7.82294]]]}},{"type":"Feature","properties":{"c":"farmland"},"geometry":{"type":"Polygon","coordinates":[[[80.02992,7.81057],[80.02993,7.81306],[80.03025,7.81371],[80.03101,7.81343],[80.03119,7.81383],[80.03247,7.81368],[80.03166,7.81187],[80.03155,7.81102],[80.03118,7.81093],[80.03102,7.8105],[80.02992,7.81057]]]}},{"type":"Feature","properties":{"c":"residential"},"geometry":{"type":"Polygon","coordinates":[[[80.08402,7.80173],[80.08431,7.80193],[80.08464,7.80146],[80.08434,7.80125],[80.08402,7.80173]]]}},{"type":"Feature","properties":{"c":"residential"},"geometry":{"type":"Polygon","coordinates":[[[80.08298,7.79819],[80.08347,7.79859],[80.08372,7.79872],[80.084,7.79865],[80.08408,7.79853],[80.08407,7.79823],[80.08379,7.7981],[80.08346,7.79804],[80.08315,7.79806],[80.08298,7.79819]]]}},{"type":"Feature","properties":{"c":"residential"},"geometry":{"type":"Polygon","coordinates":[[[80.08195,7.79818],[80.08306,7.79924],[80.08346,7.79882],[80.08293,7.79834],[80.0823,7.79798],[80.08195,7.79818]]]}},{"type":"Feature","properties":{"c":"residential"},"geometry":{"type":"Polygon","coordinates":[[[80.08378,7.79897],[80.0842,7.79954],[80.0851,7.79887],[80.08468,7.79831],[80.08378,7.79897]]]}},{"type":"Feature","properties":{"c":"residential"},"geometry":{"type":"Polygon","coordinates":[[[80.08307,7.79981],[80.08341,7.80026],[80.084,7.79982],[80.08367,7.79937],[80.08307,7.79981]]]}},{"type":"Feature","properties":{"c":"residential"},"geometry":{"type":"Polygon","coordinates":[[[80.08393,7.80019],[80.08403,7.80031],[80.08443,7.80058],[80.08485,7.80068],[80.08495,7.80054],[80.08486,7.7995],[80.08481,7.79944],[80.08472,7.79946],[80.08424,7.79982],[80.08393,7.80019]]]}},{"type":"Feature","properties":{"c":"residential"},"geometry":{"type":"Polygon","coordinates":[[[80.08251,7.80059],[80.08286,7.80092],[80.08331,7.80044],[80.08296,7.80012],[80.08251,7.80059]]]}},{"type":"Feature","properties":{"c":"residential"},"geometry":{"type":"Polygon","coordinates":[[[80.0822,7.80093],[80.08254,7.80124],[80.08278,7.80096],[80.08245,7.80066],[80.0822,7.80093]]]}},{"type":"Feature","properties":{"c":"residential"},"geometry":{"type":"Polygon","coordinates":[[[80.08137,7.8018],[80.08171,7.80206],[80.08212,7.80154],[80.08179,7.80128],[80.08137,7.8018]]]}},{"type":"Feature","properties":{"c":"residential"},"geometry":{"type":"Polygon","coordinates":[[[80.08075,7.80349],[80.08109,7.80377],[80.08154,7.80324],[80.0812,7.80296],[80.08075,7.80349]]]}},{"type":"Feature","properties":{"c":"residential"},"geometry":{"type":"Polygon","coordinates":[[[80.08039,7.80267],[80.08102,7.80289],[80.08112,7.8026],[80.0805,7.80238],[80.08039,7.80267]]]}},{"type":"Feature","properties":{"c":"residential"},"geometry":{"type":"Polygon","coordinates":[[[80.08093,7.80046],[80.0814,7.80063],[80.08154,7.80023],[80.08108,7.80007],[80.08093,7.80046]]]}},{"type":"Feature","properties":{"c":"residential"},"geometry":{"type":"Polygon","coordinates":[[[80.07923,7.80035],[80.0797,7.8008],[80.08093,7.79951],[80.08045,7.79907],[80.07923,7.80035]]]}},{"type":"Feature","properties":{"c":"residential"},"geometry":{"type":"Polygon","coordinates":[[[80.07936,7.79936],[80.07975,7.79938],[80.07976,7.79919],[80.07936,7.79918],[80.07936,7.79936]]]}},{"type":"Feature","properties":{"c":"farmland"},"geometry":{"type":"Polygon","coordinates":[[[80.01102,7.80818],[80.01143,7.80821],[80.01148,7.8082],[80.01149,7.8081],[80.01105,7.80805],[80.01102,7.80818]]]}},{"type":"Feature","properties":{"c":"farmland"},"geometry":{"type":"Polygon","coordinates":[[[80.01097,7.80864],[80.011,7.8088],[80.01196,7.80904],[80.0121,7.80893],[80.01219,7.80828],[80.01187,7.80818],[80.01174,7.80851],[80.01142,7.8086],[80.01138,7.80858],[80.01138,7.80843],[80.01133,7.80837],[80.01113,7.80833],[80.011,7.80841],[80.01097,7.80864]]]}},{"type":"Feature","properties":{"c":"farmland"},"geometry":{"type":"Polygon","coordinates":[[[80.05258,7.80202],[80.05258,7.80257],[80.05313,7.80253],[80.05358,7.80217],[80.05359,7.802],[80.05331,7.80158],[80.05306,7.80179],[80.05258,7.80202]]]}},{"type":"Feature","properties":{"c":"farmland"},"geometry":{"type":"Polygon","coordinates":[[[80.05485,7.80292],[80.05529,7.80292],[80.05606,7.80274],[80.05584,7.80263],[80.05517,7.80244],[80.05485,7.80292]]]}},{"type":"Feature","properties":{"c":"farmland"},"geometry":{"type":"Polygon","coordinates":[[[80.05603,7.80262],[80.05699,7.80312],[80.05711,7.80283],[80.05643,7.80207],[80.05603,7.80262]]]}},{"type":"Feature","properties":{"c":"farmland","n":"Irrigable_Area_Singadaluwa_Wewa"},"geometry":{"type":"Polygon","coordinates":[[[80.03785,7.7277],[80.038,7.72783],[80.03803,7.72811],[80.03865,7.72819],[80.03874,7.72811],[80.03938,7.72848],[80.0389,7.72934],[80.03887,7.72951],[80.03866,7.72981],[80.0385,7.72993],[80.03835,7.73019],[80.03833,7.73036],[80.03863,7.73079],[80.03901,7.73111],[80.03949,7.73138],[80.03972,7.73147],[80.04005,7.73152],[80.0408,7.73154],[80.04091,7.73141],[80.04114,7.73076],[80.04148,7.73002],[80.04157,7.72992],[80.04178,7.72984],[80.04178,7.7295],[80.04158,7.72912],[80.04148,7.729],[80.04102,7.72928],[80.04086,7.72918],[80.04071,7.72893],[80.04066,7.72851],[80.0404,7.72848],[80.04006,7.72853],[80.03987,7.72846],[80.03952,7.72819],[80.03933,7.72821],[80.03881,7.72799],[80.03843,7.72763],[80.03825,7.72753],[80.03813,7.7275],[80.03804,7.7276],[80.03791,7.72757],[80.03785,7.7277]]]}},{"type":"Feature","properties":{"c":"farmland","n":"Irrigable_Area_Ihalagama_Wewa"},"geometry":{"type":"Polygon","coordinates":[[[80.03765,7.73988],[80.03761,7.74058],[80.03774,7.741],[80.03791,7.74137],[80.03801,7.7415],[80.03819,7.74117],[80.03849,7.74126],[80.03823,7.74182],[80.03858,7.74195],[80.03893,7.74107],[80.03887,7.74052],[80.03919,7.74069],[80.03928,7.74042],[80.0396,7.74048],[80.03964,7.74028],[80.03956,7.74014],[80.03933,7.74009],[80.03938,7.7398],[80.03988,7.73987],[80.03984,7.73974],[80.03969,7.73964],[80.0399,7.73935],[80.03935,7.73934],[80.03883,7.73915],[80.03828,7.73888],[80.03813,7.7386],[80.03808,7.73807],[80.03792,7.73827],[80.03784,7.73863],[80.03803,7.73925],[80.03765,7.73988]]]}},{"type":"Feature","properties":{"c":"farmland","n":"Irrigable_Area_Singadaluwa_Kuda_Wewa"},"geometry":{"type":"Polygon","coordinates":[[[80.0359,7.73345],[80.03596,7.73382],[80.03611,7.73412],[80.03662,7.73392],[80.03675,7.73391],[80.03689,7.73397],[80.03717,7.73362],[80.03696,7.73341],[80.0374,7.73272],[80.03654,7.7318],[80.03634,7.7323],[80.03641,7.73259],[80.03638,7.73272],[80.0362,7.73294],[80.03608,7.73339],[80.03599,7.73335],[80.0359,7.73345]]]}},{"type":"Feature","properties":{"c":"farmland","n":"Irrigable_Area_Ihalagama_Wewa"},"geometry":{"type":"Polygon","coordinates":[[[80.03836,7.73834],[80.03839,7.73854],[80.03855,7.73876],[80.0389,7.73898],[80.03937,7.73914],[80.03985,7.7391],[80.04001,7.73891],[80.03994,7.73867],[80.04004,7.73851],[80.04016,7.73796],[80.04009,7.73788],[80.03994,7.73783],[80.04017,7.73754],[80.04,7.73744],[80.04073,7.73672],[80.04084,7.73643],[80.04054,7.73629],[80.04041,7.73604],[80.0403,7.73598],[80.03986,7.73606],[80.03961,7.73619],[80.03942,7.73642],[80.03933,7.73675],[80.03918,7.73695],[80.03879,7.73692],[80.03868,7.73701],[80.03853,7.73742],[80.03836,7.73834]]]}},{"type":"Feature","properties":{"c":"farmland","n":"Irrigable_Area_Kadigawa_Wewa"},"geometry":{"type":"Polygon","coordinates":[[[79.98296,7.71141],[79.98416,7.71228],[79.98429,7.71231],[79.98462,7.71209],[79.98482,7.71203],[79.98524,7.71198],[79.98603,7.71202],[79.98626,7.71193],[79.98694,7.71195],[79.98813,7.71172],[79.98864,7.7117],[79.98882,7.71162],[79.98997,7.71144],[79.99016,7.71157],[79.99044,7.7125],[79.99055,7.71272],[79.99048,7.71294],[79.99115,7.71341],[79.99144,7.71372],[79.99206,7.71454],[79.9923,7.7147],[79.99252,7.71436],[79.99274,7.71426],[79.99297,7.71421],[79.99315,7.71433],[79.99342,7.71474],[79.9936,7.71485],[79.99372,7.715],[79.99378,7.7152],[79.99409,7.7156],[79.99411,7.71605],[79.99416,7.71612],[79.99437,7.71616],[79.99466,7.71605],[79.99549,7.71551],[79.99549,7.71469],[79.99511,7.71485],[79.99503,7.71474],[79.995,7.71461],[79.9948,7.71456],[79.99475,7.71442],[79.99493,7.71415],[79.99491,7.71388],[79.99477,7.71363],[79.99492,7.71343],[79.99514,7.71325],[79.99546,7.7131],[79.9956,7.71291],[79.99565,7.71265],[79.99568,7.71237],[79.99557,7.71079],[79.99539,7.71064],[79.99539,7.7103],[79.99496,7.7103],[79.99481,7.71016],[79.99336,7.71024],[79.9918,7.70993],[79.9869,7.71013],[79.9869,7.70983],[79.9865,7.70985],[79.98629,7.7098],[79.98618,7.70969],[79.98607,7.70913],[79.98597,7.70812],[79.98581,7.70828],[79.98572,7.70854],[79.98551,7.70884],[79.98522,7.70914],[79.98497,7.70931],[79.98379,7.71059],[79.98358,7.71089],[79.98296,7.71141]]]}},{"type":"Feature","properties":{"c":"farmland","n":"Irrigable_Area_Kadigawa_Wewa"},"geometry":{"type":"Polygon","coordinates":[[[79.99456,7.71625],[79.99463,7.71665],[79.9946,7.7169],[79.99518,7.71734],[79.9953,7.71735],[79.99545,7.71716],[79.99584,7.71693],[79.99639,7.71678],[79.99619,7.71619],[79.99643,7.71606],[79.99641,7.71593],[79.99632,7.71583],[79.99607,7.71573],[79.99597,7.71555],[79.99564,7.71564],[79.99456,7.71625]]]}},{"type":"Feature","properties":{"c":"farmland","n":"Irrigable_Area_Karadikulam_Wewa"},"geometry":{"type":"Polygon","coordinates":[[[80.02217,7.73619],[80.02218,7.7367],[80.02226,7.73699],[80.02317,7.73687],[80.02325,7.73612],[80.02347,7.73556],[80.02401,7.73475],[80.02397,7.73469],[80.02382,7.73477],[80.02336,7.73516],[80.02248,7.73493],[80.0223,7.73542],[80.02245,7.73551],[80.02217,7.73619]]]}},{"type":"Feature","properties":{"c":"farmland","n":"Irrigable_Area_Karadikulam_Wewa"},"geometry":{"type":"Polygon","coordinates":[[[80.0223,7.73736],[80.0227,7.73784],[80.02263,7.73801],[80.02284,7.73825],[80.02411,7.73864],[80.02446,7.73869],[80.02471,7.73802],[80.02484,7.73785],[80.0246,7.73764],[80.02449,7.73749],[80.02453,7.73706],[80.02476,7.73628],[80.0252,7.73643],[80.0253,7.73622],[80.02476,7.73598],[80.0245,7.73575],[80.02423,7.73502],[80.02408,7.73478],[80.02354,7.7356],[80.02333,7.73617],[80.02323,7.73698],[80.0223,7.73709],[80.0223,7.73736]]]}},{"type":"Feature","properties":{"c":"farmland","n":"Irrigable_Area_Kuruwikulama_Wewa"},"geometry":{"type":"Polygon","coordinates":[[[80.00538,7.73617],[80.00552,7.73626],[80.00545,7.73638],[80.00579,7.73659],[80.00591,7.73656],[80.00621,7.73688],[80.0066,7.73713],[80.00682,7.73654],[80.00702,7.73645],[80.00783,7.73557],[80.00717,7.73477],[80.00675,7.73502],[80.00647,7.73524],[80.00624,7.73554],[80.00612,7.73554],[80.00538,7.73617]]]}},{"type":"Feature","properties":{"c":"farmland","n":"Irrigable_Area_Kuruwikulama_Wewa"},"geometry":{"type":"Polygon","coordinates":[[[80.00699,7.73422],[80.00778,7.73526],[80.00808,7.73521],[80.00836,7.73508],[80.00889,7.73505],[80.00926,7.73563],[80.00935,7.73547],[80.00961,7.73524],[80.01016,7.73491],[80.01059,7.73444],[80.01086,7.73405],[80.01082,7.73362],[80.01098,7.73339],[80.01131,7.73274],[80.01186,7.73308],[80.01196,7.73292],[80.01207,7.73285],[80.01269,7.73257],[80.01262,7.73244],[80.0126,7.73223],[80.01271,7.73185],[80.01247,7.73178],[80.01237,7.73194],[80.01192,7.73222],[80.01132,7.73229],[80.01106,7.73217],[80.0106,7.73221],[80.01048,7.73216],[80.01029,7.73184],[80.01015,7.73171],[80.00987,7.73171],[80.00947,7.73183],[80.00928,7.73178],[80.00889,7.73222],[80.0087,7.73263],[80.00849,7.73289],[80.00823,7.7331],[80.00783,7.73359],[80.00763,7.73378],[80.00738,7.73383],[80.0073,7.73396],[80.00699,7.73422]]]}},{"type":"Feature","properties":{"c":"farmland","n":"Irrigable_Area_Kadawalapitiya_Wewa"},"geometry":{"type":"Polygon","coordinates":[[[80.04869,7.73982],[80.04879,7.74017],[80.04892,7.74044],[80.04896,7.74079],[80.04893,7.74105],[80.04897,7.7414],[80.0489,7.74171],[80.04885,7.74246],[80.049,7.74257],[80.04916,7.74254],[80.04919,7.7419],[80.04932,7.74116],[80.04938,7.74145],[80.04938,7.74255],[80.04946,7.74264],[80.04959,7.74265],[80.05013,7.74248],[80.05075,7.74253],[80.05155,7.74281],[80.05171,7.7421],[80.05206,7.74139],[80.0522,7.74072],[80.05208,7.74056],[80.05119,7.74044],[80.05089,7.7403],[80.05075,7.73972],[80.05079,7.73947],[80.05026,7.73942],[80.0494,7.73961],[80.04876,7.73955],[80.04871,7.7396],[80.04869,7.73982]]]}},{"type":"Feature","properties":{"c":"farmland","n":"Irrigable_Area_Aluth_Wewa"},"geometry":{"type":"Polygon","coordinates":[[[80.01439,7.72849],[80.01533,7.72901],[80.01564,7.72876],[80.01579,7.72811],[80.01587,7.72798],[80.01602,7.72788],[80.01574,7.72762],[80.01542,7.72722],[80.01511,7.72663],[80.01508,7.72641],[80.01493,7.72644],[80.01476,7.72726],[80.01439,7.72849]]]}},{"type":"Feature","properties":{"c":"farmland","n":"Irrigable_Area_Aluth_Wewa"},"geometry":{"type":"Polygon","coordinates":[[[80.01515,7.72938],[80.01551,7.72963],[80.01597,7.73004],[80.01637,7.73025],[80.0166,7.73024],[80.01681,7.73059],[80.01743,7.73021],[80.01726,7.73008],[80.01732,7.7299],[80.01711,7.7295],[80.01669,7.72824],[80.01657,7.72799],[80.01624,7.72799],[80.01599,7.72808],[80.01588,7.72825],[80.01579,7.72876],[80.01561,7.72899],[80.01534,7.72918],[80.01515,7.72938]]]}},{"type":"Feature","properties":{"c":"farmland","n":"Irrigable_Area_Nammuwawa_Wewa"},"geometry":{"type":"Polygon","coordinates":[[[80.01981,7.72643],[80.02021,7.72647],[80.02085,7.72663],[80.0217,7.72667],[80.02192,7.72674],[80.02227,7.72699],[80.0224,7.72715],[80.0227,7.72794],[80.02288,7.7282],[80.02442,7.72863],[80.02439,7.72771],[80.02432,7.72747],[80.02431,7.72677],[80.02434,7.72657],[80.02445,7.7263],[80.02457,7.72626],[80.02494,7.72592],[80.02507,7.72587],[80.02541,7.72597],[80.02572,7.72595],[80.02577,7.72578],[80.02595,7.72571],[80.02594,7.72552],[80.02615,7.72536],[80.02633,7.72529],[80.02691,7.72522],[80.02717,7.72531],[80.02759,7.7252],[80.02804,7.72546],[80.02834,7.72552],[80.02843,7.7254],[80.02868,7.72539],[80.02913,7.72525],[80.02937,7.72528],[80.02973,7.72397],[80.02944,7.72372],[80.02926,7.72369],[80.02895,7.7237],[80.0284,7.72382],[80.02822,7.72383],[80.0281,7.72379],[80.02804,7.72335],[80.02755,7.72297],[80.02778,7.72236],[80.02785,7.72191],[80.02757,7.72149],[80.02748,7.72126],[80.02697,7.72068],[80.02669,7.72045],[80.02661,7.72044],[80.02639,7.72058],[80.02613,7.72084],[80.02623,7.72102],[80.02681,7.72159],[80.02647,7.72182],[80.02679,7.72229],[80.02677,7.72264],[80.02637,7.72302],[80.02583,7.72246],[80.02564,7.72236],[80.02532,7.7223],[80.02482,7.72196],[80.02405,7.72173],[80.02328,7.72123],[80.02225,7.72189],[80.02193,7.72258],[80.02106,7.72318],[80.02099,7.72426],[80.02069,7.72425],[80.02054,7.72465],[80.02051,7.72509],[80.02003,7.72509],[80.01996,7.72515],[80.01981,7.72643]]]}},{"type":"Feature","properties":{"c":"farmland","n":"Irrigable_Area_Nammuwawa_Wewa"},"geometry":{"type":"Polygon","coordinates":[[[80.0207,7.72756],[80.02085,7.72826],[80.02086,7.72877],[80.0212,7.72888],[80.02132,7.7285],[80.02193,7.72856],[80.02203,7.72849],[80.02249,7.72861],[80.0226,7.72809],[80.02232,7.72726],[80.02184,7.72685],[80.02129,7.72677],[80.02133,7.72742],[80.0207,7.72756]]]}},{"type":"Feature","properties":{"c":"farmland","n":"Irrigable_Area_Kotu_wewa"},"geometry":{"type":"Polygon","coordinates":[[[80.0039,7.71565],[80.0044,7.7154],[80.00452,7.71539],[80.00861,7.71621],[80.01071,7.71676],[80.01129,7.71676],[80.01173,7.71669],[80.01196,7.71661],[80.0117,7.71648],[80.01154,7.71634],[80.01126,7.7148],[80.01126,7.7144],[80.01139,7.71401],[80.01122,7.7133],[80.01123,7.71293],[80.01127,7.71283],[80.0116,7.71249],[80.01152,7.7124],[80.01149,7.71217],[80.01131,7.71214],[80.01132,7.71164],[80.0112,7.71163],[80.01108,7.71211],[80.01075,7.71212],[80.01065,7.71222],[80.01047,7.71228],[80.01009,7.71223],[80.00965,7.71225],[80.00952,7.71082],[80.00943,7.7107],[80.00912,7.71074],[80.00887,7.71063],[80.00866,7.71046],[80.00848,7.71043],[80.0084,7.71036],[80.00776,7.7104],[80.00751,7.71049],[80.00734,7.7104],[80.00699,7.71035],[80.00613,7.71029],[80.00587,7.71023],[80.00567,7.71024],[80.00558,7.71021],[80.00545,7.71006],[80.00531,7.7101],[80.00527,7.7102],[80.0053,7.71055],[80.00515,7.71079],[80.00506,7.71142],[80.00498,7.71152],[80.0051,7.71176],[80.00488,7.7117],[80.00466,7.71156],[80.00435,7.71174],[80.00407,7.71246],[80.00402,7.71283],[80.00418,7.71345],[80.00422,7.71423],[80.00404,7.71534],[80.0039,7.71565]]]}},{"type":"Feature","properties":{"c":"farmland","n":"Irrigable_Area_Nelum_wewa"},"geometry":{"type":"Polygon","coordinates":[[[80.00861,7.72125],[80.00865,7.72146],[80.00895,7.72221],[80.00925,7.72311],[80.00954,7.72529],[80.00984,7.7253],[80.01001,7.72547],[80.01028,7.72549],[80.01041,7.72558],[80.01045,7.72593],[80.01038,7.72604],[80.01052,7.72613],[80.01078,7.72607],[80.01091,7.72615],[80.01096,7.72625],[80.01107,7.72628],[80.01148,7.72622],[80.01155,7.72616],[80.01164,7.72598],[80.01166,7.72571],[80.01148,7.72517],[80.01128,7.72422],[80.01108,7.7238],[80.01067,7.72318],[80.01006,7.72268],[80.00963,7.72209],[80.00921,7.72173],[80.00906,7.72141],[80.00873,7.72118],[80.00865,7.72117],[80.00861,7.72125]]]}},{"type":"Feature","properties":{"c":"farmland","n":"Irrigable_Area_Pahala_Diwllawa_wewa"},"geometry":{"type":"Polygon","coordinates":[[[80.05094,7.74676],[80.05128,7.74716],[80.05241,7.74833],[80.05268,7.74842],[80.05279,7.74813],[80.05281,7.74789],[80.05272,7.74749],[80.05276,7.74742],[80.05252,7.74721],[80.05262,7.74681],[80.05258,7.74625],[80.05262,7.74602],[80.05259,7.74559],[80.05243,7.74541],[80.05215,7.74535],[80.05194,7.74545],[80.05175,7.74569],[80.05146,7.74632],[80.05121,7.74646],[80.05094,7.74676]]]}},{"type":"Feature","properties":{"c":"farmland","n":"Irrigable_Area_Pahala_Diwllawa_wewa"},"geometry":{"type":"Polygon","coordinates":[[[80.05011,7.7503],[80.05101,7.75064],[80.05165,7.75097],[80.05193,7.75103],[80.05204,7.75042],[80.05227,7.74988],[80.05229,7.74971],[80.05222,7.74937],[80.05227,7.74915],[80.05239,7.74896],[80.05271,7.74883],[80.05281,7.74872],[80.05249,7.74863],[80.05219,7.74845],[80.05133,7.74746],[80.05111,7.74728],[80.05068,7.74778],[80.05059,7.74827],[80.05037,7.74866],[80.05035,7.74874],[80.05049,7.74889],[80.05052,7.74901],[80.05039,7.74928],[80.05011,7.7503]]]}},{"type":"Feature","properties":{"c":"farmland","n":"Irrigable_Area_Magalle_Wewa"},"geometry":{"type":"Polygon","coordinates":[[[80.05307,7.72544],[80.05318,7.72582],[80.05341,7.72604],[80.05382,7.72608],[80.05432,7.72589],[80.0547,7.72581],[80.05485,7.72582],[80.05493,7.72588],[80.05501,7.72613],[80.05522,7.7265],[80.05516,7.72669],[80.05492,7.72703],[80.05497,7.72727],[80.0551,7.72739],[80.05559,7.72755],[80.05655,7.72763],[80.05708,7.72778],[80.05749,7.72779],[80.05792,7.72793],[80.05809,7.72812],[80.05813,7.72828],[80.05814,7.72871],[80.05809,7.72909],[80.05846,7.72952],[80.05879,7.73032],[80.05893,7.73047],[80.05914,7.73055],[80.0598,7.73054],[80.05999,7.73061],[80.06017,7.73077],[80.06042,7.73091],[80.06069,7.73123],[80.06101,7.73125],[80.06117,7.73131],[80.06139,7.73149],[80.06146,7.73173],[80.06133,7.73215],[80.06125,7.73261],[80.06099,7.73288],[80.06096,7.73309],[80.06115,7.73349],[80.06115,7.73362],[80.06102,7.7339],[80.06063,7.73428],[80.06058,7.73456],[80.06022,7.73497],[80.06003,7.7355],[80.05999,7.73603],[80.06009,7.73615],[80.06015,7.73642],[80.06016,7.73681],[80.06002,7.7373],[80.06,7.7376],[80.05975,7.73835],[80.05976,7.73851],[80.06046,7.73886],[80.06101,7.73968],[80.06118,7.73972],[80.06151,7.73952],[80.06213,7.73966],[80.06228,7.73976],[80.06251,7.73998],[80.06262,7.74019],[80.06296,7.74037],[80.06309,7.74059],[80.06347,7.74085],[80.06364,7.74111],[80.06407,7.74146],[80.06438,7.74156],[80.06479,7.74135],[80.06499,7.74149],[80.06502,7.74181],[80.06514,7.74192],[80.06573,7.74192],[80.06611,7.74181],[80.06667,7.74198],[80.0669,7.74198],[80.06699,7.74203],[80.06718,7.7424],[80.06731,7.74251],[80.06742,7.7427],[80.06775,7.7428],[80.06799,7.74296],[80.06804,7.74284],[80.0681,7.74284],[80.06797,7.74358],[80.06771,7.74415],[80.06866,7.74481],[80.06911,7.74495],[80.06918,7.74502],[80.06917,7.7451],[80.06904,7.74528],[80.06908,7.74549],[80.06915,7.74554],[80.06978,7.74563],[80.07019,7.74562],[80.07041,7.74549],[80.07064,7.74546],[80.07081,7.74582],[80.07124,7.74614],[80.0716,7.74588],[80.07223,7.74578],[80.07258,7.74558],[80.07283,7.74533],[80.07353,7.7444],[80.07409,7.74395],[80.07512,7.7434],[80.076,7.74312],[80.07615,7.74286],[80.07628,7.74189],[80.07647,7.74144],[80.07692,7.74106],[80.07793,7.74065],[80.07874,7.74065],[80.07941,7.74078],[80.07962,7.74072],[80.08046,7.74029],[80.08145,7.73991],[80.08199,7.74002],[80.08278,7.73997],[80.08359,7.73985],[80.08415,7.74012],[80.08409,7.74048],[80.08359,7.74087],[80.08362,7.74127],[80.08488,7.74176],[80.08533,7.7421],[80.08677,7.74238],[80.08707,7.74261],[80.08722,7.74331],[80.08795,7.74384],[80.08866,7.74391],[80.08888,7.74476],[80.08929,7.74519],[80.08966,7.74515],[80.09467,7.74524],[80.09582,7.74483],[80.09902,7.74478],[80.09957,7.7449],[80.0985,7.74432],[80.09443,7.74293],[80.09415,7.74293],[80.0924,7.74221],[80.09217,7.74218],[80.09048,7.7423],[80.08936,7.74214],[80.08523,7.74101],[80.08521,7.74088],[80.0858,7.741],[80.08861,7.74184],[80.08937,7.74203],[80.09056,7.74216],[80.09226,7.74204],[80.0943,7.74274],[80.09399,7.74166],[80.09412,7.74032],[80.09392,7.73997],[80.09367,7.73969],[80.09291,7.73919],[80.09256,7.7391],[80.0919,7.73913],[80.09186,7.73963],[80.09082,7.73965],[80.0907,7.73918],[80.08922,7.73923],[80.0879,7.73943],[80.08716,7.73941],[80.08665,7.73936],[80.08624,7.73926],[80.08479,7.7386],[80.08453,7.73855],[80.08382,7.73879],[80.08355,7.73882],[80.08168,7.73872],[80.08138,7.73902],[80.08106,7.73925],[80.08065,7.73945],[80.08033,7.73955],[80.07996,7.73958],[80.07951,7.73955],[80.07928,7.73938],[80.07911,7.73894],[80.07893,7.73886],[80.07856,7.73902],[80.07793,7.73952],[80.07733,7.73991],[80.07715,7.74015],[80.07672,7.7405],[80.07643,7.74066],[80.07619,7.74069],[80.07568,7.74059],[80.07531,7.74057],[80.07522,7.74065],[80.07489,7.74058],[80.07373,7.74057],[80.07346,7.74044],[80.07316,7.73996],[80.07257,7.73955],[80.07232,7.73972],[80.07161,7.73956],[80.07086,7.73928],[80.07092,7.73871],[80.06971,7.73827],[80.06942,7.73896],[80.06922,7.73915],[80.06885,7.73917],[80.06842,7.73911],[80.06795,7.73892],[80.06792,7.73871],[80.06714,7.73848],[80.06707,7.73824],[80.0677,7.73722],[80.06764,7.73693],[80.06752,7.73669],[80.06753,7.73632],[80.0683,7.73497],[80.06835,7.73437],[80.06826,7.7341],[80.068,7.73377],[80.06698,7.73336],[80.06687,7.73287],[80.06662,7.7325],[80.06639,7.73225],[80.06581,7.73244],[80.06547,7.73238],[80.06533,7.73205],[80.06536,7.73164],[80.06548,7.73128],[80.06544,7.73053],[80.06531,7.72977],[80.065,7.72868],[80.06524,7.7286],[80.06543,7.72867],[80.06583,7.72904],[80.06614,7.72924],[80.06768,7.7296],[80.06811,7.7298],[80.06827,7.72993],[80.06833,7.73022],[80.06815,7.73045],[80.06754,7.73077],[80.06709,7.73106],[80.06709,7.73129],[80.06718,7.7314],[80.06735,7.73145],[80.06804,7.73131],[80.06831,7.73119],[80.06902,7.73013],[80.06909,7.72994],[80.06902,7.72969],[80.06886,7.72953],[80.06677,7.72904],[80.06646,7.72893],[80.06591,7.72831],[80.06588,7.72731],[80.06577,7.72715],[80.0654,7.72717],[80.06508,7.72707],[80.06458,7.72659],[80.06334,7.72574],[80.06348,7.72521],[80.06441,7.72416],[80.06421,7.72408],[80.06434,7.72381],[80.06442,7.72377],[80.06468,7.72377],[80.06472,7.72364],[80.06457,7.72292],[80.06365,7.7223],[80.063,7.72192],[80.06269,7.72121],[80.06032,7.72214],[80.05757,7.72588],[80.05548,7.7274],[80.05537,7.72732],[80.05744,7.72574],[80.0602,7.72198],[80.06271,7.72104],[80.06291,7.72109],[80.0632,7.72181],[80.06342,7.72198],[80.0645,7.72253],[80.06472,7.72271],[80.06495,7.72312],[80.06507,7.72346],[80.06518,7.72361],[80.06571,7.72343],[80.06649,7.72303],[80.06748,7.72302],[80.06799,7.72323],[80.06849,7.72386],[80.06923,7.72446],[80.06952,7.72497],[80.06994,7.72651],[80.07011,7.72695],[80.07052,7.72783],[80.07088,7.72848],[80.07205,7.72934],[80.0725,7.72987],[80.07276,7.73031],[80.07284,7.73088],[80.0728,7.7318],[80.07283,7.73207],[80.07295,7.73231],[80.0734,7.73251],[80.07381,7.7325],[80.07391,7.73217],[80.07396,7.73171],[80.07415,7.73106],[80.07429,7.73085],[80.07452,7.73069],[80.07464,7.73048],[80.07451,7.73017],[80.07424,7.73018],[80.07406,7.73026],[80.07382,7.73015],[80.07367,7.72976],[80.07372,7.72903],[80.07368,7.7287],[80.07322,7.72811],[80.0725,7.72733],[80.07219,7.72712],[80.07189,7.72672],[80.07187,7.72604],[80.07249,7.72509],[80.07268,7.72417],[80.07263,7.72393],[80.07239,7.7234],[80.07192,7.72305],[80.07141,7.72213],[80.07093,7.72161],[80.07066,7.72103],[80.07047,7.72079],[80.07015,7.72065],[80.06963,7.72016],[80.06942,7.72017],[80.06876,7.72043],[80.06853,7.72075],[80.06832,7.72095],[80.06801,7.72116],[80.06747,7.72127],[80.06708,7.72124],[80.06577,7.72035],[80.06504,7.72],[80.06485,7.72022],[80.06442,7.7204],[80.06393,7.72028],[80.06336,7.72025],[80.06286,7.72006],[80.06243,7.71998],[80.0614,7.72],[80.06086,7.72006],[80.06036,7.72019],[80.05993,7.72036],[80.0597,7.72075],[80.05934,7.72075],[80.05916,7.72044],[80.05897,7.72026],[80.0586,7.72017],[80.05838,7.72019],[80.05804,7.7203],[80.05781,7.72017],[80.05783,7.7199],[80.05779,7.71971],[80.05748,7.71979],[80.05716,7.71994],[80.05673,7.72045],[80.0557,7.72263],[80.05533,7.7231],[80.05501,7.72342],[80.05491,7.72362],[80.0544,7.72404],[80.05357,7.72459],[80.05309,7.72517],[80.05307,7.72544]]]}},{"type":"Feature","properties":{"c":"farmland","n":"Irrigable_Area_Magalle_Wewa"},"geometry":{"type":"Polygon","coordinates":[[[80.06755,7.74458],[80.06773,7.74596],[80.06904,7.74727],[80.06958,7.74793],[80.06976,7.74779],[80.06989,7.74775],[80.07019,7.74782],[80.0702,7.74803],[80.07029,7.74812],[80.07051,7.74816],[80.07083,7.74836],[80.07195,7.74932],[80.07272,7.75011],[80.07526,7.7503],[80.07607,7.74913],[80.07555,7.7471],[80.07564,7.74706],[80.07619,7.74917],[80.07538,7.75034],[80.07578,7.75064],[80.07599,7.7512],[80.07628,7.7512],[80.07623,7.75192],[80.07763,7.75103],[80.07961,7.75008],[80.08148,7.74965],[80.08273,7.74946],[80.0828,7.74938],[80.08283,7.74914],[80.08291,7.74908],[80.08305,7.74911],[80.08332,7.74896],[80.08339,7.74888],[80.08367,7.74804],[80.08413,7.74737],[80.08431,7.74718],[80.08466,7.74699],[80.08356,7.74657],[80.08319,7.74672],[80.08297,7.74667],[80.08291,7.74653],[80.08292,7.74625],[80.08081,7.74517],[80.07904,7.74548],[80.07779,7.74545],[80.0778,7.74539],[80.07905,7.74541],[80.0807,7.74508],[80.08084,7.7451],[80.08197,7.74567],[80.08474,7.74686],[80.08504,7.74673],[80.08492,7.74611],[80.0852,7.74605],[80.08524,7.74623],[80.08561,7.74615],[80.08572,7.74533],[80.08561,7.74476],[80.08537,7.7442],[80.08533,7.74363],[80.0852,7.7435],[80.08382,7.74307],[80.08377,7.74298],[80.08389,7.74251],[80.08223,7.74215],[80.08208,7.74214],[80.08015,7.74276],[80.07944,7.74291],[80.07842,7.74288],[80.0774,7.74398],[80.07655,7.74409],[80.07623,7.74399],[80.07626,7.74395],[80.07657,7.74402],[80.07737,7.7439],[80.07838,7.74278],[80.07943,7.74282],[80.08012,7.74267],[80.08139,7.74222],[80.0821,7.74202],[80.0826,7.74212],[80.08273,7.74154],[80.08267,7.74148],[80.08271,7.74128],[80.08279,7.74126],[80.08281,7.74092],[80.08269,7.74078],[80.08244,7.74069],[80.08236,7.7404],[80.08206,7.74021],[80.08182,7.7402],[80.08112,7.74035],[80.08027,7.7407],[80.07996,7.74088],[80.07979,7.74108],[80.0797,7.74138],[80.07907,7.74145],[80.07875,7.74143],[80.07862,7.74139],[80.07849,7.74125],[80.07828,7.74129],[80.07783,7.74151],[80.07739,7.74147],[80.07702,7.74154],[80.07686,7.74162],[80.07666,7.74202],[80.07643,7.74235],[80.0764,7.74257],[80.07645,7.7429],[80.07657,7.74307],[80.0766,7.74321],[80.07646,7.74338],[80.07614,7.74347],[80.07562,7.74339],[80.07546,7.74343],[80.07527,7.74358],[80.07505,7.74394],[80.07466,7.74438],[80.07396,7.74481],[80.07407,7.74505],[80.07432,7.74526],[80.07467,7.74527],[80.07557,7.74481],[80.07572,7.74451],[80.07589,7.7446],[80.07585,7.74482],[80.07599,7.74503],[80.07668,7.74535],[80.07691,7.74567],[80.07717,7.74588],[80.07729,7.74609],[80.07748,7.74627],[80.07803,7.7466],[80.07809,7.74673],[80.07796,7.74706],[80.07792,7.74734],[80.07782,7.74735],[80.07762,7.74716],[80.07755,7.74701],[80.0776,7.74679],[80.07754,7.74654],[80.07726,7.74628],[80.07708,7.74596],[80.07663,7.74553],[80.07635,7.74563],[80.07619,7.74558],[80.07609,7.74547],[80.07584,7.74541],[80.07555,7.74549],[80.07535,7.74534],[80.07511,7.74538],[80.07498,7.74549],[80.07465,7.74594],[80.07446,7.74608],[80.07421,7.74601],[80.074,7.74586],[80.07389,7.7463],[80.07362,7.74623],[80.07329,7.74604],[80.07307,7.74575],[80.07195,7.74617],[80.07157,7.74621],[80.07127,7.74643],[80.07092,7.74646],[80.07056,7.74643],[80.07012,7.74617],[80.07005,7.746],[80.07007,7.74585],[80.06899,7.74576],[80.06887,7.74508],[80.06858,7.74505],[80.06816,7.74485],[80.06784,7.74453],[80.06757,7.74445],[80.06755,7.74458]]]}},{"type":"Feature","properties":{"c":"farmland","n":"Irrigable_Area_Magalle_Wewa"},"geometry":{"type":"Polygon","coordinates":[[[80.04218,7.72849],[80.04242,7.72898],[80.04315,7.72934],[80.043,7.72952],[80.04317,7.72991],[80.04349,7.73029],[80.04399,7.73068],[80.04412,7.73085],[80.04381,7.73118],[80.04424,7.73154],[80.04453,7.73167],[80.04462,7.73208],[80.04497,7.73247],[80.04581,7.73253],[80.04642,7.73356],[80.04591,7.73379],[80.04567,7.73383],[80.04544,7.73377],[80.04507,7.73383],[80.04488,7.73372],[80.04459,7.73372],[80.04444,7.73379],[80.04424,7.73397],[80.04409,7.73422],[80.0441,7.73448],[80.04436,7.73526],[80.04446,7.73544],[80.04487,7.73529],[80.0451,7.73514],[80.04529,7.7351],[80.04606,7.73528],[80.04651,7.73531],[80.04661,7.73527],[80.04694,7.73481],[80.04758,7.73473],[80.04789,7.73496],[80.04826,7.73554],[80.04889,7.73711],[80.0489,7.73717],[80.04867,7.73751],[80.04865,7.73785],[80.04852,7.73832],[80.04852,7.73872],[80.04864,7.73936],[80.04908,7.73946],[80.04939,7.73946],[80.05014,7.73928],[80.0509,7.73931],[80.05099,7.73876],[80.05108,7.73859],[80.05121,7.73847],[80.05153,7.73838],[80.05158,7.7382],[80.05173,7.73819],[80.05199,7.73843],[80.05226,7.73858],[80.05244,7.73875],[80.05263,7.73913],[80.05298,7.7394],[80.05311,7.7392],[80.05335,7.73907],[80.05399,7.7391],[80.05451,7.73924],[80.05481,7.7391],[80.05526,7.73881],[80.05533,7.73868],[80.05533,7.73844],[80.05479,7.73698],[80.05495,7.73671],[80.0551,7.73656],[80.05523,7.73623],[80.05552,7.73615],[80.05582,7.7359],[80.05654,7.73474],[80.05679,7.73465],[80.05744,7.73475],[80.05798,7.73499],[80.05828,7.73539],[80.05835,7.73611],[80.05823,7.73673],[80.05803,7.73742],[80.05748,7.73795],[80.05744,7.73806],[80.05769,7.73882],[80.05769,7.74002],[80.05779,7.7404],[80.05857,7.7425],[80.05861,7.74275],[80.05871,7.74267],[80.05888,7.74224],[80.05899,7.74213],[80.05916,7.74204],[80.05972,7.742],[80.06117,7.74223],[80.06117,7.74227],[80.05975,7.74214],[80.05947,7.74216],[80.05945,7.74221],[80.06006,7.74224],[80.06006,7.74263],[80.05973,7.74305],[80.0596,7.74312],[80.05933,7.74317],[80.05928,7.74329],[80.05928,7.74364],[80.05904,7.74372],[80.05885,7.74373],[80.05846,7.74356],[80.05838,7.74383],[80.0589,7.74397],[80.05941,7.74397],[80.05942,7.74411],[80.05933,7.74424],[80.05922,7.74425],[80.05905,7.74418],[80.05903,7.7444],[80.05893,7.74464],[80.05894,7.74469],[80.05901,7.7447],[80.05901,7.74478],[80.0589,7.74479],[80.05888,7.74491],[80.05891,7.74495],[80.05947,7.74477],[80.05951,7.7447],[80.05946,7.7445],[80.05969,7.74449],[80.05967,7.74457],[80.05974,7.7446],[80.05971,7.74474],[80.05982,7.74472],[80.05993,7.74481],[80.06036,7.74481],[80.06045,7.74463],[80.06061,7.74458],[80.06085,7.74416],[80.06106,7.74406],[80.06113,7.74393],[80.06134,7.74387],[80.06145,7.74368],[80.06143,7.74346],[80.06155,7.74348],[80.06157,7.74406],[80.06177,7.74443],[80.06153,7.74488],[80.06202,7.74514],[80.06298,7.74581],[80.06306,7.74578],[80.06295,7.74566],[80.06295,7.74545],[80.06314,7.74534],[80.0632,7.74525],[80.06326,7.74497],[80.06337,7.74479],[80.06359,7.74471],[80.06381,7.74484],[80.06396,7.74477],[80.06398,7.74445],[80.06406,7.74435],[80.06418,7.74433],[80.0644,7.74442],[80.06456,7.74428],[80.0647,7.74431],[80.06471,7.74449],[80.06464,7.74458],[80.06381,7.74502],[80.06367,7.74507],[80.06341,7.74497],[80.06331,7.745],[80.06324,7.7454],[80.0634,7.74569],[80.0634,7.74596],[80.06364,7.74608],[80.06404,7.74642],[80.06411,7.74663],[80.06411,7.74686],[80.06499,7.74776],[80.06615,7.74913],[80.06633,7.7491],[80.06647,7.74916],[80.06737,7.75006],[80.06744,7.75022],[80.06831,7.75115],[80.06856,7.75102],[80.06872,7.75127],[80.06865,7.75148],[80.06871,7.75156],[80.06893,7.75182],[80.06899,7.75161],[80.06917,7.75167],[80.06921,7.7521],[80.06946,7.75233],[80.06977,7.75275],[80.0701,7.75302],[80.07027,7.75308],[80.07055,7.75304],[80.07063,7.75299],[80.07078,7.7528],[80.07075,7.7524],[80.07067,7.75209],[80.07055,7.75197],[80.07052,7.75186],[80.0707,7.75179],[80.06951,7.74895],[80.0695,7.74883],[80.06956,7.74868],[80.06981,7.74837],[80.06896,7.7473],[80.06768,7.74599],[80.06735,7.74375],[80.06735,7.74357],[80.06742,7.74346],[80.06743,7.74333],[80.06725,7.74327],[80.067,7.7434],[80.06697,7.74324],[80.06706,7.74294],[80.06696,7.74275],[80.06697,7.74246],[80.06688,7.74224],[80.06666,7.74223],[80.06641,7.74212],[80.06613,7.74236],[80.06601,7.74237],[80.06587,7.74222],[80.06564,7.74209],[80.06513,7.74217],[80.06501,7.7421],[80.06481,7.7418],[80.06453,7.74184],[80.06425,7.74195],[80.06416,7.74189],[80.06408,7.74175],[80.06396,7.74168],[80.06379,7.74168],[80.0637,7.74142],[80.06352,7.74136],[80.06335,7.74108],[80.063,7.74092],[80.06272,7.74049],[80.06243,7.74037],[80.06234,7.74011],[80.06217,7.74],[80.06204,7.7402],[80.06176,7.74044],[80.06177,7.74054],[80.06205,7.74106],[80.062,7.74112],[80.0619,7.7411],[80.0616,7.74068],[80.06149,7.74038],[80.0615,7.74017],[80.06161,7.73993],[80.06159,7.73979],[80.06144,7.73978],[80.06114,7.73999],[80.06095,7.73995],[80.06033,7.73903],[80.05948,7.7386],[80.05936,7.73847],[80.05918,7.73806],[80.05904,7.738],[80.0589,7.738],[80.05847,7.73809],[80.05831,7.73805],[80.05823,7.73795],[80.05828,7.73789],[80.05856,7.73802],[80.05895,7.73793],[80.05942,7.73792],[80.05962,7.73778],[80.05965,7.73757],[80.05995,7.73699],[80.05997,7.73688],[80.05993,7.73666],[80.05995,7.73646],[80.05979,7.73627],[80.05973,7.73591],[80.05978,7.73543],[80.05989,7.73498],[80.05995,7.73488],[80.06023,7.73469],[80.06051,7.73401],[80.06077,7.73385],[80.06094,7.73366],[80.06094,7.73357],[80.06057,7.73312],[80.0605,7.73284],[80.06052,7.73274],[80.06091,7.73255],[80.06095,7.73248],[80.06092,7.73216],[80.06098,7.73173],[80.06093,7.73156],[80.06084,7.73146],[80.06048,7.73136],[80.06032,7.73113],[80.05993,7.73083],[80.05972,7.73083],[80.05951,7.73093],[80.05938,7.73093],[80.05917,7.73074],[80.05872,7.73064],[80.05855,7.73071],[80.05829,7.72977],[80.05808,7.72942],[80.05786,7.7294],[80.05776,7.72906],[80.05783,7.72839],[80.05775,7.72813],[80.05765,7.72803],[80.05726,7.72797],[80.05675,7.72802],[80.05636,7.72819],[80.05585,7.72856],[80.0558,7.7285],[80.05581,7.72818],[80.05589,7.72812],[80.05617,7.72811],[80.05623,7.72789],[80.05617,7.72775],[80.05583,7.72776],[80.0551,7.72767],[80.05497,7.72758],[80.05474,7.72724],[80.05464,7.72718],[80.05443,7.72674],[80.05432,7.72668],[80.05385,7.72684],[80.05361,7.72698],[80.05333,7.72738],[80.05315,7.72755],[80.0527,7.72775],[80.05149,7.72811],[80.05116,7.72819],[80.05097,7.72817],[80.05086,7.7281],[80.05086,7.728],[80.05056,7.72791],[80.05049,7.72779],[80.05022,7.72758],[80.05025,7.72742],[80.05017,7.7273],[80.05002,7.72745],[80.04938,7.7271],[80.04889,7.72689],[80.04849,7.72679],[80.04804,7.72686],[80.04784,7.72703],[80.04779,7.72731],[80.04848,7.72754],[80.04792,7.72827],[80.04795,7.72839],[80.04819,7.72853],[80.04897,7.72852],[80.04894,7.72892],[80.04952,7.72892],[80.05009,7.72922],[80.05029,7.72936],[80.05042,7.72959],[80.05058,7.73011],[80.05053,7.73048],[80.05014,7.73047],[80.04981,7.73059],[80.04928,7.73136],[80.04881,7.73158],[80.04782,7.73068],[80.04756,7.73034],[80.0472,7.73039],[80.04701,7.72997],[80.04683,7.72974],[80.04698,7.72959],[80.04729,7.7295],[80.04743,7.72923],[80.04736,7.72896],[80.04626,7.72917],[80.04606,7.72882],[80.04644,7.7285],[80.04673,7.72833],[80.04655,7.72813],[80.04632,7.72814],[80.04619,7.72798],[80.0456,7.72824],[80.04536,7.72826],[80.04512,7.72811],[80.04496,7.72789],[80.04424,7.72748],[80.04383,7.72717],[80.04374,7.72773],[80.04347,7.72763],[80.04301,7.72785],[80.04284,7.72749],[80.04254,7.72752],[80.04246,7.72803],[80.04218,7.72849]]]}},{"type":"Feature","properties":{"c":"farmland","n":"Irrigable_Area_Nammuwawa_Wewa"},"geometry":{"type":"Polygon","coordinates":[[[80.02949,7.72509],[80.02964,7.72517],[80.02983,7.72515],[80.02985,7.72524],[80.03008,7.72529],[80.03026,7.72557],[80.03027,7.72581],[80.03018,7.72633],[80.03008,7.72662],[80.02993,7.72686],[80.03018,7.72692],[80.03013,7.72722],[80.03023,7.72738],[80.03045,7.72756],[80.03071,7.72744],[80.03084,7.72724],[80.03104,7.72721],[80.03115,7.7269],[80.0312,7.7265],[80.03118,7.72554],[80.03194,7.72529],[80.03229,7.72529],[80.03222,7.72497],[80.03233,7.72473],[80.03247,7.72465],[80.03265,7.72465],[80.03281,7.72473],[80.03292,7.7249],[80.03309,7.72498],[80.03356,7.72485],[80.03413,7.72491],[80.03437,7.725],[80.03461,7.72494],[80.03455,7.72473],[80.03412,7.72452],[80.03394,7.72434],[80.03386,7.7242],[80.0341,7.72416],[80.03442,7.72432],[80.03492,7.72447],[80.03498,7.72438],[80.03496,7.72425],[80.03438,7.72372],[80.03354,7.72355],[80.03332,7.72358],[80.03279,7.72345],[80.03247,7.72315],[80.03219,7.72307],[80.03197,7.72309],[80.03184,7.72318],[80.03155,7.7231],[80.03136,7.72316],[80.03102,7.72336],[80.03088,7.72338],[80.03031,7.72328],[80.03008,7.72329],[80.02995,7.72354],[80.02949,7.72509]]]}},{"type":"Feature","properties":{"c":"farmland"},"geometry":{"type":"Polygon","coordinates":[[[80.01749,7.82662],[80.01758,7.82715],[80.01826,7.82754],[80.0186,7.82763],[80.01881,7.82786],[80.01924,7.82813],[80.01847,7.82901],[80.01819,7.82946],[80.01854,7.82963],[80.0191,7.83011],[80.0198,7.83045],[80.01986,7.83018],[80.02063,7.82918],[80.02102,7.82871],[80.0213,7.82853],[80.02182,7.82891],[80.02188,7.82921],[80.02169,7.82958],[80.02164,7.82997],[80.0217,7.83028],[80.02236,7.83082],[80.02263,7.83094],[80.02285,7.83053],[80.02389,7.82908],[80.02373,7.82875],[80.02372,7.82856],[80.02354,7.82845],[80.02337,7.82847],[80.02307,7.82822],[80.02289,7.82774],[80.02273,7.82765],[80.02244,7.82764],[80.02194,7.8277],[80.02157,7.82761],[80.02188,7.82754],[80.02219,7.82714],[80.02225,7.82687],[80.0221,7.82635],[80.0227,7.82655],[80.02311,7.82588],[80.02389,7.8248],[80.02344,7.8247],[80.02282,7.82447],[80.02273,7.82437],[80.02276,7.8241],[80.02305,7.82338],[80.0233,7.8231],[80.02361,7.8229],[80.02386,7.82287],[80.02404,7.82296],[80.02413,7.82294],[80.02435,7.82259],[80.02463,7.82205],[80.0244,7.82144],[80.02454,7.82084],[80.0228,7.82059],[80.02216,7.82038],[80.02155,7.82033],[80.02128,7.82074],[80.02093,7.82112],[80.02094,7.82148],[80.02082,7.82185],[80.02187,7.82203],[80.02176,7.82241],[80.02149,7.82258],[80.02135,7.82283],[80.02089,7.82388],[80.02103,7.82426],[80.02084,7.825],[80.0208,7.82534],[80.02095,7.82567],[80.02113,7.82582],[80.02127,7.82639],[80.02102,7.8267],[80.02082,7.82667],[80.02047,7.82681],[80.02018,7.82683],[80.02004,7.82669],[80.01991,7.82637],[80.01952,7.82617],[80.01923,7.82615],[80.0189,7.82633],[80.01827,7.82636],[80.01779,7.82646],[80.01761,7.8265],[80.01749,7.82662]]]}},{"type":"Feature","properties":{"c":"forest"},"geometry":{"type":"Polygon","coordinates":[[[80.04321,7.81157],[80.04326,7.81173],[80.0435,7.81181],[80.04398,7.81163],[80.04432,7.81156],[80.04428,7.81151],[80.04391,7.8115],[80.04376,7.81138],[80.04321,7.81157]]]}},{"type":"Feature","properties":{"c":"forest"},"geometry":{"type":"Polygon","coordinates":[[[80.04328,7.81029],[80.04337,7.81038],[80.04351,7.8104],[80.04382,7.81036],[80.04389,7.81031],[80.04384,7.81024],[80.04363,7.81024],[80.04346,7.81019],[80.0433,7.81021],[80.04328,7.81029]]]}},{"type":"Feature","properties":{"c":"forest"},"geometry":{"type":"Polygon","coordinates":[[[80.01605,7.71762],[80.01857,7.71967],[80.01873,7.71959],[80.01893,7.71961],[80.01906,7.71973],[80.01898,7.71996],[80.0194,7.7204],[80.01995,7.71959],[80.02004,7.71893],[80.02054,7.71812],[80.02076,7.71574],[80.01891,7.7155],[80.01715,7.71519],[80.01605,7.71762]]]}},{"type":"Feature","properties":{"c":"orchard"},"geometry":{"type":"Polygon","coordinates":[[[79.97765,7.69509],[79.97804,7.69554],[79.97813,7.69587],[79.97806,7.69625],[79.97895,7.69652],[79.97943,7.69708],[79.97976,7.69739],[79.98041,7.69767],[79.98115,7.69904],[79.98163,7.69945],[79.98219,7.69906],[79.98178,7.69855],[79.98051,7.6963],[79.98178,7.69593],[79.9815,7.69568],[79.98118,7.69582],[79.98065,7.69498],[79.98101,7.69479],[79.98073,7.69447],[79.98032,7.69462],[79.97995,7.69419],[79.97963,7.69364],[79.97934,7.69332],[79.97891,7.69305],[79.97829,7.69341],[79.97811,7.69432],[79.97765,7.69509]]]}},{"type":"Feature","properties":{"c":"farmland"},"geometry":{"type":"Polygon","coordinates":[[[79.98155,7.69713],[79.98179,7.69752],[79.98194,7.69746],[79.98212,7.69778],[79.98222,7.69773],[79.98228,7.69787],[79.98266,7.69767],[79.98212,7.6967],[79.98155,7.69713]]]}},{"type":"Feature","properties":{"c":"farmland"},"geometry":{"type":"Polygon","coordinates":[[[79.98169,7.69955],[79.98212,7.7002],[79.98249,7.70056],[79.9829,7.70113],[79.98283,7.70151],[79.98354,7.70192],[79.98418,7.70161],[79.98368,7.70082],[79.98355,7.70083],[79.98298,7.69987],[79.98272,7.70003],[79.98217,7.69921],[79.98169,7.69955]]]}},{"type":"Feature","properties":{"c":"farmland"},"geometry":{"type":"Polygon","coordinates":[[[79.96958,7.69096],[79.96975,7.69102],[79.96969,7.69124],[79.96981,7.69124],[79.97,7.69147],[79.97031,7.69163],[79.97057,7.69161],[79.97077,7.69112],[79.97043,7.69071],[79.97017,7.69057],[79.97027,7.69033],[79.97009,7.69024],[79.96958,7.69096]]]}},{"type":"Feature","properties":{"c":"farmland"},"geometry":{"type":"Polygon","coordinates":[[[79.96549,7.69312],[79.96613,7.69311],[79.96609,7.69308],[79.96648,7.69336],[79.96697,7.69323],[79.96755,7.69238],[79.96799,7.69195],[79.96834,7.69185],[79.96763,7.69156],[79.96704,7.69156],[79.96635,7.69121],[79.96628,7.69192],[79.96594,7.69259],[79.9657,7.69259],[79.96549,7.69312]]]}},{"type":"Feature","properties":{"c":"farmland"},"geometry":{"type":"Polygon","coordinates":[[[79.97085,7.69206],[79.97127,7.69238],[79.97126,7.69272],[79.97189,7.69316],[79.97226,7.69322],[79.97263,7.69343],[79.97287,7.69366],[79.97414,7.6937],[79.97504,7.69394],[79.97595,7.69057],[79.97465,7.69076],[79.97409,7.69076],[79.97358,7.69063],[79.97249,7.69073],[79.9714,7.691],[79.97143,7.69141],[79.97085,7.69206]]]}}]}