{"type":"FeatureCollection","features":[{"type":"Feature","properties":{"c":"forest"},"geometry":{"type":"Polygon","coordinates":[[[80.30602,7.62542],[80.30653,7.62565],[80.30664,7.62635],[80.30716,7.6264],[80.30701,7.62734],[80.30683,7.62782],[80.30685,7.62839],[80.30664,7.62947],[80.30647,7.62971],[80.30621,7.63053],[80.30669,7.63056],[80.307,7.63048],[80.30857,7.62956],[80.30913,7.62908],[80.31045,7.6283],[80.31034,7.62739],[80.31046,7.62738],[80.31052,7.62763],[80.31102,7.62753],[80.31126,7.62763],[80.31118,7.62782],[80.31134,7.62792],[80.31142,7.62781],[80.31153,7.62788],[80.31177,7.62786],[80.31206,7.62772],[80.31208,7.6276],[80.31184,7.62763],[80.31148,7.62731],[80.31062,7.62726],[80.31003,7.62739],[80.30975,7.62724],[80.30968,7.62713],[80.30988,7.62668],[80.31021,7.62565],[80.31017,7.62524],[80.30996,7.62495],[80.31052,7.62436],[80.31134,7.6248],[80.31114,7.62526],[80.31137,7.62543],[80.31139,7.62567],[80.3116,7.62578],[80.31191,7.62541],[80.31203,7.62569],[80.31221,7.62579],[80.31206,7.62609],[80.31174,7.62594],[80.3116,7.62608],[80.31168,7.62637],[80.31181,7.62658],[80.31178,7.62686],[80.31207,7.62743],[80.3123,7.62729],[80.31215,7.62691],[80.31244,7.62641],[80.31249,7.62644],[80.31223,7.62693],[80.31236,7.62721],[80.31282,7.62723],[80.3128,7.62758],[80.31234,7.62738],[80.31219,7.62751],[80.31272,7.62797],[80.31294,7.62803],[80.31298,7.62827],[80.31339,7.62862],[80.31392,7.62883],[80.3142,7.62831],[80.31408,7.62819],[80.3143,7.62774],[80.31427,7.62743],[80.31463,7.62726],[80.31475,7.62682],[80.31557,7.62698],[80.31559,7.62716],[80.3163,7.62771],[80.31642,7.62743],[80.31628,7.62704],[80.31649,7.62697],[80.31672,7.62736],[80.31711,7.62763],[80.31756,7.6278],[80.31762,7.62761],[80.31681,7.62701],[80.31692,7.62682],[80.31728,7.62704],[80.31763,7.62713],[80.31799,7.62702],[80.31777,7.6268],[80.31796,7.62658],[80.31831,7.62685],[80.31827,7.62701],[80.3185,7.6271],[80.31862,7.62684],[80.31851,7.62668],[80.31883,7.62577],[80.31935,7.62565],[80.31954,7.62582],[80.31954,7.62609],[80.32011,7.62629],[80.32028,7.62605],[80.31961,7.62538],[80.31977,7.62503],[80.32009,7.62466],[80.31999,7.6236],[80.32172,7.62105],[80.32371,7.61945],[80.3255,7.61767],[80.32788,7.61517],[80.32767,7.61363],[80.32686,7.61234],[80.32506,7.61246],[80.32339,7.61294],[80.32129,7.61462],[80.31899,7.61736],[80.31713,7.61886],[80.31665,7.61787],[80.31668,7.61647],[80.31757,7.61203],[80.31765,7.60883],[80.3158,7.6074],[80.31565,7.60398],[80.31498,7.60038],[80.31463,7.5976],[80.31536,7.59737],[80.31782,7.59792],[80.31982,7.59669],[80.32197,7.59482],[80.32569,7.58928],[80.32769,7.58755],[80.32965,7.58536],[80.32985,7.58231],[80.3311,7.58249],[80.3308,7.5816],[80.33126,7.58093],[80.33185,7.58088],[80.33208,7.57995],[80.33441,7.57768],[80.33537,7.57638],[80.33862,7.57415],[80.34017,7.57255],[80.34115,7.57116],[80.34174,7.57076],[80.34246,7.57008],[80.34252,7.56912],[80.34405,7.56786],[80.34458,7.56644],[80.34581,7.56567],[80.34674,7.5652],[80.34754,7.56401],[80.34889,7.56352],[80.34947,7.56222],[80.35064,7.56173],[80.35116,7.56015],[80.35185,7.55842],[80.354,7.55732],[80.35606,7.55553],[80.35663,7.55416],[80.35568,7.55347],[80.35601,7.55297],[80.3562,7.55242],[80.35652,7.55178],[80.35684,7.55185],[80.3567,7.55267],[80.35723,7.55295],[80.35783,7.55157],[80.35846,7.55088],[80.35979,7.55109],[80.36029,7.55054],[80.36068,7.55084],[80.36247,7.54921],[80.36366,7.54843],[80.36322,7.5473],[80.36218,7.54639],[80.36403,7.54569],[80.36472,7.54454],[80.36529,7.54325],[80.36631,7.54228],[80.3665,7.54121],[80.36566,7.53978],[80.36589,7.53824],[80.36582,7.53776],[80.36622,7.53725],[80.36748,7.5366],[80.36936,7.5362],[80.3705,7.5341],[80.37046,7.53367],[80.37096,7.53219],[80.371,7.5315],[80.37123,7.53066],[80.37196,7.52984],[80.3714,7.52866],[80.37054,7.52771],[80.37017,7.52655],[80.37073,7.52512],[80.37113,7.52436],[80.37148,7.52267],[80.37159,7.52084],[80.37201,7.51852],[80.3725,7.5164],[80.37449,7.51301],[80.37524,7.50881],[80.37563,7.50766],[80.37533,7.50668],[80.37383,7.50668],[80.3732,7.50713],[80.37284,7.50677],[80.37261,7.50677],[80.37268,7.50764],[80.37223,7.50872],[80.37031,7.50896],[80.36671,7.51103],[80.36623,7.51433],[80.36358,7.51758],[80.36337,7.51847],[80.3635,7.51901],[80.36272,7.5191],[80.3626,7.51932],[80.36232,7.51932],[80.36203,7.52048],[80.36187,7.52071],[80.36185,7.52091],[80.36237,7.52116],[80.36293,7.5213],[80.36332,7.52177],[80.3636,7.5218],[80.36352,7.52235],[80.36312,7.52286],[80.36298,7.52285],[80.36276,7.52303],[80.36252,7.52288],[80.36217,7.52295],[80.36229,7.52308],[80.36282,7.5234],[80.3627,7.52376],[80.36243,7.52381],[80.36221,7.52357],[80.36206,7.52353],[80.36209,7.52393],[80.36232,7.52426],[80.36305,7.52476],[80.36253,7.52529],[80.3623,7.52507],[80.362,7.52526],[80.36222,7.5256],[80.36177,7.52589],[80.36161,7.52638],[80.36123,7.5264],[80.36097,7.52697],[80.36126,7.52704],[80.36116,7.52734],[80.36085,7.52728],[80.3607,7.5277],[80.36018,7.52863],[80.35997,7.52886],[80.35999,7.52897],[80.36012,7.52912],[80.36015,7.52928],[80.36006,7.52956],[80.3608,7.52966],[80.36069,7.53026],[80.36045,7.53028],[80.36043,7.53036],[80.36052,7.53057],[80.36079,7.53056],[80.36084,7.53075],[80.36068,7.53081],[80.36061,7.53101],[80.36036,7.53098],[80.36039,7.53078],[80.36021,7.53075],[80.36016,7.53093],[80.35991,7.53085],[80.36011,7.53127],[80.36011,7.53143],[80.35998,7.53155],[80.35995,7.53178],[80.36,7.53198],[80.35964,7.53314],[80.35953,7.53328],[80.35948,7.53355],[80.3592,7.53356],[80.35891,7.53399],[80.35884,7.53397],[80.35917,7.53343],[80.3588,7.53345],[80.3587,7.5333],[80.35837,7.53312],[80.35808,7.53357],[80.35873,7.53386],[80.35859,7.53412],[80.35816,7.53419],[80.3577,7.53401],[80.35752,7.53421],[80.35737,7.53426],[80.3574,7.53448],[80.35771,7.53466],[80.35765,7.53496],[80.35719,7.53486],[80.35719,7.53464],[80.35691,7.53457],[80.3568,7.53465],[80.35619,7.5345],[80.35618,7.53435],[80.35579,7.53427],[80.35576,7.53411],[80.35518,7.53418],[80.35432,7.5342],[80.35418,7.53426],[80.3542,7.53434],[80.35405,7.53442],[80.35398,7.53434],[80.35354,7.5346],[80.35347,7.53469],[80.35355,7.53483],[80.35341,7.53505],[80.35317,7.53501],[80.35282,7.53484],[80.35263,7.53485],[80.3526,7.53495],[80.3525,7.53495],[80.35247,7.53503],[80.3526,7.53511],[80.35254,7.53521],[80.35244,7.53515],[80.35235,7.53501],[80.35235,7.53471],[80.35194,7.53466],[80.35185,7.53492],[80.35176,7.535],[80.352,7.5353],[80.35199,7.53592],[80.35225,7.53598],[80.35745,7.53624],[80.35771,7.53893],[80.35714,7.54139],[80.35653,7.54249],[80.35552,7.54471],[80.35348,7.54873],[80.35136,7.55244],[80.34614,7.55895],[80.34402,7.55916],[80.34309,7.5607],[80.34171,7.56195],[80.34093,7.56213],[80.33842,7.56356],[80.33699,7.56529],[80.33457,7.56715],[80.33318,7.56835],[80.3322,7.56896],[80.33138,7.57029],[80.33158,7.57036],[80.33119,7.57103],[80.33123,7.57136],[80.331,7.57176],[80.33068,7.57193],[80.33002,7.57164],[80.32798,7.57343],[80.32687,7.57455],[80.32367,7.57698],[80.32294,7.57745],[80.32236,7.57769],[80.32049,7.5779],[80.31868,7.57854],[80.31822,7.57897],[80.31793,7.57943],[80.31746,7.57988],[80.31704,7.58015],[80.316,7.581],[80.31484,7.58329],[80.31227,7.58765],[80.30985,7.59206],[80.30893,7.59459],[80.30798,7.59697],[80.30775,7.5996],[80.30714,7.60354],[80.30704,7.60767],[80.30724,7.61055],[80.30845,7.61285],[80.30912,7.61671],[80.30948,7.61955],[80.30812,7.61975],[80.30822,7.62038],[80.30908,7.62055],[80.30939,7.62145],[80.30946,7.62219],[80.30835,7.622],[80.30806,7.62332],[80.30736,7.62408],[80.30743,7.62473],[80.30725,7.62535],[80.30625,7.62494],[80.30602,7.62542]]]}},{"type":"Feature","properties":{"c":"farmland"},"geometry":{"type":"Polygon","coordinates":[[[80.37028,7.47472],[80.37044,7.4751],[80.37104,7.4758],[80.37131,7.47595],[80.37202,7.47582],[80.37302,7.47549],[80.37314,7.47548],[80.37341,7.4756],[80.37405,7.47567],[80.37418,7.47578],[80.37425,7.47603],[80.37439,7.47621],[80.37567,7.47629],[80.376,7.47621],[80.37608,7.47612],[80.37536,7.47477],[80.37475,7.47395],[80.37468,7.47393],[80.37409,7.47427],[80.37379,7.47431],[80.37332,7.47428],[80.37328,7.47435],[80.37328,7.4745],[80.37316,7.47453],[80.37303,7.47443],[80.37296,7.47422],[80.37286,7.47419],[80.37207,7.4743],[80.37193,7.47438],[80.37183,7.4745],[80.37175,7.47474],[80.37105,7.4746],[80.37096,7.47464],[80.37085,7.47479],[80.37071,7.47489],[80.37041,7.4747],[80.37028,7.47472]]]}},{"type":"Feature","properties":{"c":"farmland"},"geometry":{"type":"Polygon","coordinates":[[[80.36564,7.47542],[80.36592,7.47593],[80.36612,7.47601],[80.36617,7.47615],[80.36623,7.4762],[80.36637,7.47614],[80.36692,7.4761],[80.36711,7.47622],[80.36737,7.4766],[80.36762,7.47683],[80.36868,7.47685],[80.36954,7.47655],[80.36969,7.47627],[80.36999,7.47617],[80.37035,7.47595],[80.37055,7.47604],[80.37072,7.47598],[80.37072,7.47591],[80.37025,7.47531],[80.3701,7.47524],[80.36988,7.47438],[80.36983,7.47434],[80.36966,7.4744],[80.36939,7.47439],[80.36927,7.47432],[80.36909,7.47432],[80.36861,7.47471],[80.36842,7.47468],[80.36841,7.47472],[80.36816,7.47474],[80.36816,7.47463],[80.36801,7.47459],[80.36784,7.47443],[80.36773,7.47439],[80.36728,7.47437],[80.36697,7.47442],[80.36678,7.4745],[80.36646,7.47449],[80.36638,7.47471],[80.36622,7.47479],[80.36579,7.47485],[80.36565,7.47495],[80.36564,7.47542]]]}},{"type":"Feature","properties":{"c":"farmland"},"geometry":{"type":"Polygon","coordinates":[[[80.37889,7.49115],[80.37891,7.49141],[80.37942,7.49372],[80.37944,7.49449],[80.37999,7.4946],[80.38038,7.49442],[80.38105,7.49431],[80.38125,7.49394],[80.38135,7.49391],[80.38159,7.494],[80.38173,7.49379],[80.38211,7.49359],[80.38249,7.49358],[80.38268,7.49364],[80.38299,7.49408],[80.38327,7.4948],[80.38327,7.4949],[80.38314,7.49501],[80.38319,7.4952],[80.38305,7.49563],[80.38305,7.49624],[80.38296,7.49642],[80.38287,7.49676],[80.38291,7.4969],[80.38311,7.49696],[80.38327,7.49715],[80.3834,7.49749],[80.38373,7.49766],[80.38381,7.49766],[80.38388,7.49757],[80.38386,7.49737],[80.38396,7.49723],[80.38411,7.49713],[80.38414,7.49699],[80.38393,7.49642],[80.38393,7.49627],[80.38421,7.49613],[80.38447,7.4961],[80.3848,7.49613],[80.38521,7.49627],[80.38536,7.49558],[80.38524,7.49512],[80.38532,7.49478],[80.38517,7.4946],[80.38498,7.49467],[80.38491,7.49463],[80.38473,7.49401],[80.38484,7.49357],[80.38503,7.49329],[80.38515,7.4933],[80.38525,7.49322],[80.38573,7.49254],[80.38612,7.49237],[80.38631,7.49237],[80.38653,7.49201],[80.38665,7.49191],[80.38727,7.49167],[80.38741,7.49157],[80.38776,7.49176],[80.38794,7.49153],[80.388,7.49154],[80.38875,7.49213],[80.38894,7.49215],[80.38899,7.49213],[80.3891,7.49162],[80.38894,7.49137],[80.38905,7.49118],[80.3893,7.49118],[80.38966,7.49067],[80.38976,7.49068],[80.38988,7.49094],[80.39033,7.49104],[80.3904,7.49105],[80.39092,7.49078],[80.39094,7.49056],[80.39089,7.49052],[80.39036,7.49051],[80.39033,7.49047],[80.39034,7.48982],[80.39021,7.48967],[80.38985,7.48967],[80.38975,7.48994],[80.38962,7.48992],[80.38942,7.48959],[80.3894,7.48952],[80.38982,7.48837],[80.3898,7.48805],[80.38954,7.48793],[80.38952,7.48761],[80.38946,7.48759],[80.389,7.48792],[80.38863,7.48887],[80.38862,7.4894],[80.38807,7.49031],[80.38755,7.49077],[80.38684,7.491],[80.38612,7.49141],[80.38602,7.49138],[80.38576,7.49087],[80.38511,7.49085],[80.385,7.49077],[80.38495,7.49051],[80.38453,7.49043],[80.38474,7.48978],[80.38526,7.48981],[80.38543,7.48965],[80.38569,7.48926],[80.38573,7.48883],[80.3856,7.48862],[80.38578,7.48812],[80.38624,7.48756],[80.38662,7.48763],[80.38681,7.4874],[80.38686,7.48627],[80.38705,7.48566],[80.38745,7.48507],[80.38785,7.48476],[80.3879,7.48463],[80.38799,7.48458],[80.38812,7.48304],[80.38787,7.48292],[80.3873,7.48244],[80.38679,7.48219],[80.38638,7.48208],[80.38606,7.48194],[80.38566,7.4819],[80.38566,7.48241],[80.38571,7.48246],[80.38585,7.48248],[80.38614,7.48245],[80.38622,7.48252],[80.38623,7.48264],[80.38616,7.48271],[80.38562,7.48266],[80.38556,7.48272],[80.38557,7.48284],[80.38545,7.48298],[80.38539,7.48298],[80.38536,7.48279],[80.38506,7.48269],[80.385,7.48248],[80.38492,7.48241],[80.38444,7.48228],[80.38437,7.48242],[80.38426,7.48241],[80.3841,7.48228],[80.38381,7.48223],[80.38374,7.4823],[80.38382,7.48264],[80.38381,7.48284],[80.38404,7.48303],[80.38407,7.48317],[80.38397,7.48324],[80.38396,7.48361],[80.38386,7.48389],[80.38362,7.48402],[80.38336,7.48394],[80.38319,7.48373],[80.38293,7.48325],[80.38292,7.48288],[80.38346,7.48261],[80.38351,7.48246],[80.3833,7.48242],[80.38321,7.48236],[80.38319,7.4821],[80.38327,7.48198],[80.38343,7.48187],[80.38345,7.48175],[80.38334,7.4816],[80.3831,7.48147],[80.383,7.48113],[80.38292,7.48103],[80.38228,7.48101],[80.38216,7.48108],[80.38215,7.48132],[80.38222,7.48153],[80.38228,7.48158],[80.38249,7.48159],[80.38252,7.48167],[80.38237,7.48188],[80.38223,7.48233],[80.38223,7.48249],[80.38213,7.4826],[80.38181,7.48258],[80.38124,7.48248],[80.38079,7.48219],[80.3805,7.48191],[80.38036,7.48148],[80.38035,7.48101],[80.3803,7.48085],[80.38023,7.48073],[80.37987,7.48074],[80.37984,7.48049],[80.37969,7.48052],[80.37968,7.48103],[80.37938,7.48286],[80.37947,7.48296],[80.37992,7.48305],[80.38006,7.48313],[80.3801,7.48321],[80.37997,7.48357],[80.37977,7.48379],[80.37966,7.48411],[80.3797,7.48434],[80.37967,7.48446],[80.37929,7.4855],[80.37935,7.48595],[80.37963,7.48607],[80.37972,7.48626],[80.37959,7.48643],[80.37946,7.48645],[80.37938,7.48638],[80.3794,7.48703],[80.37945,7.4871],[80.37977,7.48702],[80.37979,7.48673],[80.37987,7.48664],[80.3801,7.48657],[80.38029,7.4868],[80.38047,7.4868],[80.38046,7.48673],[80.38034,7.48662],[80.38034,7.48653],[80.38047,7.48642],[80.38086,7.48662],[80.38089,7.48668],[80.38086,7.48691],[80.38096,7.48707],[80.3811,7.48717],[80.38145,7.48727],[80.38184,7.48712],[80.38193,7.48732],[80.38197,7.48793],[80.38175,7.48865],[80.38161,7.48873],[80.38131,7.48907],[80.38133,7.48922],[80.38116,7.4895],[80.38112,7.48971],[80.38115,7.48986],[80.3811,7.48991],[80.38057,7.49004],[80.38041,7.49017],[80.38029,7.49017],[80.38018,7.49004],[80.3801,7.49005],[80.38003,7.4901],[80.37999,7.49022],[80.37993,7.49062],[80.3796,7.49074],[80.37955,7.49108],[80.37933,7.49107],[80.37889,7.49115]]]}},{"type":"Feature","properties":{"c":"farmland"},"geometry":{"type":"Polygon","coordinates":[[[80.37719,7.51683],[80.37754,7.51693],[80.37774,7.5169],[80.37808,7.51698],[80.37821,7.51723],[80.37809,7.51771],[80.37797,7.51858],[80.37823,7.51929],[80.37802,7.51955],[80.37872,7.51984],[80.37866,7.52016],[80.37883,7.52041],[80.3792,7.52028],[80.37969,7.51991],[80.37954,7.51861],[80.3797,7.51824],[80.38011,7.51751],[80.38055,7.51715],[80.38094,7.51691],[80.38154,7.51671],[80.382,7.51677],[80.38247,7.51709],[80.3829,7.51786],[80.38313,7.51815],[80.38336,7.51816],[80.38372,7.5174],[80.38371,7.51708],[80.38351,7.51653],[80.38314,7.51638],[80.383,7.51616],[80.38291,7.51573],[80.38337,7.51548],[80.38362,7.51449],[80.38394,7.51382],[80.38392,7.51358],[80.38379,7.51342],[80.38293,7.51295],[80.3823,7.51254],[80.38241,7.51175],[80.38252,7.51146],[80.38284,7.51111],[80.38303,7.51083],[80.38323,7.5107],[80.38402,7.50895],[80.38437,7.50749],[80.38445,7.50664],[80.38421,7.50648],[80.38421,7.50626],[80.38483,7.50629],[80.38495,7.50562],[80.38529,7.50523],[80.3854,7.50498],[80.38577,7.50481],[80.38622,7.50435],[80.38636,7.50388],[80.38624,7.50353],[80.38607,7.50341],[80.38583,7.5034],[80.38569,7.50321],[80.38545,7.50226],[80.38516,7.50168],[80.38521,7.50153],[80.38519,7.50128],[80.38446,7.50043],[80.38432,7.5004],[80.38414,7.50044],[80.38357,7.49996],[80.38344,7.50001],[80.38343,7.50018],[80.38364,7.50062],[80.3841,7.50131],[80.38416,7.5017],[80.38408,7.50179],[80.38392,7.50184],[80.38362,7.5018],[80.38326,7.5017],[80.383,7.50179],[80.38289,7.50195],[80.38289,7.50204],[80.38319,7.50234],[80.38357,7.50253],[80.38391,7.50309],[80.38396,7.50323],[80.38389,7.50333],[80.38374,7.50338],[80.38361,7.50353],[80.38358,7.50371],[80.38333,7.50367],[80.38325,7.50348],[80.38315,7.50342],[80.38289,7.50351],[80.38277,7.50362],[80.38242,7.50371],[80.38228,7.50368],[80.38212,7.50329],[80.38224,7.50309],[80.38253,7.50299],[80.3825,7.5028],[80.38276,7.50269],[80.38278,7.50259],[80.38277,7.50243],[80.38249,7.50195],[80.38243,7.50171],[80.38236,7.50164],[80.38211,7.50173],[80.38202,7.5017],[80.38177,7.50147],[80.3816,7.50145],[80.38087,7.5017],[80.38073,7.50171],[80.38021,7.50145],[80.38003,7.50146],[80.37992,7.50159],[80.37985,7.50159],[80.37951,7.50136],[80.37948,7.50117],[80.37932,7.50098],[80.37935,7.5009],[80.37927,7.50073],[80.3789,7.50047],[80.37874,7.50046],[80.37871,7.50062],[80.37875,7.50094],[80.37895,7.5017],[80.37946,7.50269],[80.37998,7.50255],[80.38018,7.50257],[80.38041,7.5027],[80.38058,7.50269],[80.38059,7.5031],[80.38052,7.50339],[80.38088,7.50344],[80.38098,7.50357],[80.38091,7.50369],[80.3807,7.5039],[80.38062,7.50429],[80.38046,7.5043],[80.38027,7.5044],[80.3801,7.50442],[80.38017,7.50473],[80.38037,7.5047],[80.38042,7.5046],[80.38051,7.50454],[80.38115,7.50493],[80.38164,7.50531],[80.38176,7.50555],[80.38207,7.50592],[80.38257,7.50752],[80.38253,7.5079],[80.38232,7.50818],[80.38218,7.50849],[80.38204,7.50919],[80.38154,7.50983],[80.381,7.50998],[80.38085,7.51015],[80.38086,7.5109],[80.38073,7.51166],[80.38057,7.51243],[80.38032,7.51334],[80.38049,7.51397],[80.38041,7.51437],[80.38028,7.51436],[80.3802,7.51429],[80.38006,7.51429],[80.37997,7.51447],[80.37991,7.51477],[80.37977,7.51503],[80.37949,7.51519],[80.37922,7.51515],[80.37906,7.51479],[80.37902,7.51442],[80.37916,7.51409],[80.37915,7.51359],[80.37889,7.51365],[80.37849,7.51387],[80.3782,7.51419],[80.37818,7.51443],[80.3784,7.51481],[80.37845,7.5152],[80.37873,7.51583],[80.37885,7.51651],[80.37878,7.51673],[80.37861,7.51676],[80.37843,7.51666],[80.37846,7.51642],[80.3784,7.51634],[80.3781,7.51629],[80.37743,7.51594],[80.37719,7.51683]]]}},{"type":"Feature","properties":{"c":"farmland"},"geometry":{"type":"Polygon","coordinates":[[[80.3754,7.504],[80.37554,7.50415],[80.37633,7.5045],[80.37687,7.50487],[80.37714,7.50483],[80.37731,7.50475],[80.37736,7.50458],[80.37734,7.50418],[80.37739,7.50408],[80.37759,7.50399],[80.3778,7.5038],[80.3781,7.50347],[80.37821,7.50327],[80.37824,7.50278],[80.37875,7.50275],[80.37882,7.50274],[80.37884,7.50268],[80.37859,7.50196],[80.37832,7.50091],[80.37824,7.50026],[80.37795,7.50014],[80.37783,7.50016],[80.37766,7.50025],[80.37759,7.50038],[80.37747,7.50046],[80.37708,7.50044],[80.37697,7.50053],[80.37675,7.50047],[80.37615,7.49962],[80.37595,7.49957],[80.37582,7.49974],[80.37593,7.50001],[80.37611,7.50026],[80.37615,7.50049],[80.37592,7.50066],[80.3758,7.50084],[80.37586,7.501],[80.37613,7.50128],[80.37649,7.50135],[80.37679,7.50156],[80.37683,7.50183],[80.37677,7.50214],[80.37639,7.50291],[80.37615,7.50354],[80.3761,7.50361],[80.37576,7.5037],[80.37554,7.50383],[80.3754,7.504]]]}},{"type":"Feature","properties":{"c":"farmland"},"geometry":{"type":"Polygon","coordinates":[[[80.37997,7.49676],[80.3801,7.49717],[80.38044,7.49737],[80.3809,7.49742],[80.38119,7.49756],[80.3813,7.49784],[80.38132,7.49807],[80.38192,7.49841],[80.38196,7.49861],[80.38212,7.49886],[80.38225,7.49892],[80.38263,7.49883],[80.38276,7.49892],[80.3831,7.4995],[80.38315,7.49977],[80.3833,7.49993],[80.38341,7.49986],[80.3835,7.49967],[80.38342,7.49903],[80.38345,7.49821],[80.38327,7.49803],[80.38311,7.49793],[80.38217,7.49773],[80.38159,7.49725],[80.38119,7.49731],[80.38102,7.49723],[80.38094,7.49679],[80.38075,7.49658],[80.38042,7.49662],[80.38015,7.4966],[80.37997,7.49676]]]}},{"type":"Feature","properties":{"c":"forest"},"geometry":{"type":"Polygon","coordinates":[[[80.37202,7.49803],[80.37209,7.49914],[80.37244,7.50136],[80.3726,7.50353],[80.37261,7.50677],[80.37284,7.50677],[80.37266,7.50602],[80.37262,7.50557],[80.3727,7.50514],[80.37274,7.50397],[80.37257,7.50076],[80.37234,7.49937],[80.37212,7.49858],[80.37215,7.49812],[80.37301,7.49643],[80.37344,7.49618],[80.37435,7.49618],[80.37425,7.49673],[80.37355,7.49735],[80.37394,7.49744],[80.37411,7.49756],[80.37421,7.49882],[80.37422,7.50127],[80.37402,7.50236],[80.37417,7.50419],[80.37407,7.50425],[80.37394,7.50508],[80.37398,7.50598],[80.37383,7.50668],[80.37533,7.50668],[80.37521,7.505],[80.37555,7.50425],[80.37537,7.5039],[80.3761,7.50361],[80.37666,7.50238],[80.37679,7.50156],[80.37613,7.50128],[80.3758,7.50084],[80.37609,7.5004],[80.3757,7.49973],[80.37601,7.49945],[80.37691,7.50035],[80.37824,7.50006],[80.37833,7.49944],[80.37703,7.4993],[80.37711,7.49867],[80.37659,7.49857],[80.37651,7.49823],[80.37658,7.49646],[80.37707,7.49628],[80.37715,7.49568],[80.37642,7.49465],[80.37453,7.49427],[80.37373,7.4945],[80.37337,7.49475],[80.37231,7.49705],[80.37202,7.49803]]]}},{"type":"Feature","properties":{"c":"farmland"},"geometry":{"type":"Polygon","coordinates":[[[80.38378,7.49985],[80.38401,7.50011],[80.38395,7.50031],[80.38414,7.50044],[80.38432,7.5004],[80.38446,7.50043],[80.38472,7.50077],[80.38491,7.50078],[80.38487,7.50056],[80.38513,7.50022],[80.38531,7.49955],[80.3851,7.4992],[80.38497,7.49932],[80.38476,7.49941],[80.38439,7.49946],[80.38437,7.49933],[80.3841,7.49919],[80.38399,7.49926],[80.38389,7.4995],[80.38392,7.49971],[80.38384,7.49973],[80.38378,7.49985]]]}},{"type":"Feature","properties":{"c":"farmland"},"geometry":{"type":"Polygon","coordinates":[[[80.38801,7.47116],[80.38842,7.47192],[80.38899,7.47195],[80.38904,7.47233],[80.38925,7.47237],[80.38933,7.4726],[80.38994,7.47242],[80.39032,7.4722],[80.39092,7.47216],[80.39146,7.47201],[80.39213,7.4722],[80.3929,7.47198],[80.39239,7.47104],[80.39189,7.47113],[80.39161,7.47111],[80.3904,7.47119],[80.38985,7.47098],[80.38943,7.47101],[80.38924,7.47086],[80.38883,7.47084],[80.38822,7.47093],[80.38801,7.47116]]]}},{"type":"Feature","properties":{"c":"farmland"},"geometry":{"type":"Polygon","coordinates":[[[80.38723,7.48179],[80.38765,7.48211],[80.38759,7.48231],[80.38956,7.4823],[80.38962,7.48218],[80.38962,7.482],[80.38975,7.48182],[80.38976,7.48161],[80.38985,7.48164],[80.38985,7.48152],[80.38996,7.48147],[80.3903,7.48153],[80.39037,7.48139],[80.39098,7.48148],[80.39164,7.48082],[80.39202,7.4807],[80.39205,7.48055],[80.39233,7.48051],[80.39238,7.48059],[80.39263,7.48016],[80.39321,7.4789],[80.39281,7.47901],[80.39213,7.47943],[80.39122,7.47967],[80.39097,7.4793],[80.39068,7.47937],[80.39076,7.47968],[80.3904,7.47968],[80.3902,7.47972],[80.39007,7.47953],[80.38984,7.47955],[80.39003,7.48],[80.38992,7.48005],[80.38985,7.48032],[80.3893,7.48063],[80.38895,7.48091],[80.38871,7.48134],[80.3884,7.48161],[80.38823,7.48186],[80.38803,7.48181],[80.38803,7.48165],[80.38726,7.48166],[80.38723,7.48179]]]}},{"type":"Feature","properties":{"c":"farmland"},"geometry":{"type":"Polygon","coordinates":[[[80.38696,7.46686],[80.38696,7.46884],[80.38723,7.46885],[80.3876,7.46909],[80.38776,7.46903],[80.38785,7.46886],[80.38806,7.46882],[80.38817,7.46873],[80.38851,7.46882],[80.38838,7.46849],[80.38838,7.46812],[80.38764,7.46803],[80.38769,7.4676],[80.3876,7.46711],[80.38696,7.46686]]]}},{"type":"Feature","properties":{"c":"farmland"},"geometry":{"type":"Polygon","coordinates":[[[80.38855,7.46832],[80.38855,7.46853],[80.38868,7.46878],[80.38887,7.46901],[80.38915,7.4689],[80.38924,7.469],[80.38948,7.46901],[80.38978,7.4688],[80.39041,7.46869],[80.3901,7.46804],[80.39003,7.4681],[80.38971,7.46803],[80.38961,7.46809],[80.38942,7.46805],[80.38924,7.46814],[80.38907,7.46811],[80.38885,7.46818],[80.38881,7.4683],[80.38855,7.46832]]]}},{"type":"Feature","properties":{"c":"farmland"},"geometry":{"type":"Polygon","coordinates":[[[80.38432,7.46811],[80.38451,7.46918],[80.38485,7.46935],[80.38497,7.46925],[80.38559,7.46903],[80.38569,7.46893],[80.3859,7.46889],[80.38608,7.46899],[80.38618,7.46919],[80.3867,7.46911],[80.38696,7.46884],[80.38696,7.46686],[80.38623,7.46657],[80.38541,7.46632],[80.38432,7.46811]]]}},{"type":"Feature","properties":{"c":"farmland"},"geometry":{"type":"Polygon","coordinates":[[[80.38547,7.46964],[80.38659,7.47019],[80.38651,7.47053],[80.38683,7.47061],[80.38715,7.47061],[80.38721,7.47043],[80.38685,7.47022],[80.38664,7.4699],[80.38646,7.46975],[80.38591,7.46942],[80.38596,7.46924],[80.38559,7.4693],[80.38547,7.46964]]]}},{"type":"Feature","properties":{"c":"farmland"},"geometry":{"type":"Polygon","coordinates":[[[80.38865,7.48329],[80.3889,7.48369],[80.38929,7.48369],[80.38965,7.48358],[80.38961,7.48334],[80.38966,7.483],[80.38955,7.48279],[80.3896,7.48233],[80.38914,7.48234],[80.38865,7.48329]]]}},{"type":"Feature","properties":{"c":"farmland"},"geometry":{"type":"Polygon","coordinates":[[[80.38736,7.48235],[80.38781,7.48273],[80.38861,7.48325],[80.38905,7.48236],[80.38736,7.48235]]]}},{"type":"Feature","properties":{"c":"farmland"},"geometry":{"type":"Polygon","coordinates":[[[80.38802,7.48454],[80.38838,7.48446],[80.38867,7.48411],[80.3888,7.4838],[80.3886,7.48342],[80.38833,7.48313],[80.38816,7.48308],[80.38802,7.48454]]]}},{"type":"Feature","properties":{"c":"farmland"},"geometry":{"type":"Polygon","coordinates":[[[80.38792,7.48478],[80.38877,7.48481],[80.38875,7.48466],[80.38892,7.48412],[80.38883,7.48396],[80.38874,7.48419],[80.38843,7.48456],[80.38818,7.48464],[80.38801,7.48463],[80.38792,7.48478]]]}},{"type":"Feature","properties":{"c":"farmland"},"geometry":{"type":"Polygon","coordinates":[[[80.38888,7.48466],[80.38912,7.4852],[80.38963,7.48495],[80.38968,7.48481],[80.38907,7.4843],[80.38888,7.48466]]]}},{"type":"Feature","properties":{"c":"industrial","n":"Dangaspitiya Industrial Zone"},"geometry":{"type":"Polygon","coordinates":[[[80.34239,7.41877],[80.3425,7.41914],[80.34409,7.42051],[80.34448,7.42091],[80.34467,7.42121],[80.34506,7.4226],[80.34508,7.42281],[80.34497,7.42301],[80.34488,7.42332],[80.34488,7.42346],[80.34558,7.42373],[80.34566,7.42368],[80.34567,7.42352],[80.34583,7.42337],[80.34584,7.42312],[80.34598,7.42292],[80.34618,7.42275],[80.34648,7.42212],[80.3465,7.42199],[80.34596,7.4214],[80.34603,7.42131],[80.34607,7.42135],[80.34623,7.42109],[80.34585,7.42086],[80.3454,7.42025],[80.34517,7.42004],[80.3453,7.41991],[80.34429,7.41901],[80.34432,7.41895],[80.34376,7.41864],[80.34386,7.41845],[80.34294,7.4178],[80.34279,7.41785],[80.34248,7.41848],[80.34239,7.41877]]]}},{"type":"Feature","properties":{"c":"farmland","n":"Paddy Land"},"geometry":{"type":"Polygon","coordinates":[[[80.38971,7.53981],[80.38971,7.5405],[80.39006,7.54085],[80.39069,7.5406],[80.39118,7.54048],[80.39147,7.54025],[80.39179,7.54022],[80.39194,7.54011],[80.39246,7.54005],[80.39343,7.53972],[80.39371,7.53953],[80.39489,7.53984],[80.39518,7.53983],[80.39555,7.53971],[80.39623,7.53981],[80.39645,7.53974],[80.39668,7.5398],[80.39713,7.54022],[80.39707,7.54028],[80.39719,7.54043],[80.39742,7.54051],[80.39791,7.54131],[80.39795,7.54158],[80.39784,7.54216],[80.39791,7.5423],[80.39841,7.54267],[80.39846,7.54295],[80.39868,7.54318],[80.39887,7.54315],[80.39901,7.54305],[80.3994,7.5431],[80.39966,7.54282],[80.40026,7.54232],[80.40009,7.54201],[80.3998,7.54196],[80.39966,7.54161],[80.39953,7.5415],[80.39954,7.54142],[80.39972,7.54142],[80.39987,7.54135],[80.39974,7.54114],[80.39941,7.5411],[80.39943,7.54098],[80.39963,7.54087],[80.39968,7.54095],[80.39963,7.541],[80.39979,7.54105],[80.39985,7.54096],[80.39979,7.54085],[80.39994,7.54063],[80.40004,7.54057],[80.4002,7.54068],[80.40032,7.54052],[80.4007,7.54038],[80.40072,7.54028],[80.40069,7.54023],[80.40078,7.53997],[80.40074,7.53984],[80.40064,7.53977],[80.40037,7.53977],[80.40011,7.53988],[80.40006,7.54001],[80.39995,7.54008],[80.3995,7.53994],[80.39923,7.53969],[80.39898,7.53899],[80.39911,7.53837],[80.39933,7.53787],[80.39934,7.53751],[80.3995,7.53713],[80.39952,7.53699],[80.3994,7.53684],[80.39938,7.53672],[80.39941,7.53662],[80.39971,7.53637],[80.40004,7.53617],[80.40007,7.53605],[80.40038,7.53606],[80.40085,7.5361],[80.40084,7.53638],[80.40108,7.53653],[80.40132,7.53677],[80.40152,7.53672],[80.40169,7.53655],[80.40185,7.53666],[80.40212,7.53641],[80.40203,7.53614],[80.40212,7.53618],[80.40222,7.53615],[80.40225,7.53606],[80.4025,7.53607],[80.4025,7.53633],[80.40302,7.53629],[80.40324,7.53589],[80.4032,7.53576],[80.403,7.53579],[80.40295,7.53593],[80.40286,7.5359],[80.40282,7.53576],[80.40237,7.53581],[80.40189,7.53562],[80.40087,7.5359],[80.40079,7.53584],[80.40006,7.53581],[80.40024,7.53517],[80.40042,7.53491],[80.40059,7.53433],[80.4007,7.5341],[80.40089,7.53392],[80.401,7.53361],[80.4011,7.53344],[80.40124,7.53342],[80.40177,7.53352],[80.40197,7.53348],[80.40254,7.53354],[80.40272,7.53347],[80.40308,7.53349],[80.40326,7.53354],[80.40341,7.53373],[80.40369,7.53371],[80.4044,7.53353],[80.40478,7.5336],[80.4048,7.53353],[80.40491,7.53354],[80.40494,7.53339],[80.40502,7.53342],[80.40508,7.53306],[80.40536,7.53296],[80.40532,7.53252],[80.40542,7.53256],[80.40557,7.53256],[80.40602,7.53225],[80.40592,7.53168],[80.40581,7.53162],[80.40571,7.53167],[80.40561,7.53159],[80.40546,7.53159],[80.40497,7.53179],[80.40496,7.53192],[80.40489,7.53202],[80.40453,7.53204],[80.4044,7.53213],[80.40426,7.53237],[80.40412,7.53241],[80.40394,7.53231],[80.40383,7.53231],[80.40368,7.53246],[80.40348,7.53249],[80.40313,7.53232],[80.4027,7.53244],[80.40242,7.53246],[80.40245,7.53255],[80.40234,7.53265],[80.40218,7.53272],[80.40207,7.53269],[80.40182,7.53274],[80.40169,7.53282],[80.40165,7.53295],[80.40155,7.53299],[80.40142,7.53294],[80.40145,7.53306],[80.4014,7.53316],[80.40131,7.53322],[80.40112,7.53311],[80.40116,7.53287],[80.40122,7.5328],[80.40107,7.53282],[80.40096,7.53272],[80.40099,7.53223],[80.4012,7.53153],[80.40122,7.53112],[80.40133,7.53056],[80.40189,7.53041],[80.40224,7.53041],[80.40254,7.53049],[80.40272,7.53048],[80.40325,7.53075],[80.40361,7.53061],[80.40396,7.53059],[80.40437,7.53037],[80.40463,7.53035],[80.40469,7.5304],[80.40507,7.53036],[80.40519,7.53031],[80.40522,7.53014],[80.40527,7.52965],[80.40494,7.52944],[80.40453,7.5296],[80.40441,7.52973],[80.4044,7.5298],[80.40425,7.5299],[80.40368,7.53016],[80.40346,7.53013],[80.4034,7.52998],[80.40358,7.52973],[80.40361,7.52962],[80.40351,7.52952],[80.40331,7.52946],[80.40347,7.52915],[80.40376,7.52944],[80.40405,7.52943],[80.4042,7.52936],[80.40426,7.52923],[80.40424,7.52907],[80.4045,7.52877],[80.4044,7.52852],[80.40408,7.52827],[80.40396,7.52838],[80.40391,7.52864],[80.40375,7.52876],[80.40372,7.52866],[80.40361,7.52859],[80.40357,7.5284],[80.40343,7.52862],[80.4033,7.52863],[80.40307,7.52885],[80.40289,7.52895],[80.40279,7.5288],[80.4026,7.52878],[80.40293,7.52853],[80.4031,7.52815],[80.40345,7.52794],[80.40351,7.52784],[80.4036,7.52786],[80.40379,7.52763],[80.40322,7.52723],[80.40314,7.52712],[80.40296,7.52723],[80.40268,7.52774],[80.40246,7.52788],[80.40236,7.52805],[80.40197,7.52903],[80.40202,7.5293],[80.40176,7.52958],[80.40139,7.52983],[80.40137,7.52962],[80.40128,7.52937],[80.40128,7.52912],[80.40123,7.52902],[80.40114,7.529],[80.40108,7.52884],[80.40109,7.52855],[80.40117,7.52853],[80.40116,7.52845],[80.40098,7.52815],[80.40076,7.52802],[80.40053,7.52773],[80.40054,7.52723],[80.40042,7.52655],[80.40052,7.5258],[80.40073,7.52554],[80.40086,7.52548],[80.40103,7.52517],[80.40133,7.52393],[80.40141,7.52389],[80.40156,7.52356],[80.40164,7.52356],[80.40173,7.52349],[80.40188,7.52317],[80.40203,7.52308],[80.40214,7.52293],[80.40245,7.52209],[80.40259,7.52183],[80.40269,7.52175],[80.40266,7.52159],[80.4025,7.52161],[80.40218,7.52151],[80.40206,7.52167],[80.40163,7.52249],[80.40118,7.52296],[80.40105,7.52323],[80.4009,7.52337],[80.40067,7.52374],[80.40033,7.52453],[80.3999,7.52502],[80.39976,7.52543],[80.3997,7.5255],[80.39946,7.52554],[80.39895,7.52551],[80.39889,7.52563],[80.39867,7.5258],[80.39859,7.52598],[80.39851,7.52576],[80.39858,7.52565],[80.39852,7.52557],[80.3986,7.52521],[80.39834,7.52511],[80.39824,7.52513],[80.39815,7.52467],[80.39776,7.5238],[80.39769,7.52374],[80.39772,7.5236],[80.39795,7.52346],[80.39805,7.52323],[80.398,7.52305],[80.39791,7.52301],[80.3977,7.52305],[80.39767,7.52291],[80.39773,7.52258],[80.39769,7.52222],[80.39783,7.52191],[80.39799,7.52117],[80.39817,7.5209],[80.39844,7.52062],[80.39853,7.5204],[80.39893,7.51986],[80.39901,7.51963],[80.39944,7.51936],[80.39952,7.51938],[80.39963,7.51949],[80.39965,7.51935],[80.39988,7.51902],[80.40031,7.51883],[80.40074,7.51857],[80.40139,7.51797],[80.40103,7.51756],[80.40087,7.51779],[80.40053,7.51802],[80.40016,7.51812],[80.39992,7.51811],[80.39969,7.51832],[80.39942,7.51846],[80.39933,7.51847],[80.39917,7.51836],[80.39898,7.51863],[80.39861,7.51857],[80.39847,7.51887],[80.39794,7.51926],[80.39781,7.51947],[80.39765,7.52033],[80.39751,7.52034],[80.39689,7.52023],[80.39679,7.51989],[80.39642,7.51924],[80.39641,7.51894],[80.39662,7.51874],[80.39665,7.51863],[80.39663,7.5184],[80.39652,7.51836],[80.39682,7.51803],[80.39686,7.51788],[80.39667,7.51762],[80.39641,7.51758],[80.39594,7.51767],[80.39577,7.51766],[80.39581,7.51779],[80.39568,7.51826],[80.39547,7.51822],[80.39554,7.51801],[80.39555,7.51762],[80.39548,7.51747],[80.39535,7.51739],[80.39517,7.51754],[80.39516,7.51772],[80.39494,7.51783],[80.39467,7.51783],[80.39458,7.5179],[80.39445,7.51783],[80.39357,7.5165],[80.39301,7.51673],[80.39303,7.51689],[80.39335,7.5174],[80.39354,7.51808],[80.39381,7.5185],[80.39399,7.51869],[80.39407,7.51855],[80.39481,7.51871],[80.39521,7.51924],[80.39532,7.5192],[80.39543,7.51924],[80.39544,7.51931],[80.39573,7.5195],[80.3958,7.51959],[80.39582,7.51974],[80.39573,7.51993],[80.39535,7.51993],[80.39508,7.5201],[80.39503,7.52024],[80.3951,7.52039],[80.39519,7.52046],[80.39554,7.52056],[80.39556,7.52069],[80.3958,7.52058],[80.39595,7.52073],[80.39652,7.52201],[80.39652,7.52235],[80.3964,7.52243],[80.39642,7.52269],[80.3962,7.52312],[80.39607,7.52353],[80.39591,7.52371],[80.39581,7.52401],[80.39563,7.52388],[80.39558,7.52375],[80.39539,7.52397],[80.39529,7.52379],[80.39501,7.52392],[80.39457,7.52401],[80.39446,7.52404],[80.39445,7.52419],[80.39451,7.52445],[80.39455,7.5245],[80.39475,7.52442],[80.39486,7.52452],[80.39493,7.52467],[80.39475,7.52475],[80.39485,7.52502],[80.39507,7.52518],[80.39526,7.52516],[80.39534,7.52505],[80.39536,7.52493],[80.39602,7.52481],[80.39685,7.5248],[80.39707,7.52506],[80.39713,7.52521],[80.39708,7.52525],[80.39714,7.52542],[80.3973,7.52568],[80.39741,7.52569],[80.39783,7.52618],[80.39788,7.52621],[80.39815,7.52615],[80.39838,7.52604],[80.3985,7.5261],[80.39849,7.52644],[80.39862,7.52678],[80.39882,7.52714],[80.3991,7.52729],[80.3993,7.5278],[80.39941,7.52795],[80.39895,7.52794],[80.39866,7.52801],[80.39862,7.52851],[80.39877,7.52861],[80.39905,7.52868],[80.39938,7.52868],[80.39946,7.52826],[80.3997,7.52827],[80.39982,7.52829],[80.4,7.52853],[80.4001,7.52856],[80.40011,7.52865],[80.40032,7.52899],[80.40033,7.52916],[80.40024,7.52948],[80.40032,7.52983],[80.40041,7.52994],[80.40038,7.52998],[80.40055,7.53035],[80.40055,7.53065],[80.40037,7.53128],[80.40029,7.53135],[80.40024,7.53147],[80.40021,7.53194],[80.3999,7.53266],[80.39986,7.53314],[80.39973,7.53348],[80.39977,7.53381],[80.39958,7.53387],[80.39945,7.53401],[80.39948,7.53416],[80.39942,7.53432],[80.39952,7.53445],[80.39929,7.53483],[80.39928,7.53508],[80.39862,7.53576],[80.39855,7.53617],[80.39848,7.53631],[80.39818,7.53647],[80.39812,7.53656],[80.39818,7.53705],[80.39839,7.53753],[80.39827,7.53806],[80.39835,7.5382],[80.39828,7.53825],[80.3982,7.53823],[80.39811,7.53867],[80.39796,7.5388],[80.39783,7.53911],[80.3977,7.53927],[80.39759,7.53931],[80.39727,7.53895],[80.39696,7.53887],[80.39691,7.5388],[80.39662,7.53879],[80.39636,7.53863],[80.3962,7.53865],[80.39566,7.53836],[80.39513,7.53759],[80.39505,7.53692],[80.39512,7.53676],[80.39512,7.53641],[80.39517,7.53635],[80.39547,7.5354],[80.39639,7.53413],[80.39654,7.53366],[80.39657,7.53296],[80.39668,7.53275],[80.3968,7.5323],[80.39709,7.53179],[80.3974,7.53153],[80.39758,7.53127],[80.39792,7.53046],[80.39736,7.5302],[80.39751,7.52987],[80.39726,7.52991],[80.39711,7.52983],[80.39706,7.53009],[80.39712,7.53016],[80.39699,7.53058],[80.39642,7.53146],[80.39606,7.53186],[80.39577,7.532],[80.39563,7.53202],[80.39545,7.53195],[80.39542,7.53187],[80.39545,7.53137],[80.39541,7.53129],[80.39522,7.53121],[80.39519,7.53133],[80.39506,7.53148],[80.39482,7.53161],[80.39476,7.53152],[80.39488,7.53144],[80.3949,7.53109],[80.39446,7.53029],[80.39439,7.52995],[80.39439,7.52961],[80.39448,7.52898],[80.39464,7.52867],[80.39507,7.52818],[80.39496,7.52809],[80.39484,7.52786],[80.39427,7.5281],[80.394,7.5278],[80.39393,7.52637],[80.39359,7.52631],[80.39354,7.52662],[80.39355,7.52705],[80.39349,7.52716],[80.39346,7.52752],[80.39353,7.52788],[80.39381,7.52838],[80.39379,7.52846],[80.39388,7.52874],[80.3938,7.52899],[80.39385,7.5291],[80.39382,7.52925],[80.3936,7.53001],[80.39299,7.52999],[80.3929,7.53028],[80.39301,7.53032],[80.39305,7.5304],[80.39365,7.53047],[80.39422,7.53121],[80.39414,7.53128],[80.39412,7.53138],[80.39413,7.53164],[80.39417,7.53168],[80.39442,7.53165],[80.39445,7.53169],[80.39443,7.53219],[80.39498,7.53277],[80.39522,7.53244],[80.39526,7.53245],[80.39535,7.53254],[80.39528,7.53277],[80.39529,7.53296],[80.39519,7.53305],[80.39528,7.5332],[80.39553,7.53315],[80.39548,7.53322],[80.39548,7.53343],[80.39518,7.53338],[80.39497,7.53393],[80.39474,7.53425],[80.39478,7.53432],[80.39467,7.53447],[80.39451,7.53488],[80.39437,7.53543],[80.39442,7.53551],[80.39452,7.53547],[80.39459,7.53572],[80.39457,7.53583],[80.39448,7.53591],[80.3942,7.53571],[80.3941,7.53601],[80.39399,7.53617],[80.39376,7.53613],[80.39367,7.53602],[80.3935,7.53611],[80.39339,7.53645],[80.3934,7.5367],[80.39347,7.53685],[80.39355,7.5369],[80.39369,7.53754],[80.3937,7.53778],[80.3937,7.53793],[80.39354,7.53795],[80.39353,7.53812],[80.39372,7.53817],[80.39439,7.53815],[80.39492,7.53866],[80.39487,7.53885],[80.39484,7.53891],[80.39466,7.53895],[80.3945,7.53893],[80.39441,7.539],[80.39423,7.53891],[80.39409,7.53892],[80.39407,7.53888],[80.39387,7.53891],[80.3933,7.53881],[80.39309,7.53898],[80.39295,7.53902],[80.39293,7.53897],[80.39288,7.53905],[80.39241,7.53916],[80.39193,7.53911],[80.39167,7.53875],[80.39158,7.53885],[80.39134,7.53897],[80.39078,7.53902],[80.39067,7.53915],[80.39081,7.53929],[80.39088,7.53943],[80.39084,7.53951],[80.39069,7.53946],[80.39063,7.53948],[80.39061,7.53961],[80.39047,7.53969],[80.39024,7.53967],[80.39005,7.53982],[80.38989,7.53975],[80.38982,7.53983],[80.38971,7.53981]]]}},{"type":"Feature","properties":{"c":"forest","n":"Badagamuwa Conservation Forest"},"geometry":{"type":"Polygon","coordinates":[[[80.39028,7.50265],[80.3903,7.50297],[80.39042,7.50326],[80.39061,7.50353],[80.39105,7.50393],[80.39114,7.50409],[80.39122,7.50453],[80.39117,7.50549],[80.39126,7.50601],[80.3913,7.50689],[80.39164,7.50735],[80.39198,7.50808],[80.39241,7.50866],[80.39246,7.50881],[80.39242,7.50913],[80.39233,7.50942],[80.39165,7.51085],[80.39175,7.51149],[80.3923,7.5129],[80.39233,7.51359],[80.39242,7.5139],[80.39251,7.51403],[80.39319,7.51449],[80.39335,7.51479],[80.39352,7.5154],[80.39361,7.51554],[80.39396,7.51588],[80.39436,7.51614],[80.39486,7.51628],[80.39522,7.51629],[80.3963,7.51605],[80.39661,7.51608],[80.39745,7.51637],[80.39787,7.51643],[80.39844,7.51641],[80.39867,7.51635],[80.39902,7.51615],[80.39934,7.51577],[80.39992,7.51447],[80.40086,7.51307],[80.40101,7.51278],[80.40103,7.51262],[80.40102,7.51242],[80.40095,7.51226],[80.39961,7.51035],[80.39955,7.51003],[80.39959,7.50972],[80.39994,7.5086],[80.39993,7.50846],[80.39982,7.50835],[80.39951,7.5084],[80.39929,7.50865],[80.399,7.50882],[80.39858,7.50968],[80.39857,7.51031],[80.39854,7.51047],[80.39846,7.51061],[80.39833,7.5107],[80.39816,7.51073],[80.39801,7.51067],[80.3979,7.51055],[80.39787,7.51039],[80.39793,7.51024],[80.39813,7.51],[80.3982,7.50986],[80.39839,7.50903],[80.39886,7.50811],[80.39922,7.5078],[80.39968,7.50765],[80.4003,7.50756],[80.40037,7.50749],[80.40037,7.5074],[80.39955,7.50698],[80.39939,7.50686],[80.39931,7.50672],[80.39929,7.50656],[80.39952,7.50634],[80.39958,7.50619],[80.3995,7.50604],[80.39927,7.50581],[80.39922,7.50566],[80.39922,7.50549],[80.39929,7.50535],[80.39942,7.50527],[80.39959,7.50528],[80.4,7.50552],[80.40048,7.50559],[80.40062,7.50566],[80.40082,7.5059],[80.4013,7.50597],[80.40144,7.50605],[80.40228,7.50664],[80.40247,7.50684],[80.40247,7.50695],[80.40215,7.50732],[80.40212,7.50747],[80.40225,7.50757],[80.40256,7.50767],[80.40267,7.50778],[80.40269,7.50807],[80.40276,7.50821],[80.40285,7.50834],[80.403,7.50838],[80.40315,7.50831],[80.40325,7.50818],[80.40345,7.50764],[80.4038,7.50711],[80.40402,7.5069],[80.40456,7.50654],[80.40472,7.50604],[80.40505,7.50531],[80.40551,7.50465],[80.40638,7.50397],[80.40658,7.50372],[80.40672,7.5034],[80.40671,7.50303],[80.40652,7.50239],[80.40642,7.50225],[80.4059,7.50184],[80.40577,7.50113],[80.40562,7.50083],[80.40529,7.50048],[80.40498,7.5004],[80.40452,7.50053],[80.40407,7.50097],[80.40375,7.50114],[80.40343,7.50121],[80.40311,7.50122],[80.40263,7.50109],[80.40235,7.50108],[80.40139,7.50116],[80.40108,7.50103],[80.40098,7.5009],[80.40094,7.50074],[80.40097,7.50059],[80.40115,7.50034],[80.40149,7.5],[80.40156,7.49969],[80.40147,7.4994],[80.4015,7.49924],[80.40159,7.49912],[80.40206,7.49906],[80.40218,7.49915],[80.40233,7.49961],[80.40242,7.49974],[80.40255,7.49984],[80.40287,7.49985],[80.40312,7.49964],[80.40317,7.49949],[80.40315,7.49917],[80.40303,7.49888],[80.40279,7.49867],[80.40264,7.49861],[80.40112,7.49856],[80.40082,7.4985],[80.40008,7.49821],[80.39998,7.49808],[80.39982,7.49763],[80.39971,7.4975],[80.39957,7.49741],[80.3989,7.49732],[80.3986,7.49719],[80.39833,7.49696],[80.39786,7.49631],[80.39775,7.4962],[80.3976,7.49613],[80.39726,7.49616],[80.39645,7.49668],[80.39628,7.4967],[80.39581,7.4966],[80.39549,7.49667],[80.39495,7.49698],[80.39464,7.49735],[80.39405,7.49758],[80.39372,7.49792],[80.39343,7.49806],[80.39301,7.49817],[80.39292,7.49831],[80.39296,7.49925],[80.39305,7.49939],[80.39432,7.50001],[80.3954,7.50013],[80.39596,7.5004],[80.39645,7.50044],[80.39651,7.50049],[80.39619,7.5015],[80.39586,7.50153],[80.39553,7.50143],[80.3951,7.5012],[80.39462,7.50111],[80.39363,7.5011],[80.39323,7.501],[80.39272,7.50081],[80.39263,7.50137],[80.39252,7.50167],[80.39244,7.5018],[80.3922,7.502],[80.3911,7.50222],[80.39064,7.50235],[80.39048,7.50241],[80.39028,7.50265]],[[80.39815,7.50611],[80.39833,7.50554],[80.39834,7.50513],[80.39828,7.50498],[80.39831,7.50488],[80.39848,7.50482],[80.39883,7.5048],[80.39896,7.505],[80.39906,7.50579],[80.39899,7.50611],[80.39902,7.50638],[80.39893,7.50656],[80.39879,7.50654],[80.39879,7.50633],[80.39861,7.50622],[80.39829,7.50618],[80.39815,7.50611]]]}},{"type":"Feature","properties":{"c":"farmland"},"geometry":{"type":"Polygon","coordinates":[[[80.38536,7.49497],[80.38543,7.49576],[80.38641,7.49612],[80.38675,7.49619],[80.38681,7.49642],[80.38661,7.49656],[80.38667,7.4969],[80.38686,7.49694],[80.38696,7.49707],[80.38725,7.49721],[80.38765,7.49698],[80.38795,7.49698],[80.38811,7.4972],[80.3883,7.49716],[80.38875,7.49688],[80.38897,7.49681],[80.38922,7.49686],[80.38934,7.49696],[80.38965,7.49699],[80.39014,7.49682],[80.39028,7.49684],[80.3905,7.49666],[80.39047,7.49612],[80.39042,7.49608],[80.39045,7.496],[80.39059,7.49598],[80.39081,7.49608],[80.39077,7.4965],[80.391,7.49638],[80.39096,7.49615],[80.39136,7.49587],[80.39144,7.49572],[80.39163,7.49561],[80.39181,7.49571],[80.39183,7.49591],[80.39188,7.4959],[80.39271,7.4956],[80.39268,7.49541],[80.39272,7.49532],[80.39297,7.49515],[80.39327,7.49503],[80.39334,7.49507],[80.39343,7.4953],[80.39399,7.495],[80.39419,7.49481],[80.39441,7.49446],[80.39462,7.49386],[80.39464,7.49354],[80.39404,7.49272],[80.39321,7.49303],[80.39324,7.49325],[80.39319,7.49351],[80.39297,7.49381],[80.39287,7.49399],[80.39288,7.49405],[80.39231,7.49429],[80.39211,7.49421],[80.3914,7.49427],[80.39124,7.49421],[80.39094,7.49428],[80.3905,7.49418],[80.39042,7.49421],[80.39044,7.49469],[80.39013,7.4948],[80.38964,7.4947],[80.38959,7.49462],[80.38937,7.49471],[80.38948,7.49484],[80.38947,7.4949],[80.38924,7.49499],[80.3892,7.49508],[80.3894,7.49532],[80.38928,7.49542],[80.38866,7.49555],[80.38848,7.49538],[80.38816,7.4955],[80.38822,7.49557],[80.38808,7.49559],[80.38804,7.49552],[80.38716,7.49564],[80.38558,7.49491],[80.38543,7.49487],[80.38536,7.49497]]]}},{"type":"Feature","properties":{"c":"orchard"},"geometry":{"type":"Polygon","coordinates":[[[80.40147,7.4924],[80.40147,7.49252],[80.40173,7.49284],[80.4017,7.4933],[80.40172,7.49342],[80.40187,7.49366],[80.40212,7.49375],[80.40228,7.49363],[80.40235,7.49345],[80.40253,7.49334],[80.40297,7.49368],[80.40313,7.49367],[80.4034,7.49355],[80.40352,7.49345],[80.40358,7.49327],[80.40367,7.4932],[80.40378,7.49321],[80.40383,7.49302],[80.40389,7.49294],[80.40401,7.49286],[80.40411,7.49288],[80.40417,7.49281],[80.40434,7.49249],[80.40427,7.49236],[80.40447,7.49218],[80.40444,7.49202],[80.40455,7.49195],[80.40449,7.49186],[80.4044,7.49187],[80.40425,7.49179],[80.40425,7.49158],[80.40419,7.49147],[80.40429,7.49097],[80.40414,7.49081],[80.40429,7.49065],[80.40436,7.49049],[80.40416,7.49037],[80.40399,7.49036],[80.40377,7.49043],[80.40357,7.4907],[80.40302,7.49107],[80.40229,7.4917],[80.40204,7.49178],[80.40155,7.49226],[80.40147,7.4924]]]}},{"type":"Feature","properties":{"c":"farmland"},"geometry":{"type":"Polygon","coordinates":[[[80.34211,7.41665],[80.34226,7.41693],[80.34257,7.41729],[80.34275,7.41737],[80.34268,7.4177],[80.34386,7.41845],[80.34376,7.41864],[80.34432,7.41895],[80.34429,7.41901],[80.3453,7.41991],[80.34517,7.42004],[80.34561,7.42051],[80.34585,7.42086],[80.34615,7.42089],[80.34635,7.42108],[80.34669,7.42124],[80.34693,7.42151],[80.34708,7.42192],[80.34754,7.42253],[80.34774,7.42259],[80.34816,7.42292],[80.34816,7.42323],[80.34851,7.42344],[80.34858,7.42369],[80.34874,7.42388],[80.3486,7.42408],[80.34852,7.42443],[80.3485,7.42502],[80.34919,7.42553],[80.34937,7.4255],[80.34923,7.42483],[80.34921,7.42429],[80.34941,7.42418],[80.34995,7.42451],[80.35026,7.42501],[80.35101,7.42568],[80.35158,7.42502],[80.3513,7.42477],[80.35133,7.42452],[80.35091,7.42401],[80.35101,7.42361],[80.35069,7.42307],[80.35065,7.42284],[80.35077,7.42263],[80.35091,7.42259],[80.35199,7.42243],[80.35228,7.42258],[80.35229,7.42236],[80.3518,7.42165],[80.35159,7.42166],[80.35109,7.42195],[80.35083,7.42203],[80.35037,7.42196],[80.35056,7.42155],[80.35044,7.42128],[80.35003,7.42158],[80.34973,7.42171],[80.34966,7.42142],[80.34925,7.42093],[80.34891,7.4208],[80.3488,7.42012],[80.349,7.41986],[80.34912,7.4194],[80.34891,7.41938],[80.34868,7.41966],[80.34798,7.42014],[80.34759,7.42025],[80.34716,7.42016],[80.34702,7.41989],[80.34669,7.41949],[80.34688,7.41938],[80.34704,7.41887],[80.34779,7.4188],[80.3482,7.41867],[80.3484,7.41854],[80.34884,7.41924],[80.34928,7.41933],[80.34978,7.41921],[80.35023,7.41927],[80.3507,7.41966],[80.35089,7.42029],[80.35123,7.42022],[80.35123,7.41992],[80.35134,7.41957],[80.35156,7.41922],[80.35155,7.41907],[80.35178,7.41905],[80.35187,7.41911],[80.35213,7.41902],[80.35264,7.41874],[80.35329,7.41774],[80.35359,7.41767],[80.35346,7.41731],[80.35294,7.41742],[80.35277,7.41757],[80.35255,7.41761],[80.35239,7.41781],[80.35209,7.41744],[80.35207,7.41734],[80.35235,7.41737],[80.35262,7.41722],[80.35286,7.41704],[80.35288,7.41682],[80.35272,7.41674],[80.35245,7.41674],[80.35239,7.41624],[80.35215,7.41583],[80.35219,7.41549],[80.35238,7.41502],[80.35235,7.41432],[80.35193,7.41407],[80.35177,7.41445],[80.35166,7.41492],[80.35153,7.41516],[80.35097,7.41499],[80.35058,7.41506],[80.35038,7.41521],[80.35015,7.41522],[80.3498,7.41505],[80.34933,7.41497],[80.349,7.41455],[80.34873,7.41453],[80.34814,7.41481],[80.34774,7.41493],[80.34758,7.41516],[80.34677,7.41572],[80.3462,7.41632],[80.34562,7.41675],[80.34509,7.41654],[80.34486,7.41625],[80.34475,7.41599],[80.34454,7.4158],[80.34425,7.41565],[80.34366,7.41565],[80.34316,7.41516],[80.34317,7.41502],[80.34334,7.41461],[80.34335,7.41439],[80.3431,7.41455],[80.34289,7.41448],[80.34221,7.41552],[80.34213,7.41577],[80.34218,7.41599],[80.34228,7.41616],[80.34215,7.41646],[80.34211,7.41665]]]}},{"type":"Feature","properties":{"c":"farmland","n":"Pddy Area 03"},"geometry":{"type":"Polygon","coordinates":[[[80.35366,7.40344],[80.35369,7.40355],[80.35397,7.40358],[80.35447,7.40408],[80.35447,7.40424],[80.35426,7.40496],[80.35426,7.40531],[80.3543,7.40541],[80.35474,7.40519],[80.35486,7.40495],[80.35545,7.40477],[80.35562,7.40488],[80.35631,7.40489],[80.35649,7.40483],[80.35721,7.40496],[80.35739,7.40504],[80.35752,7.40516],[80.35812,7.40498],[80.35843,7.40516],[80.35874,7.40508],[80.35845,7.40511],[80.35903,7.40503],[80.3591,7.40486],[80.35921,7.40475],[80.35957,7.40458],[80.3602,7.40441],[80.3607,7.40451],[80.36113,7.40468],[80.36131,7.40484],[80.36166,7.40526],[80.3619,7.40536],[80.36238,7.40539],[80.36255,7.40479],[80.36268,7.40482],[80.36274,7.40503],[80.36262,7.40519],[80.36262,7.40531],[80.36268,7.40532],[80.36272,7.40522],[80.36282,7.40519],[80.36298,7.40526],[80.36316,7.40515],[80.36308,7.40413],[80.36283,7.40359],[80.36266,7.40369],[80.36256,7.40384],[80.36256,7.40399],[80.36248,7.40404],[80.36218,7.4041],[80.36188,7.40402],[80.36156,7.40404],[80.36148,7.40409],[80.36102,7.40396],[80.36093,7.40383],[80.36102,7.40364],[80.3613,7.40352],[80.36118,7.4034],[80.36066,7.40344],[80.36057,7.40354],[80.36061,7.40366],[80.36069,7.40371],[80.36045,7.40393],[80.36031,7.4039],[80.36019,7.40378],[80.36016,7.40357],[80.36004,7.40361],[80.35994,7.40384],[80.35955,7.40385],[80.35942,7.40391],[80.3594,7.40418],[80.35907,7.40431],[80.359,7.40432],[80.35896,7.40417],[80.35865,7.40389],[80.3587,7.40378],[80.3589,7.40365],[80.35899,7.40343],[80.35892,7.40336],[80.35892,7.40329],[80.35917,7.40309],[80.35941,7.40263],[80.35941,7.4025],[80.35928,7.40226],[80.3593,7.40213],[80.35947,7.40183],[80.3596,7.402],[80.36036,7.4021],[80.36045,7.40179],[80.36052,7.40126],[80.36105,7.40093],[80.36094,7.40029],[80.36099,7.40012],[80.3609,7.39989],[80.36071,7.39967],[80.36047,7.39979],[80.36011,7.40014],[80.35998,7.4002],[80.35986,7.40023],[80.35966,7.40021],[80.35952,7.40025],[80.35935,7.4002],[80.35923,7.40032],[80.35846,7.40041],[80.35795,7.40116],[80.35751,7.40148],[80.35728,7.4014],[80.35696,7.40139],[80.35686,7.40132],[80.35614,7.40149],[80.35587,7.40136],[80.3556,7.40133],[80.35535,7.40142],[80.35538,7.40161],[80.35526,7.402],[80.35482,7.40185],[80.35451,7.40185],[80.35441,7.4019],[80.35429,7.4023],[80.35404,7.40274],[80.35391,7.40288],[80.3538,7.40333],[80.35366,7.40344]]]}},{"type":"Feature","properties":{"c":"farmland"},"geometry":{"type":"Polygon","coordinates":[[[80.39158,7.46534],[80.39214,7.4654],[80.39229,7.46537],[80.39314,7.46505],[80.39406,7.46457],[80.39422,7.46439],[80.39443,7.46372],[80.39452,7.46357],[80.39451,7.46314],[80.39457,7.46303],[80.39442,7.46272],[80.39417,7.46282],[80.39415,7.46279],[80.39414,7.46292],[80.3942,7.46301],[80.39409,7.46321],[80.39411,7.46351],[80.39396,7.4639],[80.39386,7.46398],[80.39383,7.46412],[80.39363,7.4642],[80.39305,7.4642],[80.39289,7.46414],[80.39279,7.46419],[80.39273,7.46401],[80.39277,7.46377],[80.39271,7.46361],[80.39271,7.46336],[80.39263,7.46326],[80.3926,7.46309],[80.39247,7.46308],[80.39245,7.4634],[80.39253,7.46381],[80.39248,7.46417],[80.39228,7.46446],[80.39192,7.46468],[80.39171,7.46491],[80.39158,7.46512],[80.39158,7.46534]]]}},{"type":"Feature","properties":{"c":"farmland"},"geometry":{"type":"Polygon","coordinates":[[[80.3901,7.46804],[80.39041,7.46869],[80.39056,7.46863],[80.39078,7.46836],[80.391,7.46825],[80.39111,7.46812],[80.39113,7.46802],[80.39123,7.46798],[80.39134,7.468],[80.39148,7.4681],[80.3917,7.46813],[80.39179,7.46823],[80.39243,7.46832],[80.39273,7.46818],[80.39301,7.46756],[80.3934,7.46782],[80.39389,7.4676],[80.39424,7.46734],[80.39451,7.46744],[80.39456,7.46754],[80.3947,7.46758],[80.39496,7.46723],[80.39501,7.46709],[80.39496,7.46689],[80.39511,7.46677],[80.39571,7.46604],[80.39593,7.46584],[80.39615,7.46582],[80.39632,7.46567],[80.39678,7.46571],[80.39737,7.46588],[80.39755,7.46608],[80.39779,7.46652],[80.39819,7.46688],[80.39823,7.46711],[80.39826,7.46717],[80.39832,7.46718],[80.39847,7.46686],[80.39817,7.46659],[80.39802,7.46596],[80.3981,7.46586],[80.39835,7.46575],[80.39859,7.4659],[80.39857,7.46597],[80.39882,7.4662],[80.39895,7.4661],[80.39896,7.46604],[80.39879,7.46581],[80.39852,7.46575],[80.39842,7.46546],[80.39826,7.4653],[80.39795,7.46532],[80.39781,7.46517],[80.39732,7.4652],[80.39692,7.46509],[80.39648,7.46534],[80.39638,7.46536],[80.39618,7.46529],[80.39599,7.46549],[80.39583,7.46553],[80.39579,7.46564],[80.39549,7.4658],[80.39531,7.46585],[80.3952,7.46581],[80.39524,7.46548],[80.3958,7.46473],[80.39593,7.46448],[80.39596,7.4643],[80.39609,7.46426],[80.39611,7.46416],[80.39608,7.46408],[80.39576,7.46402],[80.39483,7.46408],[80.3947,7.46423],[80.39486,7.46438],[80.39495,7.46483],[80.39493,7.46495],[80.39478,7.46503],[80.39468,7.46519],[80.39456,7.46524],[80.39464,7.46534],[80.39468,7.46549],[80.39483,7.4655],[80.39484,7.46562],[80.39478,7.46568],[80.39463,7.46575],[80.39448,7.46573],[80.39423,7.4658],[80.394,7.46577],[80.39321,7.46595],[80.39312,7.46562],[80.39304,7.46562],[80.3929,7.46582],[80.39295,7.46593],[80.39287,7.46606],[80.39258,7.46613],[80.39239,7.46599],[80.39239,7.46588],[80.3923,7.46578],[80.39232,7.46566],[80.3922,7.46557],[80.3922,7.46546],[80.39156,7.46543],[80.39122,7.46611],[80.39119,7.46717],[80.39113,7.46725],[80.39099,7.46732],[80.39088,7.46726],[80.39082,7.46738],[80.39066,7.46748],[80.3906,7.46763],[80.39028,7.4678],[80.3901,7.46804]]]}},{"type":"Feature","properties":{"c":"farmland"},"geometry":{"type":"Polygon","coordinates":[[[80.39364,7.46226],[80.39418,7.46273],[80.39448,7.46267],[80.3945,7.46256],[80.39431,7.46237],[80.39437,7.462],[80.39433,7.46195],[80.39442,7.46173],[80.39414,7.46171],[80.39403,7.46163],[80.39371,7.46176],[80.39387,7.46196],[80.39364,7.46226]]]}},{"type":"Feature","properties":{"c":"farmland"},"geometry":{"type":"Polygon","coordinates":[[[80.39349,7.46006],[80.39353,7.46015],[80.39367,7.46023],[80.39387,7.46085],[80.39403,7.46099],[80.3941,7.4615],[80.39465,7.46149],[80.39465,7.46122],[80.39452,7.46094],[80.39456,7.46076],[80.3951,7.45995],[80.39525,7.45958],[80.39555,7.45944],[80.39572,7.4592],[80.39605,7.45907],[80.39591,7.45885],[80.39595,7.45873],[80.39594,7.45837],[80.39586,7.45799],[80.39585,7.45732],[80.39566,7.45712],[80.39548,7.45706],[80.39538,7.45695],[80.39535,7.45671],[80.39548,7.45631],[80.39528,7.45625],[80.39525,7.45605],[80.39518,7.45596],[80.39523,7.45572],[80.39521,7.45567],[80.39516,7.45567],[80.39508,7.4552],[80.39525,7.45486],[80.39565,7.45442],[80.39581,7.45404],[80.39583,7.45383],[80.39526,7.45376],[80.39491,7.45363],[80.39448,7.45357],[80.39431,7.45363],[80.39407,7.45415],[80.394,7.45454],[80.39386,7.45477],[80.3937,7.45484],[80.3936,7.45495],[80.39351,7.45535],[80.39356,7.45547],[80.39407,7.45536],[80.39418,7.4551],[80.39426,7.45513],[80.39431,7.45549],[80.39439,7.45565],[80.39452,7.45575],[80.39448,7.45596],[80.39464,7.45651],[80.39482,7.45756],[80.39483,7.45802],[80.39479,7.45824],[80.39487,7.45851],[80.39516,7.45876],[80.39505,7.45892],[80.39463,7.45929],[80.3944,7.45921],[80.39437,7.4591],[80.39422,7.45914],[80.39406,7.45933],[80.39376,7.45935],[80.39358,7.45947],[80.39367,7.45986],[80.39365,7.45997],[80.39349,7.46006]]]}},{"type":"Feature","properties":{"c":"farmland"},"geometry":{"type":"Polygon","coordinates":[[[80.39403,7.47163],[80.39408,7.47234],[80.39415,7.47237],[80.39444,7.4728],[80.39457,7.47287],[80.39481,7.47351],[80.39508,7.47363],[80.39511,7.47386],[80.39524,7.47393],[80.39541,7.47391],[80.3956,7.47382],[80.39593,7.47376],[80.3965,7.4742],[80.39669,7.47427],[80.39678,7.47383],[80.39668,7.47362],[80.39683,7.47329],[80.39643,7.47306],[80.39645,7.47283],[80.39632,7.4727],[80.39602,7.47283],[80.39566,7.47264],[80.39562,7.47257],[80.3958,7.47243],[80.39574,7.47216],[80.39585,7.47199],[80.39578,7.47195],[80.3958,7.47187],[80.39575,7.4718],[80.39565,7.4718],[80.39561,7.47175],[80.39551,7.47186],[80.39533,7.47176],[80.3952,7.47179],[80.39492,7.47171],[80.39488,7.47179],[80.39477,7.47187],[80.39436,7.47167],[80.3942,7.47152],[80.39403,7.47163]]]}},{"type":"Feature","properties":{"c":"farmland"},"geometry":{"type":"Polygon","coordinates":[[[80.39324,7.47213],[80.39354,7.47246],[80.39385,7.47249],[80.39403,7.47242],[80.39408,7.47223],[80.39398,7.47192],[80.39398,7.47164],[80.39324,7.47213]]]}},{"type":"Feature","properties":{"c":"farmland"},"geometry":{"type":"Polygon","coordinates":[[[80.39636,7.47262],[80.39648,7.47271],[80.39654,7.47283],[80.39674,7.4728],[80.39688,7.47268],[80.39694,7.47272],[80.39702,7.47259],[80.39713,7.47266],[80.39732,7.47232],[80.39736,7.47213],[80.39728,7.472],[80.39703,7.47207],[80.39691,7.47203],[80.39669,7.47211],[80.39655,7.47234],[80.39658,7.47239],[80.39636,7.47262]]]}},{"type":"Feature","properties":{"c":"farmland","n":"grassland"},"geometry":{"type":"Polygon","coordinates":[[[80.35875,7.4368],[80.35974,7.43787],[80.35994,7.43799],[80.35997,7.43738],[80.3598,7.43658],[80.35875,7.4368]]]}},{"type":"Feature","properties":{"c":"industrial","n":"damro"},"geometry":{"type":"Polygon","coordinates":[[[80.42498,7.51805],[80.42636,7.51942],[80.42783,7.51803],[80.42641,7.51674],[80.42498,7.51805]]]}},{"type":"Feature","properties":{"c":"farmland","n":"Paddy Field"},"geometry":{"type":"Polygon","coordinates":[[[80.39311,7.47914],[80.39332,7.48084],[80.39364,7.48094],[80.39429,7.48037],[80.3948,7.48052],[80.39508,7.48026],[80.39577,7.4805],[80.39596,7.48071],[80.39626,7.48022],[80.39624,7.47969],[80.39594,7.47913],[80.39532,7.47911],[80.39478,7.47894],[80.39472,7.47928],[80.39386,7.47939],[80.39387,7.47894],[80.39321,7.4789],[80.39311,7.47914]]]}},{"type":"Feature","properties":{"c":"farmland"},"geometry":{"type":"Polygon","coordinates":[[[80.36611,7.43998],[80.36643,7.44029],[80.36738,7.44056],[80.36768,7.44088],[80.36821,7.44118],[80.36834,7.44163],[80.36899,7.44243],[80.3689,7.44289],[80.36904,7.44339],[80.36909,7.44402],[80.36967,7.44447],[80.36981,7.4442],[80.36981,7.44405],[80.36963,7.44373],[80.36971,7.44358],[80.36932,7.44279],[80.36941,7.44255],[80.36885,7.44134],[80.36885,7.44084],[80.36857,7.44066],[80.3686,7.44058],[80.36902,7.44068],[80.36923,7.44055],[80.36924,7.44044],[80.36953,7.44013],[80.36944,7.44001],[80.36922,7.44003],[80.36884,7.44042],[80.36823,7.44023],[80.36822,7.44004],[80.36809,7.4399],[80.36811,7.43971],[80.36801,7.43954],[80.36788,7.4398],[80.36765,7.43992],[80.36753,7.44027],[80.36721,7.44019],[80.36651,7.43968],[80.36611,7.43998]]]}},{"type":"Feature","properties":{"c":"farmland"},"geometry":{"type":"Polygon","coordinates":[[[80.36972,7.44451],[80.37026,7.44487],[80.37029,7.44514],[80.37006,7.44566],[80.37029,7.44587],[80.37006,7.44634],[80.37007,7.44648],[80.37044,7.44663],[80.37038,7.44681],[80.37061,7.44724],[80.3708,7.44727],[80.37085,7.44746],[80.3706,7.44757],[80.37035,7.44812],[80.37101,7.4485],[80.37112,7.44738],[80.37078,7.44596],[80.37094,7.44562],[80.371,7.44491],[80.37055,7.44401],[80.3701,7.44403],[80.36999,7.4442],[80.36987,7.44422],[80.36972,7.44451]]]}},{"type":"Feature","properties":{"c":"farmland"},"geometry":{"type":"Polygon","coordinates":[[[80.41304,7.51873],[80.41314,7.51885],[80.4134,7.51882],[80.41344,7.51863],[80.41361,7.51819],[80.41379,7.51802],[80.41361,7.51761],[80.41362,7.51754],[80.41326,7.51751],[80.4131,7.5181],[80.41309,7.51858],[80.41304,7.51873]]]}},{"type":"Feature","properties":{"c":"farmland"},"geometry":{"type":"Polygon","coordinates":[[[80.41328,7.51698],[80.41325,7.51746],[80.41364,7.51746],[80.41391,7.51702],[80.41393,7.51654],[80.41417,7.51611],[80.41438,7.51553],[80.41448,7.51536],[80.41461,7.51492],[80.41456,7.51481],[80.41459,7.51462],[80.41477,7.5143],[80.41482,7.51404],[80.41456,7.51376],[80.41443,7.51378],[80.41412,7.51407],[80.41399,7.5148],[80.41404,7.51502],[80.41392,7.51521],[80.41378,7.51578],[80.41355,7.51611],[80.41341,7.51648],[80.4134,7.5168],[80.41328,7.51698]]]}},{"type":"Feature","properties":{"c":"farmland"},"geometry":{"type":"Polygon","coordinates":[[[80.40793,7.50684],[80.40833,7.50705],[80.40847,7.50709],[80.40872,7.50706],[80.40887,7.50743],[80.40904,7.50755],[80.40937,7.50754],[80.40994,7.50765],[80.41015,7.50759],[80.41023,7.50742],[80.41024,7.50622],[80.41003,7.50622],[80.40997,7.50599],[80.41009,7.5057],[80.41029,7.5055],[80.41046,7.50517],[80.41046,7.50478],[80.41034,7.5045],[80.41017,7.50431],[80.40986,7.50435],[80.40977,7.50458],[80.40953,7.5048],[80.40959,7.50548],[80.4095,7.50589],[80.40915,7.50596],[80.40915,7.50604],[80.40903,7.50615],[80.40873,7.50615],[80.40861,7.50622],[80.40838,7.5062],[80.40818,7.5063],[80.40793,7.50684]]]}},{"type":"Feature","properties":{"c":"farmland"},"geometry":{"type":"Polygon","coordinates":[[[80.403,7.52004],[80.40338,7.52022],[80.40377,7.51949],[80.40408,7.51917],[80.40435,7.5188],[80.40481,7.51866],[80.40496,7.51882],[80.40518,7.5189],[80.40546,7.5189],[80.40588,7.51899],[80.40616,7.51912],[80.40669,7.51946],[80.40688,7.51972],[80.407,7.51976],[80.40707,7.5195],[80.40721,7.51964],[80.40767,7.51977],[80.40781,7.51977],[80.40815,7.51991],[80.40859,7.51959],[80.40821,7.51899],[80.40803,7.51879],[80.40777,7.51879],[80.40736,7.51894],[80.4067,7.51863],[80.40619,7.5185],[80.40598,7.51831],[80.4057,7.51816],[80.40483,7.51809],[80.40493,7.51782],[80.40458,7.51775],[80.40429,7.51792],[80.40414,7.51816],[80.4039,7.5182],[80.40355,7.51856],[80.40324,7.51899],[80.40301,7.51963],[80.403,7.52004]]]}},{"type":"Feature","properties":{"c":"farmland"},"geometry":{"type":"Polygon","coordinates":[[[80.40481,7.52297],[80.40489,7.52343],[80.40546,7.52394],[80.40577,7.52397],[80.40579,7.52435],[80.40628,7.52431],[80.4062,7.52399],[80.40658,7.52318],[80.40772,7.52284],[80.40873,7.52269],[80.40937,7.52251],[80.41013,7.52292],[80.4103,7.52313],[80.40982,7.52356],[80.4092,7.5238],[80.40851,7.52418],[80.40784,7.52493],[80.4075,7.52483],[80.40737,7.52513],[80.40713,7.52547],[80.40664,7.52575],[80.4064,7.52621],[80.40621,7.5267],[80.40643,7.5273],[80.40694,7.52699],[80.40706,7.52646],[80.40737,7.52605],[80.40771,7.52587],[80.40776,7.52553],[80.40814,7.5255],[80.40846,7.52534],[80.40866,7.52497],[80.40903,7.52459],[80.40932,7.52436],[80.40972,7.52422],[80.41019,7.52388],[80.41079,7.52368],[80.41122,7.5237],[80.41115,7.52458],[80.41046,7.52489],[80.40939,7.52575],[80.40954,7.52625],[80.4099,7.52632],[80.41006,7.52605],[80.41015,7.52571],[80.41032,7.52585],[80.41057,7.52564],[80.41085,7.52526],[80.41179,7.52442],[80.41211,7.52475],[80.41258,7.5249],[80.41178,7.52368],[80.41085,7.52265],[80.41046,7.52234],[80.41,7.52215],[80.40942,7.5212],[80.40933,7.52076],[80.40932,7.52028],[80.4092,7.51984],[80.40874,7.51995],[80.40844,7.52025],[80.40861,7.52068],[80.40887,7.52114],[80.40902,7.52155],[80.40872,7.52206],[80.40696,7.52231],[80.40657,7.52252],[80.40636,7.5221],[80.4059,7.52211],[80.40585,7.52247],[80.40552,7.52249],[80.40524,7.52274],[80.40499,7.52268],[80.40481,7.52297]]]}},{"type":"Feature","properties":{"c":"farmland"},"geometry":{"type":"Polygon","coordinates":[[[80.415,7.52707],[80.41539,7.5269],[80.41553,7.52621],[80.41575,7.52543],[80.41633,7.52482],[80.41777,7.52348],[80.41815,7.52221],[80.41795,7.52196],[80.41748,7.52242],[80.41713,7.52264],[80.41695,7.52312],[80.41698,7.52343],[80.41632,7.52387],[80.41599,7.52427],[80.4158,7.5248],[80.4152,7.52567],[80.41518,7.5261],[80.415,7.52707]]]}},{"type":"Feature","properties":{"c":"farmland"},"geometry":{"type":"Polygon","coordinates":[[[80.40369,7.49753],[80.40375,7.49767],[80.40408,7.49784],[80.40491,7.49851],[80.405,7.49913],[80.40481,7.49923],[80.40479,7.49951],[80.40539,7.49957],[80.40567,7.49971],[80.40607,7.49926],[80.40599,7.49888],[80.40579,7.49837],[80.40524,7.49759],[80.40529,7.49716],[80.40607,7.49645],[80.40639,7.49624],[80.40635,7.49585],[80.40657,7.49556],[80.40639,7.49515],[80.40655,7.49448],[80.40714,7.49306],[80.40714,7.49268],[80.4074,7.49218],[80.40736,7.49126],[80.407,7.4912],[80.40659,7.49128],[80.40652,7.49166],[80.40633,7.49212],[80.40609,7.49233],[80.40586,7.4921],[80.40534,7.49218],[80.40633,7.49286],[80.40632,7.49325],[80.40617,7.49366],[80.40596,7.49393],[80.40565,7.49404],[80.40566,7.49436],[80.4058,7.4947],[80.40585,7.49553],[80.40504,7.49607],[80.40455,7.49668],[80.40426,7.49694],[80.40399,7.49701],[80.40389,7.49728],[80.40369,7.49753]]]}},{"type":"Feature","properties":{"c":"farmland"},"geometry":{"type":"Polygon","coordinates":[[[80.40022,7.49612],[80.40025,7.49633],[80.40111,7.49667],[80.40084,7.49695],[80.40093,7.49718],[80.40206,7.49716],[80.40242,7.49706],[80.40279,7.49709],[80.40322,7.49714],[80.40341,7.49727],[80.40347,7.49747],[80.40384,7.49704],[80.40386,7.49682],[80.40368,7.49666],[80.40341,7.49655],[80.4032,7.49654],[80.40276,7.4964],[80.40251,7.4964],[80.4022,7.49632],[80.40195,7.4964],[80.4019,7.49621],[80.40166,7.49614],[80.40141,7.49616],[80.40097,7.4963],[80.40045,7.49612],[80.40022,7.49612]]]}},{"type":"Feature","properties":{"c":"farmland"},"geometry":{"type":"Polygon","coordinates":[[[80.40971,7.49547],[80.40981,7.49582],[80.40996,7.49613],[80.41025,7.49569],[80.41035,7.49583],[80.41068,7.49556],[80.41107,7.49543],[80.41112,7.49516],[80.41129,7.49485],[80.41177,7.49443],[80.41212,7.49392],[80.41242,7.49313],[80.41212,7.49297],[80.41201,7.49243],[80.41176,7.49233],[80.41142,7.49243],[80.4112,7.49239],[80.41108,7.49212],[80.41068,7.49162],[80.41058,7.49121],[80.41065,7.49084],[80.4106,7.49051],[80.41038,7.49033],[80.41012,7.49055],[80.40999,7.49091],[80.41014,7.49177],[80.41025,7.49212],[80.41042,7.49235],[80.41078,7.49249],[80.41111,7.49282],[80.41115,7.49305],[80.41099,7.49327],[80.41067,7.49338],[80.41028,7.49294],[80.41005,7.49298],[80.41045,7.49353],[80.41051,7.4938],[80.41073,7.49397],[80.41097,7.49406],[80.41092,7.49421],[80.41066,7.49432],[80.4106,7.49445],[80.41058,7.49499],[80.41047,7.49524],[80.41015,7.49517],[80.40988,7.49502],[80.40973,7.49512],[80.40971,7.49547]]]}},{"type":"Feature","properties":{"c":"farmland"},"geometry":{"type":"Polygon","coordinates":[[[80.41035,7.50127],[80.4109,7.50141],[80.41124,7.50158],[80.41147,7.5016],[80.41128,7.50112],[80.41127,7.50077],[80.41142,7.50057],[80.4118,7.49954],[80.41185,7.49913],[80.41182,7.49865],[80.41196,7.49831],[80.41234,7.49839],[80.41247,7.49857],[80.41262,7.49823],[80.41247,7.4981],[80.41217,7.49798],[80.41208,7.49772],[80.41207,7.49747],[80.41218,7.49718],[80.41269,7.49628],[80.41269,7.49599],[80.41238,7.49585],[80.41226,7.49571],[80.41211,7.4963],[80.4119,7.4968],[80.4117,7.49688],[80.41149,7.49671],[80.41141,7.49641],[80.41114,7.49579],[80.41118,7.49561],[80.41063,7.49575],[80.41051,7.49592],[80.41059,7.49626],[80.41101,7.49701],[80.41144,7.49753],[80.4114,7.49799],[80.41128,7.49812],[80.41112,7.49899],[80.41104,7.49981],[80.41091,7.49999],[80.4108,7.50006],[80.41052,7.50056],[80.41035,7.50127]]]}},{"type":"Feature","properties":{"c":"farmland"},"geometry":{"type":"Polygon","coordinates":[[[80.41371,7.50796],[80.41397,7.5081],[80.41411,7.50841],[80.4142,7.50849],[80.41437,7.50835],[80.41432,7.5077],[80.41449,7.50728],[80.41478,7.50705],[80.4148,7.50674],[80.41539,7.50601],[80.41559,7.50568],[80.41556,7.50521],[80.41547,7.50495],[80.41538,7.50433],[80.41515,7.50411],[80.41454,7.50392],[80.41449,7.50369],[80.41471,7.50328],[80.41479,7.50277],[80.41424,7.50288],[80.41395,7.50311],[80.41384,7.5034],[80.41398,7.50359],[80.414,7.50381],[80.41394,7.50391],[80.41392,7.50418],[80.41399,7.50435],[80.41418,7.5046],[80.41428,7.50462],[80.41439,7.50452],[80.41458,7.5045],[80.41466,7.50462],[80.41479,7.50469],[80.41497,7.50498],[80.41502,7.50529],[80.41494,7.50541],[80.41448,7.50539],[80.41447,7.50563],[80.41477,7.50587],[80.41459,7.50613],[80.41439,7.5066],[80.41432,7.50689],[80.41417,7.50708],[80.41402,7.50717],[80.41402,7.50736],[80.41396,7.50753],[80.41371,7.50796]]]}},{"type":"Feature","properties":{"c":"farmland"},"geometry":{"type":"Polygon","coordinates":[[[80.38541,7.46632],[80.3876,7.46711],[80.38759,7.46702],[80.38732,7.46684],[80.3873,7.46665],[80.3871,7.4664],[80.38713,7.46625],[80.38738,7.46607],[80.38739,7.46601],[80.38711,7.46569],[80.38708,7.46555],[80.38697,7.46543],[80.3868,7.46537],[80.38656,7.46534],[80.38605,7.46543],[80.38594,7.46552],[80.38541,7.46632]]]}},{"type":"Feature","properties":{"c":"farmland"},"geometry":{"type":"Polygon","coordinates":[[[80.39271,7.54406],[80.39295,7.54414],[80.39299,7.54427],[80.39324,7.54437],[80.39334,7.54448],[80.39335,7.54479],[80.39324,7.54484],[80.3932,7.545],[80.39336,7.54512],[80.39332,7.54534],[80.39342,7.54538],[80.3935,7.54555],[80.39391,7.54521],[80.39415,7.54521],[80.39431,7.54528],[80.39438,7.54552],[80.39467,7.54464],[80.39449,7.54456],[80.39451,7.54432],[80.39446,7.54423],[80.39419,7.54423],[80.39419,7.54414],[80.39428,7.54401],[80.39426,7.54373],[80.39435,7.54364],[80.39426,7.5435],[80.39407,7.54355],[80.39292,7.54345],[80.39271,7.54406]]]}},{"type":"Feature","properties":{"c":"farmland"},"geometry":{"type":"Polygon","coordinates":[[[80.39043,7.54394],[80.3907,7.54415],[80.39089,7.54443],[80.39089,7.54478],[80.39104,7.54496],[80.39081,7.5451],[80.39061,7.54542],[80.39055,7.54577],[80.39131,7.54599],[80.39133,7.54577],[80.39159,7.54549],[80.39182,7.54539],[80.39195,7.54526],[80.39194,7.54512],[80.39181,7.54492],[80.39179,7.54458],[80.39192,7.54438],[80.39152,7.54413],[80.39136,7.54421],[80.39123,7.54415],[80.39118,7.54404],[80.39101,7.54394],[80.39091,7.54381],[80.39063,7.54375],[80.3906,7.54367],[80.39043,7.54385],[80.39043,7.54394]]]}},{"type":"Feature","properties":{"c":"farmland"},"geometry":{"type":"Polygon","coordinates":[[[80.38777,7.54393],[80.3879,7.54408],[80.38812,7.54453],[80.38834,7.54446],[80.38849,7.54459],[80.38875,7.5447],[80.38887,7.54465],[80.38909,7.54468],[80.38904,7.54518],[80.38919,7.54548],[80.38907,7.54585],[80.38934,7.54583],[80.38945,7.54572],[80.38939,7.54561],[80.38933,7.54523],[80.3894,7.54489],[80.38955,7.54454],[80.38944,7.54416],[80.38937,7.5441],[80.38912,7.54403],[80.38912,7.54426],[80.38876,7.54448],[80.38869,7.54429],[80.38845,7.54429],[80.38846,7.54421],[80.38822,7.54427],[80.38814,7.54415],[80.38817,7.544],[80.38797,7.54381],[80.38777,7.54393]]]}}]}