{"type":"FeatureCollection","features":[{"type":"Feature","properties":{"c":"industrial","n":"Paddy"},"geometry":{"type":"Polygon","coordinates":[[[80.18921,7.33729],[80.18925,7.33745],[80.18939,7.33755],[80.1894,7.33765],[80.18949,7.33775],[80.1899,7.3375],[80.19013,7.3375],[80.19036,7.33743],[80.19044,7.33747],[80.19044,7.33781],[80.19036,7.33795],[80.19051,7.33866],[80.19032,7.33901],[80.19032,7.33922],[80.19041,7.33919],[80.19047,7.33899],[80.19085,7.33877],[80.19119,7.33829],[80.19118,7.33816],[80.19106,7.33809],[80.19102,7.33797],[80.19102,7.33781],[80.19188,7.33773],[80.19267,7.33752],[80.19384,7.33739],[80.19389,7.33736],[80.19378,7.33728],[80.1938,7.3371],[80.19368,7.33708],[80.19367,7.33693],[80.19383,7.33688],[80.19399,7.33657],[80.19441,7.33637],[80.19514,7.33624],[80.19534,7.33601],[80.19485,7.33568],[80.19456,7.33593],[80.19439,7.33598],[80.19375,7.33608],[80.19363,7.33606],[80.19351,7.33598],[80.19322,7.33622],[80.19325,7.3363],[80.19312,7.33643],[80.19262,7.33677],[80.19266,7.33689],[80.19262,7.3371],[80.19238,7.3373],[80.19217,7.33729],[80.19212,7.33718],[80.19222,7.33705],[80.19219,7.33696],[80.19136,7.33731],[80.19124,7.33762],[80.1911,7.33754],[80.19087,7.33764],[80.19073,7.33743],[80.19083,7.33714],[80.19092,7.33712],[80.19131,7.33673],[80.19139,7.33678],[80.19144,7.33671],[80.19147,7.33635],[80.19162,7.33632],[80.19176,7.33617],[80.19183,7.33588],[80.1918,7.33572],[80.19169,7.33565],[80.19166,7.33471],[80.19187,7.33449],[80.19174,7.33428],[80.19155,7.33413],[80.19133,7.33443],[80.19103,7.3351],[80.19057,7.33543],[80.18998,7.33636],[80.18993,7.33694],[80.18984,7.33707],[80.18977,7.3371],[80.18968,7.33697],[80.18955,7.33714],[80.18942,7.33712],[80.18921,7.33729]]]}},{"type":"Feature","properties":{"c":"farmland","n":"Paddyfield"},"geometry":{"type":"Polygon","coordinates":[[[80.19165,7.33405],[80.19196,7.33446],[80.19216,7.33444],[80.19267,7.33479],[80.19367,7.33376],[80.1941,7.33317],[80.19462,7.33285],[80.19489,7.33272],[80.19532,7.33267],[80.19557,7.33259],[80.19599,7.33234],[80.19613,7.33242],[80.19627,7.33258],[80.19658,7.3327],[80.19679,7.33231],[80.19702,7.33232],[80.19722,7.33218],[80.19734,7.33225],[80.19763,7.33217],[80.19793,7.33196],[80.19822,7.33162],[80.19851,7.3315],[80.19878,7.33121],[80.19892,7.33129],[80.19915,7.33126],[80.19942,7.33115],[80.19958,7.33126],[80.19993,7.33123],[80.20002,7.33129],[80.20039,7.33109],[80.20061,7.33109],[80.20105,7.33118],[80.20148,7.33165],[80.20234,7.3316],[80.20239,7.33166],[80.20255,7.33158],[80.20279,7.33162],[80.20289,7.33159],[80.20351,7.3318],[80.20385,7.33173],[80.20393,7.33187],[80.20407,7.33192],[80.20454,7.33238],[80.20483,7.33247],[80.20488,7.33264],[80.20541,7.33333],[80.20556,7.33333],[80.20577,7.33319],[80.20553,7.33271],[80.20554,7.33258],[80.20561,7.33252],[80.20635,7.33251],[80.2063,7.33221],[80.20624,7.33215],[80.20611,7.33216],[80.20579,7.33205],[80.20539,7.33204],[80.20528,7.33195],[80.20519,7.33181],[80.20513,7.33158],[80.20499,7.33142],[80.20487,7.33103],[80.20447,7.33056],[80.20421,7.33033],[80.20387,7.33014],[80.20345,7.32993],[80.20323,7.32991],[80.20352,7.32968],[80.20357,7.3295],[80.20303,7.32947],[80.20295,7.32907],[80.20264,7.32917],[80.20263,7.32984],[80.203,7.32987],[80.20293,7.33009],[80.20278,7.33024],[80.20255,7.33031],[80.20192,7.33012],[80.20204,7.32967],[80.20175,7.32952],[80.2018,7.32922],[80.20194,7.32908],[80.2026,7.32916],[80.20335,7.32892],[80.20347,7.32823],[80.20358,7.32817],[80.20422,7.3281],[80.20439,7.32819],[80.20476,7.32812],[80.20523,7.32819],[80.20546,7.32835],[80.20571,7.32858],[80.20589,7.32885],[80.20626,7.32976],[80.20646,7.32977],[80.20655,7.32972],[80.20644,7.32933],[80.20641,7.32884],[80.20628,7.32872],[80.20625,7.32859],[80.20628,7.32827],[80.20606,7.32771],[80.20559,7.32769],[80.20555,7.32724],[80.20525,7.32696],[80.20499,7.32691],[80.20506,7.32653],[80.20537,7.32664],[80.20569,7.32664],[80.20585,7.32569],[80.20605,7.32554],[80.20616,7.32552],[80.20645,7.3253],[80.2068,7.32536],[80.20694,7.32545],[80.20708,7.3254],[80.20714,7.32502],[80.20693,7.32471],[80.20692,7.32462],[80.20666,7.32451],[80.20598,7.32435],[80.20485,7.32419],[80.20435,7.32421],[80.20419,7.32432],[80.2038,7.32436],[80.20367,7.32448],[80.20324,7.32451],[80.2031,7.32444],[80.20305,7.32414],[80.20297,7.32399],[80.20295,7.32374],[80.20301,7.32354],[80.20297,7.32322],[80.20308,7.32316],[80.2032,7.32266],[80.20339,7.32242],[80.20348,7.32217],[80.20355,7.32217],[80.20369,7.32189],[80.20325,7.32162],[80.20317,7.32186],[80.20297,7.32184],[80.20287,7.32191],[80.2027,7.32184],[80.20256,7.32151],[80.2022,7.32179],[80.20176,7.32254],[80.20172,7.3231],[80.2011,7.32388],[80.20108,7.3241],[80.20114,7.32425],[80.20134,7.3245],[80.20142,7.32453],[80.20158,7.32501],[80.20158,7.32539],[80.20149,7.32554],[80.20147,7.32574],[80.20131,7.32598],[80.20164,7.32615],[80.2016,7.32634],[80.2014,7.32663],[80.20103,7.32698],[80.20071,7.32758],[80.20003,7.32858],[80.20037,7.32866],[80.20032,7.32877],[80.20023,7.32874],[80.2001,7.32887],[80.19999,7.32912],[80.19987,7.32909],[80.19914,7.32925],[80.19893,7.32945],[80.19899,7.32959],[80.19871,7.32976],[80.19842,7.32968],[80.19822,7.32974],[80.19823,7.32993],[80.1983,7.33006],[80.19798,7.33005],[80.19777,7.33022],[80.19777,7.33008],[80.19768,7.32997],[80.19758,7.33004],[80.19749,7.33033],[80.1971,7.33035],[80.19654,7.33049],[80.1962,7.3305],[80.196,7.33062],[80.19575,7.3308],[80.19538,7.33138],[80.19486,7.33163],[80.19477,7.33158],[80.19431,7.33171],[80.19403,7.33199],[80.19377,7.33239],[80.19307,7.33291],[80.19223,7.33345],[80.19227,7.33361],[80.1921,7.33387],[80.19196,7.33396],[80.19165,7.33405]]]}},{"type":"Feature","properties":{"c":"park","n":"Play Ground"},"geometry":{"type":"Polygon","coordinates":[[[80.21414,7.33903],[80.21439,7.3392],[80.21482,7.33928],[80.2151,7.33879],[80.21448,7.3384],[80.21414,7.33903]]]}},{"type":"Feature","properties":{"c":"cemetery","n":"Henduwawa Cemetary"},"geometry":{"type":"Polygon","coordinates":[[[80.18877,7.33641],[80.18895,7.33706],[80.18927,7.33705],[80.18911,7.33646],[80.18877,7.33641]]]}},{"type":"Feature","properties":{"c":"farmland"},"geometry":{"type":"Polygon","coordinates":[[[80.19908,7.37798],[80.19914,7.37807],[80.19922,7.37806],[80.19968,7.37757],[80.20043,7.37732],[80.2005,7.37733],[80.20069,7.3776],[80.20047,7.37803],[80.20042,7.37805],[80.19965,7.37799],[80.19961,7.37803],[80.19942,7.37966],[80.19946,7.37971],[80.19983,7.37981],[80.20045,7.37937],[80.20062,7.37845],[80.20105,7.37842],[80.20122,7.37817],[80.20126,7.37763],[80.20151,7.37731],[80.20132,7.3766],[80.20138,7.37657],[80.20251,7.37699],[80.20207,7.37768],[80.20207,7.37776],[80.20255,7.37812],[80.20307,7.37808],[80.20363,7.37774],[80.2037,7.37775],[80.20402,7.37826],[80.20409,7.37829],[80.20468,7.37792],[80.20528,7.37776],[80.20536,7.37778],[80.20551,7.37809],[80.20555,7.3781],[80.2056,7.37796],[80.20565,7.37795],[80.2059,7.37807],[80.2059,7.37812],[80.20558,7.37828],[80.20545,7.37863],[80.2055,7.37868],[80.20648,7.37915],[80.20705,7.37887],[80.20716,7.37891],[80.20809,7.38044],[80.20855,7.38055],[80.20926,7.38],[80.20909,7.37962],[80.20849,7.37923],[80.20786,7.37816],[80.20746,7.37777],[80.20734,7.37771],[80.20643,7.37749],[80.2059,7.3772],[80.2054,7.37682],[80.20503,7.37635],[80.20497,7.3763],[80.2048,7.3763],[80.20469,7.37619],[80.20476,7.37574],[80.20509,7.3755],[80.20521,7.37473],[80.2056,7.37399],[80.20577,7.37348],[80.20584,7.37337],[80.20565,7.37274],[80.20571,7.37238],[80.206,7.37237],[80.20713,7.37291],[80.20762,7.37286],[80.20879,7.3734],[80.20928,7.37339],[80.20931,7.37334],[80.2093,7.3733],[80.20785,7.37215],[80.20779,7.37215],[80.20755,7.37232],[80.20747,7.37231],[80.20724,7.37213],[80.20747,7.37151],[80.20742,7.37146],[80.20693,7.37132],[80.20653,7.37061],[80.2066,7.36999],[80.20625,7.36938],[80.20623,7.36883],[80.20565,7.36744],[80.20566,7.3674],[80.2061,7.36737],[80.20623,7.36716],[80.20621,7.36711],[80.20561,7.36678],[80.20554,7.36629],[80.20584,7.36565],[80.20557,7.36511],[80.20544,7.36505],[80.20519,7.36518],[80.20495,7.36513],[80.20493,7.36477],[80.20489,7.36475],[80.20459,7.36489],[80.20444,7.36542],[80.20454,7.36593],[80.20476,7.36622],[80.20463,7.36794],[80.20488,7.36824],[80.20539,7.36969],[80.20522,7.37174],[80.20518,7.37183],[80.20477,7.37211],[80.20472,7.3725],[80.2045,7.37268],[80.20413,7.37377],[80.20399,7.37478],[80.20381,7.37508],[80.20387,7.37526],[80.20386,7.37539],[80.20376,7.37548],[80.20312,7.3756],[80.20276,7.37575],[80.2023,7.37571],[80.20169,7.37536],[80.2017,7.37501],[80.20148,7.37453],[80.20124,7.37448],[80.2009,7.3746],[80.20031,7.3746],[80.1998,7.37491],[80.19975,7.37498],[80.1992,7.37667],[80.19908,7.37798]]]}},{"type":"Feature","properties":{"c":"farmland"},"geometry":{"type":"Polygon","coordinates":[[[80.19393,7.27392],[80.19407,7.27409],[80.1942,7.27402],[80.19429,7.27395],[80.19423,7.27368],[80.19416,7.27378],[80.1941,7.27377],[80.19393,7.27392]]]}},{"type":"Feature","properties":{"c":"meadow"},"geometry":{"type":"Polygon","coordinates":[[[80.21896,7.35215],[80.21902,7.35244],[80.21896,7.35258],[80.21899,7.35275],[80.21929,7.35284],[80.21932,7.3527],[80.21924,7.35263],[80.2192,7.35236],[80.21925,7.35191],[80.21921,7.35182],[80.21931,7.35178],[80.21923,7.35161],[80.21932,7.35157],[80.21913,7.35158],[80.21898,7.35194],[80.21896,7.35215]]]}},{"type":"Feature","properties":{"c":"meadow"},"geometry":{"type":"Polygon","coordinates":[[[80.2188,7.35284],[80.21907,7.35375],[80.21914,7.35376],[80.21938,7.35348],[80.21924,7.35315],[80.21924,7.35298],[80.21887,7.35278],[80.2188,7.35284]]]}},{"type":"Feature","properties":{"c":"farmland"},"geometry":{"type":"Polygon","coordinates":[[[80.21885,7.35408],[80.21907,7.35412],[80.21912,7.35388],[80.2189,7.35384],[80.21885,7.35408]]]}},{"type":"Feature","properties":{"c":"farmland"},"geometry":{"type":"Polygon","coordinates":[[[80.1773,7.31226],[80.17767,7.31232],[80.17791,7.31083],[80.17753,7.31078],[80.1773,7.31226]]]}},{"type":"Feature","properties":{"c":"farmland"},"geometry":{"type":"Polygon","coordinates":[[[80.26119,7.39256],[80.26304,7.39413],[80.2631,7.39371],[80.26305,7.39337],[80.26287,7.39298],[80.26287,7.39245],[80.26324,7.39213],[80.26343,7.39147],[80.26413,7.38981],[80.26429,7.38983],[80.26547,7.38859],[80.26544,7.38824],[80.26502,7.38808],[80.26474,7.38773],[80.26431,7.38793],[80.26377,7.3884],[80.26359,7.38864],[80.26361,7.38891],[80.26317,7.39032],[80.26207,7.39129],[80.26119,7.39256]]]}},{"type":"Feature","properties":{"c":"farmland"},"geometry":{"type":"Polygon","coordinates":[[[80.26079,7.39352],[80.26088,7.39366],[80.26103,7.39358],[80.26123,7.39365],[80.26132,7.39324],[80.26154,7.39302],[80.2611,7.39267],[80.26095,7.3929],[80.26092,7.39321],[80.26079,7.39352]]]}},{"type":"Feature","properties":{"c":"farmland"},"geometry":{"type":"Polygon","coordinates":[[[80.26141,7.39416],[80.26194,7.39424],[80.26183,7.39449],[80.26211,7.39456],[80.26259,7.39486],[80.26292,7.39459],[80.26288,7.39423],[80.26224,7.39363],[80.26171,7.39373],[80.26141,7.39416]]]}},{"type":"Feature","properties":{"c":"farmyard"},"geometry":{"type":"Polygon","coordinates":[[[80.19438,7.317],[80.19443,7.31708],[80.19452,7.31703],[80.19447,7.31694],[80.19438,7.317]]]}},{"type":"Feature","properties":{"c":"farmyard"},"geometry":{"type":"Polygon","coordinates":[[[80.19533,7.31649],[80.19548,7.31694],[80.19607,7.31679],[80.19589,7.31634],[80.19533,7.31649]]]}},{"type":"Feature","properties":{"c":"residential"},"geometry":{"type":"Polygon","coordinates":[[[80.23102,7.32317],[80.23109,7.32325],[80.23103,7.32329],[80.23112,7.32332],[80.23119,7.32314],[80.23105,7.32309],[80.23102,7.32317]]]}},{"type":"Feature","properties":{"c":"residential"},"geometry":{"type":"Polygon","coordinates":[[[80.17138,7.29131],[80.17146,7.29148],[80.17155,7.29144],[80.17147,7.29127],[80.17138,7.29131]]]}},{"type":"Feature","properties":{"c":"residential"},"geometry":{"type":"Polygon","coordinates":[[[80.17132,7.29145],[80.17137,7.29154],[80.17146,7.29148],[80.17141,7.2914],[80.17132,7.29145]]]}},{"type":"Feature","properties":{"c":"farmland"},"geometry":{"type":"Polygon","coordinates":[[[80.20185,7.31802],[80.20196,7.31808],[80.20203,7.31788],[80.20193,7.31785],[80.20185,7.31802]]]}},{"type":"Feature","properties":{"c":"residential"},"geometry":{"type":"Polygon","coordinates":[[[80.22092,7.35751],[80.22126,7.35759],[80.22127,7.35736],[80.22094,7.35733],[80.22092,7.35751]]]}},{"type":"Feature","properties":{"c":"farmland"},"geometry":{"type":"Polygon","coordinates":[[[80.22675,7.35462],[80.22684,7.35491],[80.22687,7.35555],[80.22704,7.35575],[80.22721,7.35581],[80.22758,7.35619],[80.22764,7.35619],[80.22763,7.35165],[80.22745,7.35164],[80.22728,7.35275],[80.22683,7.35339],[80.22675,7.35462]]]}},{"type":"Feature","properties":{"c":"farmland"},"geometry":{"type":"Polygon","coordinates":[[[80.22769,7.34074],[80.22774,7.34357],[80.22866,7.34488],[80.22859,7.34605],[80.22925,7.34609],[80.22925,7.34557],[80.2296,7.34513],[80.22995,7.34539],[80.2304,7.34553],[80.23069,7.3454],[80.23133,7.34603],[80.23264,7.34605],[80.2327,7.34552],[80.23219,7.3452],[80.23199,7.34492],[80.23187,7.34463],[80.23171,7.34455],[80.23141,7.34456],[80.2312,7.34444],[80.231,7.3444],[80.23085,7.34412],[80.23108,7.34385],[80.23155,7.34372],[80.23175,7.34376],[80.23202,7.34389],[80.23234,7.34389],[80.2326,7.34369],[80.2328,7.34415],[80.23309,7.34452],[80.23311,7.34184],[80.23293,7.34176],[80.2327,7.34154],[80.23241,7.34137],[80.23156,7.34154],[80.23144,7.34146],[80.23113,7.34165],[80.23031,7.34137],[80.23001,7.3407],[80.22769,7.34074]]]}},{"type":"Feature","properties":{"c":"forest"},"geometry":{"type":"Polygon","coordinates":[[[80.20149,7.29829],[80.20256,7.29936],[80.20392,7.2985],[80.204,7.29739],[80.2045,7.29759],[80.20403,7.29908],[80.20394,7.3001],[80.20468,7.30016],[80.20486,7.30043],[80.20472,7.30086],[80.20485,7.30099],[80.20551,7.30088],[80.20569,7.30006],[80.2061,7.30008],[80.20607,7.30079],[80.2047,7.30148],[80.20578,7.30315],[80.20726,7.30344],[80.20791,7.30228],[80.20839,7.30249],[80.20922,7.30296],[80.21054,7.30119],[80.21091,7.2999],[80.21083,7.29908],[80.21154,7.29777],[80.21044,7.29675],[80.21,7.29538],[80.20903,7.29485],[80.20808,7.29474],[80.20709,7.29469],[80.2058,7.2943],[80.20534,7.29454],[80.20474,7.29442],[80.20448,7.29496],[80.20468,7.29561],[80.20449,7.29611],[80.20392,7.29666],[80.20341,7.29622],[80.20209,7.29656],[80.20166,7.29731],[80.20149,7.29829]]]}},{"type":"Feature","properties":{"c":"farmyard"},"geometry":{"type":"Polygon","coordinates":[[[80.18606,7.30048],[80.1861,7.30059],[80.18633,7.30025],[80.18646,7.30027],[80.18647,7.30069],[80.18688,7.30065],[80.18722,7.30081],[80.18733,7.30129],[80.18783,7.3014],[80.18838,7.3014],[80.18926,7.30228],[80.18954,7.30237],[80.18974,7.30263],[80.18992,7.30313],[80.19019,7.30311],[80.19028,7.3014],[80.19041,7.30118],[80.1911,7.30151],[80.19233,7.30133],[80.19258,7.30143],[80.1929,7.30126],[80.19264,7.30132],[80.19264,7.30117],[80.19281,7.301],[80.19238,7.30041],[80.19209,7.29986],[80.19202,7.29922],[80.19213,7.29843],[80.19168,7.29819],[80.19146,7.29825],[80.19121,7.29789],[80.19052,7.29754],[80.19042,7.29727],[80.1899,7.29688],[80.18969,7.29698],[80.18885,7.2962],[80.18817,7.296],[80.18822,7.296],[80.18806,7.29599],[80.18801,7.29601],[80.18828,7.29631],[80.18879,7.29652],[80.18906,7.29782],[80.18889,7.2983],[80.18913,7.29821],[80.18938,7.29775],[80.19012,7.29758],[80.19036,7.29804],[80.19056,7.29817],[80.19083,7.29852],[80.19081,7.29874],[80.19089,7.29886],[80.19102,7.2994],[80.19092,7.29973],[80.19095,7.30002],[80.19086,7.30029],[80.19054,7.30034],[80.18984,7.29992],[80.1893,7.29976],[80.18807,7.29995],[80.18766,7.30006],[80.1871,7.29965],[80.18675,7.29994],[80.18646,7.29982],[80.18606,7.30048]]]}},{"type":"Feature","properties":{"c":"residential"},"geometry":{"type":"Polygon","coordinates":[[[80.19555,7.28161],[80.19571,7.28171],[80.19584,7.28151],[80.19567,7.28141],[80.19555,7.28161]]]}},{"type":"Feature","properties":{"c":"farmland"},"geometry":{"type":"Polygon","coordinates":[[[80.20741,7.32537],[80.2076,7.32539],[80.2076,7.32532],[80.20742,7.3253],[80.20741,7.32537]]]}},{"type":"Feature","properties":{"c":"farmland"},"geometry":{"type":"Polygon","coordinates":[[[80.2075,7.32527],[80.20781,7.32527],[80.20786,7.3251],[80.20755,7.32502],[80.2075,7.32527]]]}},{"type":"Feature","properties":{"c":"farmland"},"geometry":{"type":"Polygon","coordinates":[[[80.26477,7.38759],[80.26495,7.38771],[80.26505,7.38801],[80.26546,7.38818],[80.26608,7.38732],[80.26607,7.38503],[80.26576,7.38551],[80.26596,7.38569],[80.26564,7.38607],[80.26563,7.38627],[80.26539,7.38652],[80.26531,7.38654],[80.26522,7.38668],[80.26525,7.38681],[80.26519,7.38705],[80.26523,7.38726],[80.26513,7.38741],[80.26477,7.38759]]]}},{"type":"Feature","properties":{"c":"farmland"},"geometry":{"type":"Polygon","coordinates":[[[80.20262,7.28942],[80.2028,7.28962],[80.20296,7.28948],[80.20278,7.28928],[80.20262,7.28942]]]}},{"type":"Feature","properties":{"c":"farmland"},"geometry":{"type":"Polygon","coordinates":[[[80.18628,7.31034],[80.18652,7.31065],[80.18677,7.31049],[80.18708,7.31052],[80.18746,7.31019],[80.1876,7.31042],[80.18795,7.31075],[80.1884,7.31153],[80.18837,7.31187],[80.18816,7.31253],[80.18799,7.31283],[80.18795,7.31321],[80.18778,7.31359],[80.18746,7.31388],[80.1864,7.31522],[80.18717,7.31555],[80.18784,7.31495],[80.188,7.31446],[80.18834,7.31402],[80.18844,7.31318],[80.18879,7.313],[80.18886,7.31329],[80.18931,7.31302],[80.19033,7.31265],[80.19059,7.31235],[80.19178,7.31138],[80.19243,7.31156],[80.19314,7.31237],[80.19331,7.31316],[80.19517,7.31214],[80.19447,7.31176],[80.19369,7.3111],[80.1937,7.31051],[80.19383,7.31008],[80.19357,7.30968],[80.19352,7.30899],[80.19228,7.30816],[80.19158,7.30868],[80.19155,7.30909],[80.1912,7.30948],[80.19056,7.31042],[80.19025,7.31044],[80.19012,7.31063],[80.18983,7.31076],[80.18927,7.31072],[80.18871,7.31075],[80.18832,7.31032],[80.1884,7.31012],[80.18818,7.30985],[80.18784,7.30956],[80.18769,7.30912],[80.18742,7.30916],[80.18725,7.30936],[80.18711,7.30993],[80.18692,7.31004],[80.18639,7.31009],[80.18628,7.31034]]]}},{"type":"Feature","properties":{"c":"farmland"},"geometry":{"type":"Polygon","coordinates":[[[80.18137,7.32009],[80.18229,7.3203],[80.18255,7.32068],[80.18261,7.32114],[80.18253,7.32157],[80.18257,7.32169],[80.18244,7.32216],[80.18222,7.32241],[80.18245,7.32299],[80.18284,7.32339],[80.18321,7.32323],[80.1834,7.32225],[80.18406,7.3216],[80.18468,7.32091],[80.18532,7.32069],[80.18497,7.32045],[80.18547,7.31945],[80.1856,7.31907],[80.18617,7.3189],[80.18708,7.31884],[80.18746,7.31947],[80.18732,7.32008],[80.18731,7.32044],[80.18739,7.32085],[80.18791,7.32066],[80.18778,7.32],[80.18821,7.31919],[80.18772,7.31896],[80.18787,7.31849],[80.18818,7.31846],[80.18904,7.31778],[80.18911,7.31732],[80.18881,7.31728],[80.18802,7.31741],[80.1877,7.31705],[80.18754,7.31676],[80.18761,7.31641],[80.18746,7.31606],[80.18697,7.31563],[80.18638,7.31533],[80.18614,7.3155],[80.18588,7.31552],[80.18555,7.31538],[80.18539,7.3154],[80.18484,7.31487],[80.18468,7.31449],[80.18479,7.31431],[80.18471,7.31408],[80.18484,7.31388],[80.18484,7.31331],[80.18471,7.31293],[80.18471,7.31253],[80.18482,7.31224],[80.18448,7.31155],[80.18449,7.31105],[80.18408,7.30974],[80.18379,7.30984],[80.18361,7.31038],[80.18383,7.31071],[80.18391,7.31104],[80.18383,7.31113],[80.18401,7.31179],[80.18418,7.31193],[80.18411,7.31225],[80.18421,7.31264],[80.18408,7.31287],[80.18426,7.3135],[80.18417,7.31381],[80.18413,7.31423],[80.18429,7.31494],[80.18477,7.31517],[80.18526,7.31555],[80.18554,7.31593],[80.18591,7.31602],[80.18593,7.31649],[80.18612,7.3166],[80.18631,7.31715],[80.18577,7.31768],[80.18488,7.31838],[80.1839,7.31898],[80.18351,7.31902],[80.18316,7.31881],[80.18279,7.31807],[80.18288,7.31737],[80.18314,7.31708],[80.18284,7.31686],[80.18258,7.31677],[80.18278,7.31615],[80.18326,7.316],[80.18322,7.31575],[80.18266,7.31555],[80.18224,7.31625],[80.18216,7.3167],[80.18229,7.31695],[80.18241,7.31734],[80.18213,7.31879],[80.18196,7.31941],[80.18149,7.31966],[80.18137,7.32009]]]}},{"type":"Feature","properties":{"c":"industrial"},"geometry":{"type":"Polygon","coordinates":[[[80.18969,7.31895],[80.18974,7.31908],[80.19014,7.31935],[80.19006,7.31954],[80.1907,7.31986],[80.19097,7.31986],[80.19105,7.31968],[80.19129,7.31977],[80.19139,7.31995],[80.19157,7.31999],[80.19168,7.31997],[80.19183,7.31982],[80.19207,7.31991],[80.19198,7.32033],[80.19259,7.32052],[80.19263,7.32042],[80.19273,7.32045],[80.19281,7.32018],[80.19253,7.32002],[80.19259,7.31983],[80.19208,7.31958],[80.19206,7.31963],[80.19172,7.31952],[80.19174,7.31936],[80.1919,7.31939],[80.19192,7.31926],[80.19204,7.31928],[80.1921,7.31908],[80.19226,7.31911],[80.19238,7.31858],[80.19216,7.31824],[80.19228,7.31784],[80.19225,7.31768],[80.19211,7.3177],[80.19201,7.31787],[80.19181,7.318],[80.19151,7.31764],[80.19105,7.3175],[80.19072,7.31756],[80.1905,7.31771],[80.1903,7.31807],[80.19033,7.3182],[80.19023,7.31832],[80.19007,7.31834],[80.19001,7.31824],[80.18991,7.31823],[80.18969,7.31895]]]}},{"type":"Feature","properties":{"c":"scrub"},"geometry":{"type":"Polygon","coordinates":[[[80.16961,7.2876],[80.16969,7.28786],[80.16991,7.288],[80.17038,7.28803],[80.17099,7.28729],[80.17082,7.28676],[80.17052,7.28649],[80.17034,7.28663],[80.17026,7.28656],[80.16999,7.28689],[80.16977,7.28693],[80.16961,7.2876]]]}},{"type":"Feature","properties":{"c":"forest"},"geometry":{"type":"Polygon","coordinates":[[[80.19291,7.27254],[80.19436,7.27254],[80.19465,7.2719],[80.19345,7.27212],[80.19291,7.27254]]]}},{"type":"Feature","properties":{"c":"forest"},"geometry":{"type":"Polygon","coordinates":[[[80.19373,7.27123],[80.19389,7.27147],[80.19432,7.27175],[80.19468,7.27175],[80.19466,7.27095],[80.19415,7.27049],[80.19386,7.27051],[80.19373,7.27123]]]}},{"type":"Feature","properties":{"c":"forest"},"geometry":{"type":"Polygon","coordinates":[[[80.26871,7.32803],[80.2688,7.32811],[80.26889,7.32804],[80.26881,7.32798],[80.26871,7.32803]]]}},{"type":"Feature","properties":{"c":"farmland"},"geometry":{"type":"Polygon","coordinates":[[[80.20113,7.3149],[80.20118,7.31575],[80.20157,7.31592],[80.20166,7.31567],[80.20172,7.31493],[80.20113,7.3149]]]}},{"type":"Feature","properties":{"c":"farmland"},"geometry":{"type":"Polygon","coordinates":[[[80.20157,7.31592],[80.20188,7.31611],[80.20209,7.31546],[80.20191,7.31544],[80.20167,7.31551],[80.20157,7.31592]]]}},{"type":"Feature","properties":{"c":"farmland"},"geometry":{"type":"Polygon","coordinates":[[[80.20169,7.31515],[80.2021,7.31514],[80.20216,7.31474],[80.20172,7.31493],[80.20169,7.31515]]]}},{"type":"Feature","properties":{"c":"farmland"},"geometry":{"type":"Polygon","coordinates":[[[80.20167,7.31551],[80.20191,7.31544],[80.20203,7.31545],[80.2021,7.31514],[80.20169,7.31515],[80.20167,7.31551]]]}},{"type":"Feature","properties":{"c":"farmland"},"geometry":{"type":"Polygon","coordinates":[[[80.20203,7.31545],[80.20223,7.31545],[80.20233,7.31511],[80.20211,7.31506],[80.20203,7.31545]]]}},{"type":"Feature","properties":{"c":"farmland"},"geometry":{"type":"Polygon","coordinates":[[[80.20211,7.31506],[80.20233,7.31511],[80.20242,7.31476],[80.20216,7.31474],[80.20211,7.31506]]]}},{"type":"Feature","properties":{"c":"farmland"},"geometry":{"type":"Polygon","coordinates":[[[80.20188,7.31611],[80.20214,7.31626],[80.20238,7.31553],[80.20223,7.31545],[80.20209,7.31546],[80.20188,7.31611]]]}},{"type":"Feature","properties":{"c":"farmland"},"geometry":{"type":"Polygon","coordinates":[[[80.20214,7.31626],[80.20226,7.31637],[80.20242,7.3164],[80.20253,7.31597],[80.20227,7.31592],[80.20214,7.31626]]]}},{"type":"Feature","properties":{"c":"farmland"},"geometry":{"type":"Polygon","coordinates":[[[80.20227,7.31592],[80.20253,7.31597],[80.20254,7.31549],[80.20238,7.31553],[80.20227,7.31592]]]}},{"type":"Feature","properties":{"c":"farmland"},"geometry":{"type":"Polygon","coordinates":[[[80.20047,7.31553],[80.20118,7.31575],[80.20113,7.3149],[80.2005,7.31495],[80.20047,7.31553]]]}},{"type":"Feature","properties":{"c":"forest"},"geometry":{"type":"Polygon","coordinates":[[[80.24458,7.33194],[80.2472,7.33269],[80.2471,7.33389],[80.25111,7.33499],[80.25127,7.33455],[80.25165,7.33455],[80.2517,7.33375],[80.25186,7.33333],[80.25184,7.33318],[80.25049,7.33304],[80.25046,7.33065],[80.25146,7.33079],[80.25118,7.33139],[80.25227,7.33208],[80.25311,7.33147],[80.25347,7.33148],[80.25424,7.33044],[80.25425,7.33013],[80.25493,7.32952],[80.25542,7.3279],[80.25578,7.32739],[80.25568,7.32434],[80.25664,7.32429],[80.2572,7.3232],[80.25759,7.32288],[80.25764,7.32257],[80.25728,7.32238],[80.25712,7.32215],[80.25552,7.3223],[80.25556,7.32104],[80.25499,7.32099],[80.25478,7.32071],[80.2528,7.32078],[80.25293,7.32133],[80.25178,7.3216],[80.25167,7.32058],[80.24916,7.321],[80.24731,7.3253],[80.24576,7.32874],[80.24659,7.32902],[80.24608,7.33025],[80.24462,7.32996],[80.24458,7.33194]]]}},{"type":"Feature","properties":{"c":"farmland"},"geometry":{"type":"Polygon","coordinates":[[[80.262,7.30996],[80.26257,7.31043],[80.26296,7.31063],[80.26307,7.31086],[80.26321,7.31096],[80.26343,7.31147],[80.26333,7.31188],[80.26355,7.31225],[80.26358,7.31262],[80.26347,7.31263],[80.26309,7.31353],[80.26298,7.31352],[80.26291,7.31364],[80.26276,7.31364],[80.26261,7.31373],[80.26253,7.31396],[80.26241,7.31407],[80.26302,7.3145],[80.26334,7.3144],[80.26372,7.3145],[80.26439,7.31452],[80.26429,7.31399],[80.26443,7.31369],[80.26478,7.31366],[80.26479,7.31331],[80.26435,7.31314],[80.2645,7.3128],[80.26442,7.31244],[80.26452,7.31228],[80.26462,7.31234],[80.26479,7.31221],[80.26469,7.31213],[80.26488,7.31194],[80.26403,7.31128],[80.26413,7.31112],[80.26375,7.31083],[80.26344,7.31094],[80.26327,7.31044],[80.2621,7.30976],[80.262,7.30996]]]}},{"type":"Feature","properties":{"c":"farmland"},"geometry":{"type":"Polygon","coordinates":[[[80.26215,7.31449],[80.26219,7.31488],[80.26255,7.31503],[80.26284,7.31452],[80.26253,7.31443],[80.26228,7.31413],[80.26215,7.31449]]]}},{"type":"Feature","properties":{"c":"farmland"},"geometry":{"type":"Polygon","coordinates":[[[80.25765,7.32287],[80.25777,7.32349],[80.25793,7.32361],[80.25799,7.32385],[80.25822,7.32368],[80.25838,7.32323],[80.25873,7.32305],[80.25938,7.32214],[80.25938,7.32205],[80.25969,7.32187],[80.2599,7.32167],[80.26,7.32134],[80.26034,7.32107],[80.261,7.32034],[80.26117,7.31996],[80.26127,7.31986],[80.26148,7.31921],[80.26208,7.3184],[80.26211,7.31814],[80.26269,7.31747],[80.26281,7.31714],[80.2631,7.31684],[80.26317,7.31664],[80.26363,7.3161],[80.26422,7.31565],[80.2644,7.31497],[80.26465,7.31483],[80.26465,7.31468],[80.26441,7.31461],[80.26373,7.31461],[80.26337,7.3145],[80.26316,7.31459],[80.26297,7.31458],[80.26282,7.31473],[80.26266,7.31511],[80.26276,7.31516],[80.26276,7.31535],[80.26295,7.31561],[80.26287,7.31595],[80.26242,7.31646],[80.26217,7.31657],[80.26206,7.31686],[80.26191,7.31689],[80.2619,7.31676],[80.26115,7.31671],[80.26075,7.31629],[80.26073,7.31608],[80.26053,7.31581],[80.25992,7.31596],[80.25991,7.31616],[80.26016,7.31618],[80.26022,7.31638],[80.26001,7.31661],[80.25963,7.31663],[80.2595,7.31696],[80.25963,7.3171],[80.2598,7.3169],[80.26044,7.31687],[80.26051,7.31677],[80.26069,7.31681],[80.26083,7.31701],[80.26101,7.31709],[80.2611,7.31704],[80.26157,7.31721],[80.26151,7.31735],[80.261,7.31768],[80.26084,7.31834],[80.26069,7.31857],[80.26065,7.31906],[80.26078,7.31923],[80.26073,7.3195],[80.26038,7.32022],[80.25999,7.32039],[80.25961,7.32029],[80.25933,7.32047],[80.25913,7.32048],[80.25865,7.32004],[80.25823,7.31933],[80.25807,7.31932],[80.25801,7.31953],[80.2579,7.31957],[80.25771,7.31953],[80.25778,7.31982],[80.25784,7.31987],[80.25778,7.32023],[80.2581,7.32026],[80.25838,7.32045],[80.25844,7.32066],[80.25828,7.32097],[80.25853,7.32104],[80.25851,7.32119],[80.25818,7.32128],[80.25807,7.32145],[80.25805,7.32182],[80.25827,7.32187],[80.25826,7.32213],[80.25803,7.32272],[80.25783,7.3228],[80.25772,7.32274],[80.25765,7.32287]]]}},{"type":"Feature","properties":{"c":"farmland"},"geometry":{"type":"Polygon","coordinates":[[[80.25552,7.33398],[80.25585,7.33432],[80.25618,7.3345],[80.25647,7.33368],[80.25636,7.33363],[80.25664,7.33338],[80.25735,7.33353],[80.25756,7.33384],[80.25756,7.33402],[80.25772,7.33425],[80.25797,7.33424],[80.25822,7.33413],[80.25797,7.3335],[80.25797,7.33295],[80.25787,7.33283],[80.258,7.33254],[80.25795,7.33215],[80.25783,7.33216],[80.25767,7.33175],[80.25788,7.33155],[80.25772,7.33126],[80.25771,7.33069],[80.25788,7.33057],[80.258,7.33029],[80.25788,7.32994],[80.25791,7.32913],[80.25754,7.32896],[80.25733,7.32862],[80.25669,7.32871],[80.25663,7.32884],[80.25671,7.32894],[80.25681,7.32941],[80.25691,7.32943],[80.257,7.3297],[80.25724,7.32987],[80.25719,7.33005],[80.25729,7.33012],[80.25711,7.33044],[80.25719,7.33067],[80.25709,7.33075],[80.25721,7.33098],[80.25716,7.33127],[80.25723,7.33143],[80.25713,7.33155],[80.25718,7.33168],[80.25694,7.33183],[80.25697,7.33202],[80.25676,7.33226],[80.25673,7.33262],[80.25631,7.33306],[80.25608,7.33285],[80.25564,7.33346],[80.25552,7.33398]]]}},{"type":"Feature","properties":{"c":"farmland"},"geometry":{"type":"Polygon","coordinates":[[[80.25401,7.33504],[80.25438,7.3356],[80.25457,7.33548],[80.25524,7.33606],[80.2553,7.33597],[80.25554,7.33602],[80.25573,7.33589],[80.25575,7.33527],[80.25616,7.33462],[80.25579,7.33441],[80.2555,7.3341],[80.25529,7.33423],[80.25506,7.33419],[80.25478,7.33434],[80.25464,7.33429],[80.25421,7.33443],[80.25403,7.33462],[80.25401,7.33504]]]}},{"type":"Feature","properties":{"c":"farmland"},"geometry":{"type":"Polygon","coordinates":[[[80.25542,7.3279],[80.25583,7.32801],[80.25583,7.32819],[80.25613,7.3282],[80.25649,7.3287],[80.25658,7.32871],[80.25668,7.3286],[80.25724,7.32852],[80.25741,7.32818],[80.25722,7.32787],[80.25727,7.32758],[80.2572,7.32728],[80.2573,7.32677],[80.25723,7.32651],[80.25731,7.32632],[80.25727,7.32613],[80.25731,7.32593],[80.25728,7.3256],[80.25736,7.32534],[80.25731,7.32493],[80.25749,7.32463],[80.25759,7.32417],[80.25793,7.3239],[80.25788,7.32369],[80.25766,7.32347],[80.25759,7.32288],[80.2572,7.3232],[80.25664,7.32429],[80.25662,7.32465],[80.25643,7.32497],[80.25641,7.32517],[80.25676,7.32564],[80.25681,7.32591],[80.25673,7.32646],[80.25681,7.32679],[80.25702,7.32682],[80.25703,7.32702],[80.25693,7.32704],[80.25686,7.3273],[80.25671,7.32748],[80.25619,7.32738],[80.25578,7.32739],[80.25542,7.3279]]]}},{"type":"Feature","properties":{"c":"farmland"},"geometry":{"type":"Polygon","coordinates":[[[80.2529,7.33162],[80.25338,7.33187],[80.25353,7.33188],[80.25365,7.33173],[80.25376,7.33177],[80.25389,7.33152],[80.25411,7.33145],[80.25432,7.33084],[80.25468,7.33039],[80.25547,7.32995],[80.25537,7.32948],[80.25571,7.32861],[80.25566,7.32812],[80.25538,7.32806],[80.25493,7.32952],[80.25425,7.33013],[80.25424,7.33044],[80.25347,7.33148],[80.25311,7.33147],[80.2529,7.33162]]]}},{"type":"Feature","properties":{"c":"farmland"},"geometry":{"type":"Polygon","coordinates":[[[80.20024,7.31338],[80.20048,7.31369],[80.20072,7.31362],[80.20095,7.31334],[80.20092,7.31328],[80.20132,7.31231],[80.20147,7.31053],[80.20173,7.31027],[80.20175,7.30999],[80.20163,7.30993],[80.20097,7.31056],[80.20109,7.31066],[80.20096,7.3108],[80.20106,7.3109],[80.20104,7.31106],[80.20086,7.31114],[80.20091,7.31123],[80.20092,7.31159],[80.20072,7.31267],[80.20024,7.31338]]]}},{"type":"Feature","properties":{"c":"farmland"},"geometry":{"type":"Polygon","coordinates":[[[80.25197,7.31074],[80.25263,7.31165],[80.25381,7.31082],[80.25499,7.30965],[80.25428,7.30965],[80.25341,7.31033],[80.25278,7.31067],[80.25197,7.31074]]]}},{"type":"Feature","properties":{"c":"farmland"},"geometry":{"type":"Polygon","coordinates":[[[80.25416,7.3095],[80.25521,7.30961],[80.25716,7.31003],[80.2584,7.31097],[80.25883,7.31048],[80.25838,7.30959],[80.25748,7.30901],[80.2563,7.30891],[80.25718,7.30784],[80.25504,7.30659],[80.25491,7.30731],[80.25416,7.3095]]]}},{"type":"Feature","properties":{"c":"farmland"},"geometry":{"type":"Polygon","coordinates":[[[80.2352,7.29567],[80.23547,7.29605],[80.23592,7.29583],[80.23582,7.29567],[80.23593,7.29559],[80.23607,7.29575],[80.23628,7.29561],[80.23622,7.29553],[80.23633,7.29545],[80.23624,7.29528],[80.23572,7.29501],[80.23535,7.29529],[80.2352,7.29567]]]}},{"type":"Feature","properties":{"c":"farmland"},"geometry":{"type":"Polygon","coordinates":[[[80.23573,7.29497],[80.23621,7.29522],[80.23617,7.2948],[80.23649,7.29458],[80.23675,7.29469],[80.23687,7.29438],[80.23668,7.29419],[80.23679,7.29378],[80.23718,7.29323],[80.23697,7.29318],[80.23748,7.29269],[80.23735,7.29261],[80.23714,7.29266],[80.23656,7.29327],[80.23581,7.29467],[80.23573,7.29497]]]}}]}