{"type":"FeatureCollection","features":[{"type":"Feature","properties":{"c":"residential"},"geometry":{"type":"Polygon","coordinates":[[[80.1963,7.3979],[80.1964,7.39793],[80.19645,7.3978],[80.19642,7.39775],[80.19634,7.39773],[80.1963,7.3979]]]}},{"type":"Feature","properties":{"c":"residential"},"geometry":{"type":"Polygon","coordinates":[[[80.19636,7.39766],[80.19646,7.39773],[80.19649,7.39765],[80.19644,7.39759],[80.19636,7.39766]]]}},{"type":"Feature","properties":{"c":"farmland"},"geometry":{"type":"Polygon","coordinates":[[[80.15153,7.37125],[80.15169,7.37129],[80.15176,7.3714],[80.15165,7.37162],[80.15176,7.3718],[80.15225,7.37156],[80.15285,7.37072],[80.15251,7.37054],[80.15262,7.37026],[80.15302,7.37045],[80.15334,7.37004],[80.15438,7.36916],[80.15463,7.36902],[80.15481,7.36901],[80.15498,7.36892],[80.15517,7.36894],[80.15533,7.36871],[80.15529,7.36855],[80.15506,7.36838],[80.15487,7.36835],[80.15443,7.36815],[80.1539,7.36775],[80.15374,7.36768],[80.1534,7.36849],[80.15325,7.36864],[80.15312,7.36893],[80.15255,7.36955],[80.15239,7.36961],[80.15186,7.37017],[80.15181,7.37028],[80.15177,7.3708],[80.15154,7.3711],[80.15153,7.37125]]]}},{"type":"Feature","properties":{"c":"farmland"},"geometry":{"type":"Polygon","coordinates":[[[80.15041,7.37166],[80.15112,7.37214],[80.15129,7.37207],[80.15102,7.3718],[80.15114,7.3716],[80.15094,7.37153],[80.15122,7.37135],[80.15121,7.37127],[80.15116,7.37112],[80.15111,7.37108],[80.15104,7.37111],[80.15091,7.37097],[80.15061,7.37117],[80.15061,7.37129],[80.15041,7.37166]]]}},{"type":"Feature","properties":{"c":"forest"},"geometry":{"type":"Polygon","coordinates":[[[80.1859,7.40251],[80.18594,7.40275],[80.18605,7.40291],[80.18689,7.40308],[80.18797,7.40314],[80.18829,7.4033],[80.18844,7.40347],[80.18862,7.40403],[80.1887,7.40436],[80.18872,7.40464],[80.18867,7.40524],[80.18855,7.40538],[80.18786,7.40571],[80.18772,7.40588],[80.1877,7.40606],[80.18787,7.40671],[80.18792,7.40737],[80.188,7.40768],[80.18844,7.40835],[80.18855,7.40883],[80.18845,7.40983],[80.18801,7.4106],[80.18793,7.41089],[80.18797,7.41116],[80.18805,7.41138],[80.18888,7.41245],[80.18894,7.41278],[80.1889,7.41304],[80.1888,7.41335],[80.1886,7.41368],[80.18808,7.41436],[80.18788,7.41472],[80.18772,7.41551],[80.18772,7.41631],[80.18766,7.41675],[80.18755,7.41692],[80.18729,7.41703],[80.18651,7.41706],[80.1864,7.41719],[80.18632,7.41741],[80.1863,7.41788],[80.18633,7.41857],[80.1864,7.41881],[80.1866,7.41905],[80.18674,7.41936],[80.18683,7.41986],[80.18698,7.42011],[80.18711,7.42023],[80.18727,7.42032],[80.18754,7.42035],[80.18774,7.42031],[80.1881,7.42015],[80.18839,7.41994],[80.18879,7.41987],[80.18894,7.41995],[80.18933,7.4205],[80.18949,7.42065],[80.1899,7.42075],[80.1903,7.42064],[80.19053,7.42066],[80.19069,7.42074],[80.19085,7.42089],[80.19137,7.4216],[80.19175,7.4218],[80.19191,7.42179],[80.19201,7.4217],[80.19207,7.42147],[80.19205,7.42103],[80.19212,7.42076],[80.19224,7.42046],[80.19257,7.41992],[80.1926,7.41944],[80.19255,7.41917],[80.19243,7.41888],[80.19044,7.4171],[80.1905,7.41673],[80.19184,7.41609],[80.19139,7.41504],[80.19123,7.41479],[80.19101,7.41459],[80.19078,7.41402],[80.19076,7.41335],[80.19085,7.41307],[80.19135,7.41259],[80.19168,7.41209],[80.19179,7.41182],[80.19181,7.41116],[80.19162,7.40973],[80.19163,7.4094],[80.192,7.40865],[80.192,7.40846],[80.1917,7.40789],[80.19156,7.40738],[80.19155,7.40635],[80.19142,7.40578],[80.19133,7.40556],[80.19122,7.40543],[80.19075,7.40519],[80.1905,7.40493],[80.18985,7.40391],[80.1898,7.40362],[80.18987,7.40355],[80.18999,7.40358],[80.1913,7.40487],[80.19148,7.40489],[80.19163,7.40479],[80.19183,7.40452],[80.19198,7.40428],[80.19213,7.40389],[80.1922,7.40327],[80.19219,7.40237],[80.19209,7.40225],[80.1916,7.40217],[80.19139,7.40206],[80.19126,7.40185],[80.19115,7.40144],[80.19088,7.40113],[80.19072,7.4011],[80.19056,7.4011],[80.19038,7.40123],[80.19021,7.40162],[80.18968,7.40224],[80.18936,7.40232],[80.18908,7.4022],[80.18886,7.40203],[80.18842,7.40119],[80.18832,7.40108],[80.18817,7.40102],[80.18803,7.40102],[80.1875,7.40121],[80.18663,7.40174],[80.18599,7.40226],[80.1859,7.40251]]]}},{"type":"Feature","properties":{"c":"farmland"},"geometry":{"type":"Polygon","coordinates":[[[80.18123,7.38705],[80.18123,7.38713],[80.18174,7.38747],[80.18193,7.38735],[80.18281,7.38776],[80.18302,7.38738],[80.1839,7.38651],[80.1839,7.38645],[80.18352,7.38579],[80.18362,7.38543],[80.18295,7.38503],[80.18237,7.38571],[80.18241,7.38589],[80.18176,7.38638],[80.18123,7.38705]]]}},{"type":"Feature","properties":{"c":"farmland"},"geometry":{"type":"Polygon","coordinates":[[[80.16537,7.39198],[80.16514,7.3927],[80.1658,7.39295],[80.16645,7.39304],[80.1665,7.39271],[80.16654,7.39268],[80.17044,7.39255],[80.17102,7.39152],[80.17111,7.3915],[80.17131,7.3916],[80.17134,7.39182],[80.17164,7.39211],[80.17165,7.39216],[80.17148,7.39251],[80.17324,7.39246],[80.17353,7.39147],[80.1739,7.39113],[80.17396,7.38974],[80.17358,7.3886],[80.17361,7.38755],[80.17391,7.3867],[80.17378,7.38635],[80.17395,7.38603],[80.17406,7.38593],[80.17433,7.38582],[80.1748,7.3858],[80.17528,7.38587],[80.1754,7.38617],[80.17594,7.38641],[80.17596,7.38647],[80.17647,7.38674],[80.17649,7.3868],[80.17638,7.38701],[80.17649,7.38713],[80.17668,7.38697],[80.1768,7.38708],[80.17682,7.38713],[80.1767,7.38736],[80.1769,7.38758],[80.17712,7.38821],[80.17762,7.3886],[80.17784,7.38929],[80.17792,7.38935],[80.17813,7.38934],[80.1782,7.39024],[80.17796,7.39035],[80.17783,7.39156],[80.178,7.39245],[80.178,7.39349],[80.1781,7.39391],[80.17802,7.39423],[80.17807,7.39429],[80.17847,7.39445],[80.17892,7.39447],[80.17898,7.39441],[80.17884,7.39368],[80.179,7.39308],[80.17909,7.39308],[80.17926,7.39343],[80.17931,7.39346],[80.18005,7.39362],[80.18063,7.39296],[80.18112,7.3928],[80.18117,7.39247],[80.18071,7.39173],[80.18084,7.39128],[80.18079,7.39036],[80.18078,7.39032],[80.18046,7.39027],[80.18032,7.39003],[80.18034,7.38996],[80.18065,7.38986],[80.18066,7.3898],[80.18033,7.38864],[80.18076,7.38822],[80.18153,7.38802],[80.18166,7.38768],[80.18163,7.38762],[80.18136,7.38745],[80.1812,7.38758],[80.18096,7.3875],[80.18087,7.38712],[80.18079,7.38709],[80.18021,7.38721],[80.17985,7.38756],[80.17888,7.38735],[80.17823,7.38639],[80.17777,7.3863],[80.17762,7.38589],[80.17764,7.38581],[80.17808,7.38533],[80.17799,7.3849],[80.17792,7.38488],[80.17743,7.38533],[80.17691,7.38535],[80.17636,7.38506],[80.17575,7.38493],[80.17514,7.38442],[80.1736,7.38436],[80.17354,7.38432],[80.17349,7.38379],[80.17061,7.38296],[80.17056,7.38299],[80.17056,7.38408],[80.16969,7.38442],[80.16962,7.38438],[80.16962,7.38387],[80.1688,7.38401],[80.16853,7.38505],[80.16867,7.38565],[80.16872,7.38566],[80.16975,7.38543],[80.16978,7.38546],[80.16981,7.38663],[80.16777,7.3879],[80.16767,7.38817],[80.16698,7.3883],[80.16679,7.38819],[80.16643,7.38823],[80.16639,7.38828],[80.16651,7.38894],[80.16709,7.38901],[80.16889,7.38847],[80.16897,7.38825],[80.1693,7.38818],[80.16935,7.38819],[80.16948,7.38896],[80.16952,7.38899],[80.16992,7.3889],[80.16996,7.38884],[80.16986,7.3882],[80.17014,7.38746],[80.17019,7.38742],[80.17055,7.3874],[80.17091,7.38781],[80.17091,7.38788],[80.17079,7.38815],[80.17083,7.38846],[80.17044,7.38919],[80.17012,7.38946],[80.16999,7.38973],[80.16967,7.38982],[80.1695,7.39026],[80.16877,7.39065],[80.1682,7.39132],[80.16762,7.39139],[80.16726,7.39173],[80.16642,7.39156],[80.16618,7.39099],[80.16613,7.39095],[80.16568,7.39092],[80.16547,7.39145],[80.16537,7.39198]]]}},{"type":"Feature","properties":{"c":"farmland"},"geometry":{"type":"Polygon","coordinates":[[[80.18239,7.39643],[80.18254,7.39677],[80.18261,7.39685],[80.18387,7.39754],[80.18394,7.39756],[80.18422,7.39731],[80.18423,7.39727],[80.18292,7.39615],[80.18285,7.39615],[80.18239,7.39643]]]}},{"type":"Feature","properties":{"c":"farmland"},"geometry":{"type":"Polygon","coordinates":[[[80.17727,7.3981],[80.17742,7.39936],[80.17746,7.39944],[80.17798,7.39945],[80.17796,7.39882],[80.17813,7.39879],[80.17817,7.39818],[80.17801,7.39803],[80.17812,7.39711],[80.17838,7.39658],[80.18034,7.39613],[80.18024,7.39536],[80.18021,7.39532],[80.17987,7.39527],[80.1797,7.39515],[80.17951,7.39462],[80.17816,7.39462],[80.17777,7.39442],[80.17748,7.39406],[80.17729,7.39409],[80.17744,7.39473],[80.17763,7.39504],[80.1775,7.39561],[80.17753,7.39595],[80.17741,7.39645],[80.17748,7.39683],[80.17727,7.3981]]]}},{"type":"Feature","properties":{"c":"residential"},"geometry":{"type":"Polygon","coordinates":[[[80.19591,7.46842],[80.19591,7.46851],[80.19608,7.4685],[80.19608,7.46842],[80.19591,7.46842]]]}},{"type":"Feature","properties":{"c":"residential"},"geometry":{"type":"Polygon","coordinates":[[[80.19589,7.46782],[80.19589,7.4679],[80.19604,7.4679],[80.19604,7.46782],[80.19589,7.46782]]]}},{"type":"Feature","properties":{"c":"residential"},"geometry":{"type":"Polygon","coordinates":[[[80.1955,7.46767],[80.19561,7.46767],[80.19561,7.46758],[80.1955,7.46758],[80.1955,7.46767]]]}},{"type":"Feature","properties":{"c":"residential"},"geometry":{"type":"Polygon","coordinates":[[[80.19527,7.46763],[80.19528,7.46774],[80.19532,7.46774],[80.19531,7.46762],[80.19527,7.46763]]]}},{"type":"Feature","properties":{"c":"residential"},"geometry":{"type":"Polygon","coordinates":[[[80.19484,7.46789],[80.195,7.4679],[80.195,7.4678],[80.19484,7.46779],[80.19484,7.46789]]]}},{"type":"Feature","properties":{"c":"residential"},"geometry":{"type":"Polygon","coordinates":[[[80.19513,7.46732],[80.19514,7.46741],[80.19527,7.4674],[80.19526,7.46731],[80.19513,7.46732]]]}},{"type":"Feature","properties":{"c":"residential"},"geometry":{"type":"Polygon","coordinates":[[[80.19551,7.46744],[80.1956,7.46744],[80.1956,7.46731],[80.19551,7.46731],[80.19551,7.46744]]]}},{"type":"Feature","properties":{"c":"residential"},"geometry":{"type":"Polygon","coordinates":[[[80.19572,7.46727],[80.19573,7.46742],[80.19583,7.46741],[80.19583,7.46727],[80.19572,7.46727]]]}},{"type":"Feature","properties":{"c":"residential"},"geometry":{"type":"Polygon","coordinates":[[[80.19597,7.46776],[80.19607,7.46776],[80.19608,7.46762],[80.19598,7.46761],[80.19597,7.46776]]]}},{"type":"Feature","properties":{"c":"residential"},"geometry":{"type":"Polygon","coordinates":[[[80.19612,7.4676],[80.19614,7.46771],[80.19625,7.46769],[80.19623,7.46758],[80.19612,7.4676]]]}},{"type":"Feature","properties":{"c":"residential"},"geometry":{"type":"Polygon","coordinates":[[[80.19471,7.46743],[80.1948,7.46744],[80.19481,7.46736],[80.19471,7.46735],[80.19471,7.46743]]]}},{"type":"Feature","properties":{"c":"residential"},"geometry":{"type":"Polygon","coordinates":[[[80.1973,7.46698],[80.19739,7.467],[80.19741,7.4669],[80.19732,7.46689],[80.1973,7.46698]]]}},{"type":"Feature","properties":{"c":"residential"},"geometry":{"type":"Polygon","coordinates":[[[80.19757,7.46691],[80.19757,7.46708],[80.19769,7.46708],[80.19769,7.46691],[80.19757,7.46691]]]}},{"type":"Feature","properties":{"c":"residential"},"geometry":{"type":"Polygon","coordinates":[[[80.19786,7.46701],[80.19797,7.46705],[80.19803,7.46689],[80.19792,7.46685],[80.19786,7.46701]]]}},{"type":"Feature","properties":{"c":"residential"},"geometry":{"type":"Polygon","coordinates":[[[80.19846,7.46706],[80.19858,7.46714],[80.19864,7.46705],[80.19852,7.46697],[80.19846,7.46706]]]}},{"type":"Feature","properties":{"c":"residential"},"geometry":{"type":"Polygon","coordinates":[[[80.19743,7.46635],[80.19753,7.46636],[80.19754,7.46622],[80.19744,7.46622],[80.19743,7.46635]]]}},{"type":"Feature","properties":{"c":"residential"},"geometry":{"type":"Polygon","coordinates":[[[80.19802,7.46612],[80.19813,7.46616],[80.19816,7.46609],[80.19805,7.46605],[80.19802,7.46612]]]}},{"type":"Feature","properties":{"c":"farmland"},"geometry":{"type":"Polygon","coordinates":[[[80.21024,7.42932],[80.21024,7.42959],[80.21057,7.42952],[80.21059,7.4296],[80.21095,7.42958],[80.21104,7.42947],[80.21117,7.4294],[80.21118,7.42916],[80.21114,7.42903],[80.2109,7.42921],[80.21065,7.42928],[80.21062,7.4292],[80.21051,7.4292],[80.21037,7.42923],[80.21024,7.42932]]]}},{"type":"Feature","properties":{"c":"park"},"geometry":{"type":"Polygon","coordinates":[[[80.14895,7.34294],[80.14903,7.34295],[80.14903,7.3431],[80.14916,7.3431],[80.14919,7.34301],[80.14912,7.34292],[80.14916,7.34292],[80.14916,7.34276],[80.149,7.34271],[80.14895,7.34294]]]}},{"type":"Feature","properties":{"c":"park"},"geometry":{"type":"Polygon","coordinates":[[[80.14844,7.34393],[80.14845,7.34404],[80.14854,7.34409],[80.14874,7.34405],[80.14874,7.34377],[80.14864,7.34374],[80.14844,7.34393]]]}},{"type":"Feature","properties":{"c":"forest"},"geometry":{"type":"Polygon","coordinates":[[[80.21815,7.44748],[80.2183,7.44799],[80.21849,7.44796],[80.21848,7.4479],[80.21864,7.44784],[80.21864,7.44773],[80.21855,7.44766],[80.21849,7.44733],[80.21831,7.44734],[80.21831,7.44743],[80.21815,7.44748]]]}},{"type":"Feature","properties":{"c":"forest"},"geometry":{"type":"Polygon","coordinates":[[[80.22013,7.44504],[80.22031,7.44546],[80.22079,7.4459],[80.22075,7.44603],[80.2209,7.44612],[80.22093,7.44629],[80.22111,7.44646],[80.2211,7.44657],[80.22137,7.44687],[80.2215,7.44737],[80.22161,7.44739],[80.22149,7.44684],[80.2216,7.44683],[80.22214,7.44765],[80.22216,7.44554],[80.22175,7.44549],[80.22175,7.44523],[80.22095,7.4452],[80.22085,7.44476],[80.22013,7.44504]]]}},{"type":"Feature","properties":{"c":"farmland"},"geometry":{"type":"Polygon","coordinates":[[[80.2332,7.43166],[80.23328,7.43265],[80.23322,7.43269],[80.23433,7.43218],[80.23446,7.4322],[80.23483,7.43266],[80.23509,7.43241],[80.23542,7.4324],[80.23543,7.43294],[80.23552,7.43299],[80.2359,7.43289],[80.23596,7.43309],[80.23623,7.43314],[80.23626,7.43286],[80.23654,7.43288],[80.23659,7.43295],[80.23711,7.43303],[80.23723,7.43314],[80.23757,7.43316],[80.23769,7.43329],[80.23865,7.43329],[80.23862,7.43223],[80.23847,7.43222],[80.23809,7.43166],[80.23785,7.43163],[80.23739,7.43146],[80.23753,7.43089],[80.23779,7.43097],[80.2378,7.43075],[80.23773,7.43072],[80.23765,7.43044],[80.23777,7.43035],[80.23796,7.43037],[80.2379,7.43006],[80.2378,7.42999],[80.23764,7.4291],[80.23755,7.42904],[80.23744,7.42868],[80.23752,7.42859],[80.23773,7.4285],[80.23783,7.42838],[80.23783,7.42826],[80.23729,7.42802],[80.23672,7.42877],[80.23668,7.42917],[80.23641,7.42961],[80.2366,7.42998],[80.23652,7.43014],[80.2364,7.43017],[80.23628,7.43007],[80.23608,7.43022],[80.23549,7.42989],[80.2355,7.42938],[80.2353,7.42822],[80.23462,7.4282],[80.23468,7.42904],[80.23453,7.42967],[80.23397,7.43087],[80.2332,7.43166]]]}},{"type":"Feature","properties":{"c":"farmland"},"geometry":{"type":"Polygon","coordinates":[[[80.23383,7.42847],[80.2339,7.4286],[80.23384,7.42868],[80.23416,7.42876],[80.23463,7.42864],[80.23456,7.42824],[80.23444,7.42817],[80.23432,7.42801],[80.23397,7.428],[80.23383,7.42847]]]}},{"type":"Feature","properties":{"c":"farmland"},"geometry":{"type":"Polygon","coordinates":[[[80.2344,7.42784],[80.23454,7.4282],[80.23532,7.42813],[80.23523,7.42784],[80.2344,7.42784]]]}},{"type":"Feature","properties":{"c":"park"},"geometry":{"type":"Polygon","coordinates":[[[80.22785,7.44062],[80.22835,7.44072],[80.22908,7.44048],[80.22878,7.44003],[80.22785,7.44062]]]}},{"type":"Feature","properties":{"c":"farmland"},"geometry":{"type":"Polygon","coordinates":[[[80.2158,7.41561],[80.21583,7.41584],[80.21593,7.41585],[80.21595,7.41601],[80.2159,7.41605],[80.21592,7.41673],[80.21581,7.41711],[80.21599,7.41714],[80.21659,7.41681],[80.21677,7.41685],[80.21687,7.41679],[80.21723,7.41688],[80.21758,7.4171],[80.21783,7.4169],[80.21753,7.41663],[80.2175,7.41646],[80.21737,7.41645],[80.21724,7.41631],[80.2171,7.41631],[80.21676,7.41562],[80.21673,7.41509],[80.2158,7.41561]]]}},{"type":"Feature","properties":{"c":"forest"},"geometry":{"type":"Polygon","coordinates":[[[80.23877,7.42772],[80.23999,7.4277],[80.24011,7.42715],[80.23926,7.42691],[80.23877,7.42772]]]}},{"type":"Feature","properties":{"c":"farmland"},"geometry":{"type":"Polygon","coordinates":[[[80.1425,7.37135],[80.14342,7.37257],[80.14387,7.37288],[80.1443,7.37288],[80.14447,7.37221],[80.14447,7.37152],[80.14418,7.37128],[80.14382,7.37121],[80.14362,7.37129],[80.14289,7.37063],[80.1425,7.37135]]]}},{"type":"Feature","properties":{"c":"farmland"},"geometry":{"type":"Polygon","coordinates":[[[80.14045,7.36792],[80.14093,7.3687],[80.14102,7.36897],[80.14097,7.36908],[80.14152,7.36994],[80.14148,7.37015],[80.14152,7.37036],[80.14171,7.3705],[80.14168,7.37061],[80.14184,7.37078],[80.14181,7.37091],[80.14234,7.37115],[80.14245,7.3714],[80.14289,7.37063],[80.14251,7.37013],[80.1421,7.36972],[80.14176,7.36831],[80.14165,7.36812],[80.14165,7.36794],[80.14045,7.36792]]]}},{"type":"Feature","properties":{"c":"farmland"},"geometry":{"type":"Polygon","coordinates":[[[80.13997,7.36892],[80.14003,7.36897],[80.14013,7.36897],[80.14047,7.36892],[80.14065,7.36881],[80.14086,7.36858],[80.14055,7.36809],[80.14039,7.36815],[80.14032,7.36831],[80.14021,7.3682],[80.14,7.36871],[80.13997,7.36892]]]}},{"type":"Feature","properties":{"c":"farmland"},"geometry":{"type":"Polygon","coordinates":[[[80.13977,7.36791],[80.13979,7.36848],[80.13996,7.36848],[80.14009,7.3683],[80.1402,7.36804],[80.14039,7.36792],[80.13977,7.36791]]]}},{"type":"Feature","properties":{"c":"farmland"},"geometry":{"type":"Polygon","coordinates":[[[80.19586,7.39648],[80.19607,7.39666],[80.19734,7.39538],[80.19837,7.39528],[80.19862,7.39512],[80.19897,7.39503],[80.19946,7.3951],[80.19957,7.39481],[80.19978,7.39489],[80.20008,7.39481],[80.20053,7.39362],[80.20127,7.3928],[80.20199,7.39128],[80.20272,7.39068],[80.2033,7.39092],[80.2037,7.39135],[80.20379,7.39174],[80.20413,7.39189],[80.20423,7.39131],[80.20421,7.39093],[80.20439,7.39082],[80.20409,7.39016],[80.20412,7.38975],[80.2042,7.38947],[80.20448,7.38937],[80.20437,7.38892],[80.20447,7.38875],[80.20415,7.38792],[80.20421,7.38758],[80.20396,7.38766],[80.20297,7.38743],[80.20312,7.38696],[80.20297,7.38687],[80.2026,7.38722],[80.20245,7.38801],[80.20227,7.38811],[80.2021,7.38895],[80.20194,7.38903],[80.20176,7.38962],[80.20156,7.38966],[80.20145,7.39014],[80.20094,7.39055],[80.20068,7.39122],[80.20071,7.39159],[80.20025,7.39246],[80.19978,7.39297],[80.19968,7.39335],[80.19912,7.39401],[80.19895,7.3941],[80.19858,7.39411],[80.19812,7.39393],[80.19784,7.39362],[80.1975,7.39403],[80.19749,7.39443],[80.19723,7.39476],[80.19718,7.39505],[80.19586,7.39648]]]}},{"type":"Feature","properties":{"c":"farmland"},"geometry":{"type":"Polygon","coordinates":[[[80.15222,7.37171],[80.1526,7.37171],[80.15327,7.37234],[80.15363,7.37244],[80.15388,7.37259],[80.15403,7.37246],[80.1532,7.37129],[80.15288,7.37101],[80.15274,7.371],[80.15252,7.37134],[80.15233,7.3715],[80.15222,7.37171]]]}},{"type":"Feature","properties":{"c":"industrial"},"geometry":{"type":"Polygon","coordinates":[[[80.21508,7.3937],[80.21596,7.3937],[80.21608,7.39256],[80.21575,7.39249],[80.21577,7.39224],[80.21513,7.39224],[80.21508,7.3937]]]}},{"type":"Feature","properties":{"c":"recreation_ground","n":"Ground"},"geometry":{"type":"Polygon","coordinates":[[[80.14773,7.3642],[80.14843,7.36458],[80.14855,7.36451],[80.14867,7.36405],[80.14842,7.36383],[80.14818,7.36371],[80.14802,7.36377],[80.14785,7.36396],[80.14773,7.3642]]]}},{"type":"Feature","properties":{"c":"farmland"},"geometry":{"type":"Polygon","coordinates":[[[80.22505,7.4209],[80.22507,7.42117],[80.22521,7.42133],[80.2253,7.42167],[80.22545,7.42174],[80.22556,7.42165],[80.22566,7.42166],[80.2257,7.42149],[80.22552,7.42147],[80.22553,7.42108],[80.22539,7.42104],[80.22542,7.42083],[80.2251,7.42072],[80.22505,7.4209]]]}},{"type":"Feature","properties":{"c":"farmland"},"geometry":{"type":"Polygon","coordinates":[[[80.24888,7.44121],[80.24901,7.44151],[80.24912,7.44163],[80.24927,7.44163],[80.24967,7.44208],[80.24974,7.44201],[80.24984,7.44206],[80.24978,7.44218],[80.25005,7.4423],[80.25024,7.44297],[80.25005,7.44322],[80.25035,7.44337],[80.25013,7.4439],[80.25034,7.44401],[80.25028,7.44415],[80.25053,7.44427],[80.25074,7.44398],[80.25061,7.44363],[80.25063,7.44334],[80.25102,7.44328],[80.25132,7.44382],[80.25109,7.44397],[80.25108,7.44407],[80.25159,7.44429],[80.25171,7.44374],[80.25226,7.44317],[80.25202,7.44279],[80.25207,7.44234],[80.25186,7.44216],[80.25161,7.44225],[80.25157,7.44211],[80.25133,7.44209],[80.25086,7.44148],[80.25047,7.44137],[80.24997,7.44145],[80.24963,7.44133],[80.24946,7.44135],[80.24925,7.44113],[80.24909,7.44116],[80.24893,7.4411],[80.24888,7.44121]]]}},{"type":"Feature","properties":{"c":"farmland"},"geometry":{"type":"Polygon","coordinates":[[[80.24567,7.42819],[80.24629,7.4288],[80.24642,7.42845],[80.24658,7.42848],[80.24676,7.42815],[80.24667,7.42787],[80.2467,7.42769],[80.24655,7.42755],[80.24638,7.42768],[80.24612,7.42765],[80.24567,7.42819]]]}},{"type":"Feature","properties":{"c":"farmland"},"geometry":{"type":"Polygon","coordinates":[[[80.2473,7.43978],[80.2476,7.43988],[80.24777,7.43977],[80.24795,7.44037],[80.24787,7.44044],[80.24795,7.44078],[80.24787,7.44105],[80.24808,7.44121],[80.24778,7.442],[80.24801,7.4423],[80.24815,7.44232],[80.24851,7.44114],[80.2487,7.44114],[80.24894,7.44066],[80.24946,7.44081],[80.25013,7.44086],[80.25019,7.44065],[80.25029,7.44063],[80.25034,7.4404],[80.25026,7.44029],[80.25039,7.43994],[80.25082,7.43965],[80.25153,7.43859],[80.25133,7.43842],[80.25118,7.43856],[80.25107,7.43849],[80.25088,7.43871],[80.25079,7.43863],[80.25051,7.43878],[80.25025,7.43909],[80.25004,7.4392],[80.24978,7.43918],[80.24939,7.43958],[80.2492,7.43965],[80.24891,7.43958],[80.24885,7.43971],[80.24859,7.43956],[80.24843,7.43972],[80.24817,7.43965],[80.24819,7.43934],[80.24773,7.43917],[80.24754,7.4393],[80.2473,7.43978]]]}},{"type":"Feature","properties":{"c":"farmland"},"geometry":{"type":"Polygon","coordinates":[[[80.24052,7.44163],[80.24062,7.44169],[80.24079,7.44157],[80.24105,7.44165],[80.24153,7.44142],[80.2416,7.44167],[80.24139,7.44186],[80.24175,7.44191],[80.24186,7.44177],[80.24174,7.44136],[80.24201,7.44102],[80.24196,7.44082],[80.24177,7.44074],[80.24196,7.44055],[80.24209,7.44059],[80.24242,7.44041],[80.24236,7.43975],[80.24201,7.43968],[80.24193,7.43982],[80.2418,7.43983],[80.24176,7.44006],[80.24189,7.44012],[80.24186,7.44027],[80.2409,7.44109],[80.24084,7.44125],[80.24056,7.4414],[80.24052,7.44163]]]}},{"type":"Feature","properties":{"c":"farmland"},"geometry":{"type":"Polygon","coordinates":[[[80.24085,7.43737],[80.24099,7.43738],[80.24109,7.43709],[80.24094,7.43705],[80.24085,7.43737]]]}},{"type":"Feature","properties":{"c":"farmland"},"geometry":{"type":"Polygon","coordinates":[[[80.24102,7.43699],[80.24115,7.43708],[80.24104,7.43741],[80.24106,7.43759],[80.24113,7.43758],[80.24122,7.43738],[80.24132,7.43701],[80.24143,7.43684],[80.24138,7.43675],[80.24109,7.43683],[80.24102,7.43699]]]}},{"type":"Feature","properties":{"c":"forest"},"geometry":{"type":"Polygon","coordinates":[[[80.24472,7.43422],[80.24475,7.43433],[80.24492,7.43434],[80.24497,7.43413],[80.24516,7.43412],[80.24523,7.43378],[80.24506,7.4337],[80.24486,7.43392],[80.24486,7.43409],[80.24472,7.43422]]]}},{"type":"Feature","properties":{"c":"forest"},"geometry":{"type":"Polygon","coordinates":[[[80.24476,7.43482],[80.24508,7.43496],[80.24514,7.43467],[80.24477,7.43465],[80.24476,7.43482]]]}},{"type":"Feature","properties":{"c":"forest"},"geometry":{"type":"Polygon","coordinates":[[[80.24397,7.43693],[80.2443,7.43704],[80.24428,7.43733],[80.2444,7.43738],[80.24451,7.43712],[80.24508,7.43724],[80.24535,7.43662],[80.24523,7.43648],[80.24506,7.43657],[80.24486,7.43652],[80.24473,7.43639],[80.24442,7.4364],[80.24425,7.43677],[80.24397,7.43693]]]}},{"type":"Feature","properties":{"c":"farmland"},"geometry":{"type":"Polygon","coordinates":[[[80.24113,7.43769],[80.24129,7.43792],[80.24138,7.43787],[80.24143,7.43798],[80.24134,7.43815],[80.24152,7.43811],[80.24161,7.43817],[80.24158,7.43854],[80.24171,7.43865],[80.24151,7.43905],[80.24158,7.43913],[80.24159,7.43941],[80.2425,7.43961],[80.2425,7.43936],[80.24221,7.43935],[80.24234,7.43908],[80.24246,7.43906],[80.24242,7.43885],[80.24258,7.43853],[80.2426,7.43818],[80.24287,7.43804],[80.24299,7.43782],[80.24355,7.4382],[80.24366,7.43852],[80.24381,7.43839],[80.24399,7.43855],[80.24418,7.43858],[80.24435,7.43831],[80.24444,7.43836],[80.24463,7.43827],[80.24479,7.43805],[80.24515,7.43785],[80.24538,7.43755],[80.24544,7.43736],[80.24558,7.43735],[80.24551,7.43673],[80.24535,7.43662],[80.24508,7.43724],[80.24451,7.43712],[80.2444,7.43738],[80.24428,7.43733],[80.2443,7.43704],[80.24397,7.43693],[80.24425,7.43677],[80.24442,7.4364],[80.24473,7.43639],[80.24486,7.43652],[80.24506,7.43657],[80.24523,7.43648],[80.24531,7.43591],[80.24572,7.43596],[80.24589,7.43582],[80.24585,7.43569],[80.24612,7.43563],[80.24588,7.43503],[80.24575,7.43501],[80.24575,7.43485],[80.24591,7.43484],[80.24568,7.43412],[80.24541,7.43361],[80.24563,7.43333],[80.24563,7.43314],[80.24577,7.43303],[80.24557,7.43276],[80.2457,7.43247],[80.24546,7.43222],[80.2456,7.43197],[80.246,7.43197],[80.24655,7.43213],[80.24683,7.43201],[80.24687,7.4319],[80.24634,7.43183],[80.24627,7.43176],[80.24626,7.43148],[80.24591,7.43132],[80.2457,7.43137],[80.24496,7.43129],[80.24491,7.43184],[80.24423,7.4329],[80.24434,7.43335],[80.24418,7.43377],[80.24431,7.43396],[80.24404,7.43409],[80.24389,7.43438],[80.24403,7.43445],[80.24412,7.43462],[80.24397,7.43482],[80.24401,7.43496],[80.24389,7.43531],[80.24398,7.43543],[80.24398,7.43564],[80.24372,7.43587],[80.24363,7.43611],[80.24375,7.43619],[80.24347,7.43653],[80.24336,7.43637],[80.24301,7.43642],[80.24297,7.43621],[80.24275,7.43602],[80.24251,7.43603],[80.24221,7.43592],[80.24188,7.43644],[80.24199,7.43653],[80.24221,7.43657],[80.24237,7.43691],[80.24255,7.43684],[80.24262,7.437],[80.24235,7.43727],[80.24221,7.43719],[80.24198,7.43747],[80.24137,7.43713],[80.24113,7.43769]],[[80.24177,7.43847],[80.24205,7.43803],[80.24215,7.4381],[80.24206,7.43846],[80.24197,7.43844],[80.24186,7.43852],[80.24177,7.43847]],[[80.24179,7.4389],[80.24185,7.43873],[80.24203,7.43883],[80.24194,7.43895],[80.24179,7.4389]],[[80.24472,7.43422],[80.24486,7.43409],[80.24486,7.43392],[80.24506,7.4337],[80.24523,7.43378],[80.24516,7.43412],[80.24497,7.43413],[80.24492,7.43434],[80.24475,7.43433],[80.24472,7.43422]],[[80.24476,7.43482],[80.24477,7.43465],[80.24514,7.43467],[80.24508,7.43496],[80.24476,7.43482]]]}},{"type":"Feature","properties":{"c":"farmland"},"geometry":{"type":"Polygon","coordinates":[[[80.24403,7.43907],[80.24434,7.43927],[80.24465,7.43891],[80.245,7.43879],[80.24559,7.43893],[80.24564,7.43917],[80.24583,7.4394],[80.24575,7.43949],[80.24584,7.43959],[80.24602,7.43948],[80.24628,7.43975],[80.24636,7.43974],[80.24646,7.43983],[80.24657,7.43983],[80.24672,7.43993],[80.24719,7.43975],[80.2472,7.43968],[80.2471,7.43969],[80.24704,7.43956],[80.24692,7.43952],[80.24689,7.43956],[80.24666,7.43948],[80.24647,7.43905],[80.2465,7.43894],[80.24633,7.43884],[80.24629,7.43867],[80.24639,7.43821],[80.24674,7.4378],[80.24698,7.43716],[80.24699,7.43689],[80.24689,7.43678],[80.24787,7.43574],[80.24795,7.43542],[80.24776,7.43527],[80.24782,7.43519],[80.24801,7.43531],[80.24811,7.43503],[80.24802,7.43403],[80.24777,7.43399],[80.24773,7.4333],[80.24733,7.43312],[80.24725,7.43286],[80.24736,7.43267],[80.24735,7.43216],[80.24698,7.43196],[80.24696,7.43204],[80.24645,7.43223],[80.24645,7.43243],[80.2463,7.43272],[80.24575,7.43327],[80.24576,7.43339],[80.24556,7.43363],[80.24556,7.43372],[80.24591,7.43412],[80.24606,7.43499],[80.24626,7.43576],[80.24598,7.43579],[80.24598,7.43596],[80.2454,7.43622],[80.24544,7.43652],[80.24558,7.4365],[80.2458,7.43666],[80.24572,7.43677],[80.24573,7.43745],[80.24554,7.4375],[80.24541,7.43784],[80.24498,7.43816],[80.24504,7.43823],[80.24501,7.43838],[80.24447,7.43847],[80.24431,7.43872],[80.2441,7.43878],[80.24403,7.43907]]]}},{"type":"Feature","properties":{"c":"industrial"},"geometry":{"type":"Polygon","coordinates":[[[80.15464,7.37034],[80.15539,7.37082],[80.15471,7.37149],[80.15545,7.37218],[80.15519,7.37285],[80.15483,7.37269],[80.15465,7.37287],[80.15515,7.37331],[80.15561,7.37358],[80.15549,7.37394],[80.15649,7.37445],[80.15771,7.37326],[80.15777,7.37095],[80.1581,7.37047],[80.15819,7.37027],[80.15816,7.36943],[80.15646,7.36932],[80.15621,7.37001],[80.15608,7.37067],[80.15503,7.37],[80.15464,7.37034]]]}},{"type":"Feature","properties":{"c":"park"},"geometry":{"type":"Polygon","coordinates":[[[80.15051,7.35532],[80.15078,7.35549],[80.15093,7.35527],[80.15065,7.35509],[80.15051,7.35532]]]}},{"type":"Feature","properties":{"c":"forest"},"geometry":{"type":"Polygon","coordinates":[[[80.18406,7.48092],[80.18533,7.48217],[80.18664,7.4824],[80.1895,7.48042],[80.18963,7.47829],[80.18861,7.47648],[80.1872,7.47627],[80.18617,7.4768],[80.18406,7.48092]]]}},{"type":"Feature","properties":{"c":"farmland"},"geometry":{"type":"Polygon","coordinates":[[[80.22658,7.45029],[80.22751,7.4511],[80.22732,7.45218],[80.22783,7.45238],[80.22784,7.45355],[80.22858,7.45321],[80.22884,7.45289],[80.22881,7.45338],[80.22816,7.45415],[80.2287,7.45488],[80.22903,7.4539],[80.2301,7.45412],[80.23073,7.45494],[80.23046,7.45635],[80.23225,7.4571],[80.2331,7.45678],[80.23349,7.45691],[80.23327,7.45706],[80.23393,7.45735],[80.23401,7.457],[80.23746,7.45854],[80.23817,7.45816],[80.23812,7.45732],[80.23581,7.45621],[80.23418,7.45532],[80.23361,7.45548],[80.23316,7.45566],[80.23333,7.45506],[80.23376,7.45484],[80.23358,7.45457],[80.23348,7.45472],[80.2333,7.45447],[80.23406,7.45363],[80.23421,7.45327],[80.2333,7.45305],[80.23278,7.45343],[80.23254,7.45334],[80.23279,7.45293],[80.23233,7.45255],[80.2325,7.45182],[80.23224,7.45162],[80.23229,7.44905],[80.23224,7.44895],[80.23176,7.44911],[80.2317,7.44978],[80.23143,7.45024],[80.23065,7.45012],[80.23065,7.44979],[80.23027,7.44978],[80.22971,7.44893],[80.22954,7.44853],[80.22658,7.45029]]]}},{"type":"Feature","properties":{"c":"farmland"},"geometry":{"type":"Polygon","coordinates":[[[80.23653,7.43851],[80.23669,7.43888],[80.23706,7.43889],[80.23738,7.4386],[80.23798,7.43838],[80.23782,7.43795],[80.23731,7.43813],[80.23673,7.43813],[80.23653,7.43851]]]}},{"type":"Feature","properties":{"c":"farmland"},"geometry":{"type":"Polygon","coordinates":[[[80.24402,7.39432],[80.24408,7.39472],[80.24445,7.39481],[80.24457,7.39432],[80.24477,7.39414],[80.2447,7.39383],[80.24484,7.3931],[80.24533,7.39194],[80.24571,7.39051],[80.24538,7.39016],[80.24537,7.38975],[80.24453,7.38969],[80.24467,7.39055],[80.24474,7.39187],[80.24467,7.39201],[80.24456,7.39279],[80.24447,7.39292],[80.24462,7.39311],[80.24424,7.39411],[80.24402,7.39432]]]}},{"type":"Feature","properties":{"c":"farmland"},"geometry":{"type":"Polygon","coordinates":[[[80.24135,7.38989],[80.24183,7.39014],[80.2421,7.38966],[80.24179,7.38949],[80.24187,7.38934],[80.2417,7.38925],[80.24135,7.38989]]]}},{"type":"Feature","properties":{"c":"farmland"},"geometry":{"type":"Polygon","coordinates":[[[80.23764,7.3938],[80.23912,7.39403],[80.23979,7.38971],[80.23937,7.38933],[80.23957,7.38911],[80.23775,7.38897],[80.23765,7.39026],[80.23806,7.39113],[80.23764,7.3938]]]}},{"type":"Feature","properties":{"c":"farmland"},"geometry":{"type":"Polygon","coordinates":[[[80.23559,7.39624],[80.23619,7.39695],[80.23622,7.39785],[80.23662,7.39774],[80.23654,7.39849],[80.23614,7.39855],[80.23592,7.39912],[80.23597,7.39968],[80.23701,7.3999],[80.23699,7.39932],[80.23769,7.39834],[80.23841,7.39854],[80.23929,7.39793],[80.23917,7.39761],[80.23921,7.39723],[80.2396,7.39698],[80.24,7.39729],[80.24093,7.39745],[80.24092,7.39778],[80.24127,7.39781],[80.24137,7.39724],[80.24111,7.3967],[80.2392,7.39543],[80.23887,7.39452],[80.23877,7.39404],[80.2379,7.39396],[80.23778,7.39463],[80.23791,7.39529],[80.23766,7.39572],[80.2375,7.39647],[80.23653,7.39657],[80.23571,7.39592],[80.23559,7.39624]]]}},{"type":"Feature","properties":{"c":"farmland"},"geometry":{"type":"Polygon","coordinates":[[[80.19689,7.46055],[80.19773,7.46079],[80.19786,7.46025],[80.19844,7.45843],[80.19827,7.45818],[80.19855,7.45767],[80.19841,7.4574],[80.19843,7.4569],[80.19825,7.45672],[80.19865,7.45672],[80.19897,7.4559],[80.19934,7.45568],[80.19916,7.45502],[80.19875,7.45512],[80.19689,7.46055]]]}},{"type":"Feature","properties":{"c":"farmland"},"geometry":{"type":"Polygon","coordinates":[[[80.19574,7.45982],[80.19576,7.46013],[80.19618,7.46023],[80.19629,7.46002],[80.19658,7.46004],[80.19676,7.46043],[80.19686,7.46025],[80.19848,7.45568],[80.19814,7.45599],[80.19781,7.45621],[80.19767,7.45669],[80.19713,7.45665],[80.19713,7.45721],[80.19669,7.45718],[80.19578,7.4574],[80.19598,7.45856],[80.19627,7.45912],[80.19574,7.45982]]]}},{"type":"Feature","properties":{"c":"farmland"},"geometry":{"type":"Polygon","coordinates":[[[80.19289,7.46364],[80.19344,7.46414],[80.19372,7.46398],[80.19424,7.46416],[80.19441,7.46439],[80.19382,7.46475],[80.19323,7.46491],[80.19323,7.46535],[80.19344,7.46554],[80.19428,7.46565],[80.19456,7.46552],[80.19507,7.46597],[80.19475,7.46613],[80.19478,7.46631],[80.19544,7.4668],[80.19588,7.46673],[80.19633,7.46698],[80.1965,7.46692],[80.19666,7.46698],[80.19652,7.46716],[80.19644,7.46737],[80.1971,7.46741],[80.19704,7.46685],[80.19715,7.46643],[80.19699,7.46577],[80.19724,7.46534],[80.19751,7.46443],[80.19784,7.46379],[80.19773,7.4636],[80.19806,7.46249],[80.19788,7.46218],[80.19766,7.46214],[80.19786,7.46184],[80.19759,7.46152],[80.19773,7.46118],[80.1977,7.46083],[80.19699,7.46064],[80.19382,7.4623],[80.19412,7.46248],[80.19433,7.46313],[80.19423,7.46367],[80.19372,7.46364],[80.19342,7.46307],[80.19302,7.46304],[80.19289,7.46364]]]}},{"type":"Feature","properties":{"c":"farmland"},"geometry":{"type":"Polygon","coordinates":[[[80.19413,7.45906],[80.19415,7.46048],[80.19432,7.4613],[80.19476,7.46175],[80.19623,7.46092],[80.19602,7.46072],[80.19614,7.4603],[80.1955,7.45983],[80.19492,7.45984],[80.19451,7.45898],[80.19413,7.45906]]]}},{"type":"Feature","properties":{"c":"farmland"},"geometry":{"type":"Polygon","coordinates":[[[80.19241,7.46982],[80.19306,7.47054],[80.19283,7.4706],[80.19293,7.4708],[80.19333,7.47069],[80.19344,7.47086],[80.19331,7.47124],[80.19245,7.47138],[80.19251,7.4721],[80.1943,7.47231],[80.19498,7.47271],[80.19503,7.47319],[80.19462,7.47388],[80.19391,7.47427],[80.19375,7.47414],[80.19361,7.47467],[80.19319,7.47443],[80.19303,7.47466],[80.19318,7.47484],[80.19312,7.47501],[80.19404,7.47529],[80.19427,7.4749],[80.19462,7.47507],[80.19448,7.47532],[80.1955,7.47568],[80.19584,7.47575],[80.19607,7.47497],[80.19623,7.47465],[80.19659,7.47368],[80.19662,7.4733],[80.19751,7.47318],[80.19829,7.47344],[80.19861,7.47538],[80.19903,7.47556],[80.1995,7.47566],[80.19961,7.4759],[80.20116,7.47572],[80.20167,7.47592],[80.20173,7.47578],[80.20112,7.47532],[80.20128,7.47495],[80.20143,7.47501],[80.20156,7.47338],[80.20095,7.47298],[80.20002,7.47284],[80.19981,7.47271],[80.19955,7.47175],[80.19953,7.47093],[80.19974,7.47041],[80.19939,7.46991],[80.19961,7.4688],[80.1997,7.4675],[80.20041,7.46605],[80.19941,7.46516],[80.19926,7.46547],[80.19882,7.46551],[80.19856,7.46639],[80.19927,7.46669],[80.19867,7.46726],[80.19779,7.46738],[80.19759,7.46765],[80.19654,7.4675],[80.19657,7.46754],[80.19646,7.46747],[80.1962,7.46972],[80.19579,7.4695],[80.19568,7.46986],[80.19527,7.47001],[80.19468,7.4704],[80.19403,7.47047],[80.19346,7.46987],[80.19324,7.46953],[80.1932,7.46903],[80.19294,7.46883],[80.19271,7.46893],[80.19276,7.4694],[80.19241,7.46982]]]}},{"type":"Feature","properties":{"c":"farmland"},"geometry":{"type":"Polygon","coordinates":[[[80.20105,7.47293],[80.20159,7.47325],[80.20207,7.47309],[80.20262,7.47223],[80.20285,7.47135],[80.20354,7.47073],[80.2036,7.46995],[80.20309,7.46978],[80.20286,7.47044],[80.20226,7.47109],[80.20214,7.47143],[80.20188,7.47138],[80.20174,7.47157],[80.20206,7.47164],[80.20105,7.47293]]]}},{"type":"Feature","properties":{"c":"farmland"},"geometry":{"type":"Polygon","coordinates":[[[80.19001,7.47601],[80.1905,7.47614],[80.19082,7.47676],[80.19076,7.47714],[80.19137,7.47717],[80.19192,7.47688],[80.19257,7.47685],[80.1939,7.47701],[80.19405,7.47658],[80.19443,7.47623],[80.19472,7.4764],[80.1949,7.47621],[80.19515,7.47609],[80.19543,7.47617],[80.19579,7.47596],[80.1927,7.47515],[80.19241,7.47576],[80.19187,7.47552],[80.1908,7.47578],[80.19045,7.47571],[80.19054,7.47546],[80.19002,7.47546],[80.19001,7.47601]]]}},{"type":"Feature","properties":{"c":"farmland"},"geometry":{"type":"Polygon","coordinates":[[[80.19247,7.48127],[80.19286,7.48154],[80.19329,7.48086],[80.19377,7.48122],[80.19427,7.48209],[80.19441,7.4819],[80.19486,7.48216],[80.19571,7.48219],[80.197,7.48185],[80.19698,7.48234],[80.19822,7.48262],[80.19918,7.48357],[80.19978,7.48326],[80.19963,7.48243],[80.20033,7.48178],[80.20043,7.4812],[80.20076,7.48027],[80.20107,7.47989],[80.20088,7.47955],[80.20117,7.47894],[80.20011,7.47855],[80.19928,7.48173],[80.19753,7.48137],[80.19546,7.47974],[80.19496,7.48003],[80.19383,7.48005],[80.1928,7.48042],[80.19276,7.48079],[80.19256,7.48081],[80.19247,7.48127]]]}},{"type":"Feature","properties":{"c":"farmland"},"geometry":{"type":"Polygon","coordinates":[[[80.19992,7.47613],[80.20014,7.47849],[80.20129,7.47896],[80.20127,7.47933],[80.20164,7.47968],[80.20209,7.47962],[80.2023,7.47884],[80.20186,7.47866],[80.20204,7.47835],[80.20303,7.47874],[80.20316,7.47833],[80.2037,7.47777],[80.20399,7.47776],[80.20425,7.4773],[80.20425,7.47684],[80.2037,7.47696],[80.20346,7.47664],[80.20321,7.4768],[80.2031,7.47753],[80.20264,7.47827],[80.20217,7.47762],[80.20184,7.47731],[80.20169,7.47686],[80.20181,7.47654],[80.20176,7.47613],[80.20119,7.47587],[80.20015,7.47595],[80.19992,7.47613]]]}},{"type":"Feature","properties":{"c":"farmland"},"geometry":{"type":"Polygon","coordinates":[[[80.14604,7.37031],[80.1461,7.37048],[80.1462,7.37053],[80.14848,7.36982],[80.14897,7.36972],[80.14886,7.36914],[80.14812,7.36928],[80.1479,7.36938],[80.14746,7.3694],[80.14732,7.36953],[80.14605,7.37012],[80.14604,7.37031]]]}},{"type":"Feature","properties":{"c":"landfill"},"geometry":{"type":"Polygon","coordinates":[[[80.15383,7.36763],[80.15485,7.36811],[80.15495,7.36791],[80.15482,7.36756],[80.15478,7.36724],[80.15455,7.36715],[80.15502,7.36591],[80.15483,7.36593],[80.15471,7.36604],[80.15429,7.36616],[80.15393,7.36683],[80.15426,7.36655],[80.15421,7.36683],[80.15383,7.36763]]]}},{"type":"Feature","properties":{"c":"farmland"},"geometry":{"type":"Polygon","coordinates":[[[80.15718,7.3626],[80.15847,7.3631],[80.16113,7.36038],[80.15961,7.3599],[80.15947,7.36033],[80.159,7.36079],[80.15871,7.36064],[80.15839,7.36095],[80.15749,7.36091],[80.15725,7.3613],[80.15764,7.36154],[80.15759,7.36191],[80.15735,7.36216],[80.15718,7.3626]]]}},{"type":"Feature","properties":{"c":"farmland"},"geometry":{"type":"Polygon","coordinates":[[[80.16024,7.35842],[80.16035,7.35952],[80.161,7.35994],[80.16187,7.36124],[80.16267,7.36071],[80.16185,7.35949],[80.16172,7.35826],[80.16024,7.35842]]]}},{"type":"Feature","properties":{"c":"farmland"},"geometry":{"type":"Polygon","coordinates":[[[80.16033,7.35829],[80.1618,7.35821],[80.16191,7.35824],[80.16174,7.35774],[80.16255,7.35612],[80.16176,7.35573],[80.16135,7.35621],[80.16105,7.35641],[80.16096,7.35667],[80.16063,7.3567],[80.16033,7.35829]]]}},{"type":"Feature","properties":{"c":"farmland"},"geometry":{"type":"Polygon","coordinates":[[[80.1614,7.35563],[80.16289,7.35601],[80.16307,7.35533],[80.16338,7.35507],[80.16342,7.35465],[80.16332,7.35433],[80.16357,7.35381],[80.16276,7.35343],[80.16252,7.35369],[80.16185,7.35388],[80.1614,7.35563]]]}},{"type":"Feature","properties":{"c":"landfill"},"geometry":{"type":"Polygon","coordinates":[[[80.16289,7.3533],[80.1635,7.35374],[80.16396,7.35311],[80.16392,7.35292],[80.1636,7.35272],[80.16386,7.35261],[80.16418,7.35233],[80.165,7.35124],[80.16496,7.35083],[80.16357,7.35042],[80.16358,7.35108],[80.16289,7.3533]]]}},{"type":"Feature","properties":{"c":"farmland"},"geometry":{"type":"Polygon","coordinates":[[[80.20256,7.40827],[80.20263,7.40845],[80.20273,7.40854],[80.20275,7.40864],[80.20371,7.40857],[80.20375,7.40883],[80.20395,7.4086],[80.20452,7.4084],[80.20463,7.40856],[80.20477,7.40862],[80.2055,7.40856],[80.20572,7.4085],[80.20587,7.40828],[80.20588,7.40806],[80.20597,7.40788],[80.20628,7.40792],[80.20648,7.40751],[80.20654,7.40726],[80.20638,7.40653],[80.20618,7.40678],[80.20597,7.40692],[80.20563,7.40678],[80.20516,7.40683],[80.20481,7.407],[80.20457,7.40705],[80.20426,7.40733],[80.20356,7.40754],[80.20326,7.40783],[80.20287,7.40795],[80.20273,7.40822],[80.20256,7.40827]]]}},{"type":"Feature","properties":{"c":"farmland"},"geometry":{"type":"Polygon","coordinates":[[[80.1961,7.40979],[80.19615,7.41003],[80.19677,7.41072],[80.19694,7.41103],[80.19731,7.41133],[80.19767,7.4111],[80.19812,7.41099],[80.19859,7.41094],[80.1989,7.41121],[80.19881,7.4115],[80.19896,7.41185],[80.1992,7.412],[80.1994,7.41219],[80.19953,7.4125],[80.20002,7.41254],[80.19982,7.41151],[80.20045,7.41215],[80.20076,7.41203],[80.20063,7.41177],[80.20092,7.41168],[80.20075,7.41094],[80.20085,7.4105],[80.20109,7.41006],[80.20111,7.40982],[80.20193,7.4096],[80.20227,7.40961],[80.20257,7.40955],[80.20275,7.40937],[80.2031,7.40927],[80.20324,7.40913],[80.20354,7.40896],[80.20352,7.40858],[80.20294,7.40874],[80.20232,7.40852],[80.20161,7.40807],[80.19934,7.40976],[80.19896,7.40972],[80.1986,7.40995],[80.19849,7.41039],[80.19814,7.41058],[80.19747,7.41035],[80.19679,7.41],[80.19651,7.40966],[80.1966,7.40936],[80.19638,7.40932],[80.1961,7.40979]]]}},{"type":"Feature","properties":{"c":"farmland"},"geometry":{"type":"Polygon","coordinates":[[[80.21338,7.41171],[80.21421,7.41185],[80.21486,7.41216],[80.21526,7.41246],[80.21566,7.41289],[80.21599,7.41289],[80.21625,7.41273],[80.2166,7.41279],[80.21666,7.41272],[80.21635,7.41239],[80.21713,7.41174],[80.21817,7.41162],[80.2187,7.4114],[80.21871,7.41202],[80.21941,7.41227],[80.22038,7.41299],[80.22059,7.4141],[80.22074,7.41419],[80.2209,7.41507],[80.22115,7.41517],[80.22152,7.41498],[80.22108,7.41374],[80.22107,7.41312],[80.22118,7.41255],[80.22119,7.41208],[80.22135,7.41189],[80.22215,7.41184],[80.22249,7.41137],[80.22279,7.41107],[80.22281,7.41083],[80.22252,7.41066],[80.22239,7.41066],[80.22212,7.41076],[80.22169,7.41055],[80.22139,7.41018],[80.22134,7.40999],[80.22091,7.40979],[80.21905,7.40947],[80.21883,7.40951],[80.21858,7.40969],[80.21855,7.40994],[80.21832,7.41019],[80.21809,7.4104],[80.21759,7.41066],[80.21721,7.41049],[80.21683,7.41058],[80.21516,7.41049],[80.21442,7.41063],[80.21417,7.41111],[80.21338,7.41171]]]}},{"type":"Feature","properties":{"c":"farmland"},"geometry":{"type":"Polygon","coordinates":[[[80.20611,7.41007],[80.20625,7.41022],[80.20614,7.41094],[80.20643,7.41107],[80.2063,7.41183],[80.20649,7.41203],[80.20672,7.41212],[80.20704,7.41208],[80.20725,7.41193],[80.20755,7.4119],[80.20815,7.41172],[80.20832,7.41157],[80.20845,7.41134],[80.20805,7.41112],[80.2083,7.41084],[80.20748,7.40986],[80.20705,7.40982],[80.20684,7.40944],[80.20658,7.4095],[80.20626,7.40943],[80.20611,7.41007]]]}}]}