{"type":"FeatureCollection","features":[{"type":"Feature","properties":{"c":"industrial","n":"Mawathagama Industrial Zone"},"geometry":{"type":"Polygon","coordinates":[[[80.45372,7.42804],[80.45373,7.42817],[80.45407,7.42827],[80.45422,7.42858],[80.45498,7.42859],[80.45536,7.42924],[80.45592,7.42916],[80.45668,7.42924],[80.45748,7.42976],[80.45801,7.42999],[80.45821,7.43029],[80.45936,7.43009],[80.45941,7.43012],[80.45942,7.43059],[80.45931,7.43102],[80.45903,7.43173],[80.45934,7.43389],[80.46048,7.43403],[80.46052,7.434],[80.46057,7.4328],[80.46055,7.43271],[80.46018,7.43224],[80.46012,7.431],[80.46036,7.43044],[80.46035,7.42974],[80.45967,7.42878],[80.45975,7.42811],[80.45864,7.42713],[80.45856,7.42713],[80.45804,7.42808],[80.45796,7.42809],[80.4567,7.42746],[80.45663,7.42747],[80.45628,7.42796],[80.45621,7.42797],[80.45418,7.42765],[80.4541,7.42767],[80.45372,7.42804]]]}},{"type":"Feature","properties":{"c":"farmland"},"geometry":{"type":"Polygon","coordinates":[[[80.4622,7.40598],[80.46252,7.40642],[80.46312,7.40629],[80.46339,7.40632],[80.46366,7.40654],[80.46373,7.40762],[80.4634,7.40786],[80.46288,7.40808],[80.46238,7.40858],[80.46223,7.4091],[80.46263,7.40954],[80.46337,7.40945],[80.46416,7.40914],[80.46467,7.40882],[80.466,7.40877],[80.46641,7.40802],[80.46692,7.40766],[80.46702,7.40819],[80.46666,7.40856],[80.46673,7.40936],[80.46704,7.40988],[80.46694,7.41069],[80.46724,7.4113],[80.46745,7.41187],[80.4674,7.41307],[80.46747,7.41365],[80.46804,7.41388],[80.46838,7.41381],[80.46837,7.41332],[80.46856,7.41303],[80.46913,7.41314],[80.46921,7.4123],[80.47043,7.41228],[80.47123,7.412],[80.47222,7.41261],[80.47324,7.41277],[80.47351,7.41334],[80.47391,7.41383],[80.47467,7.4142],[80.47501,7.41477],[80.47475,7.41558],[80.47469,7.41603],[80.47488,7.41633],[80.47568,7.41586],[80.47583,7.41461],[80.47484,7.41332],[80.47459,7.4131],[80.47436,7.41326],[80.47426,7.4135],[80.47398,7.41342],[80.47356,7.41252],[80.47314,7.41233],[80.4733,7.41181],[80.47302,7.41148],[80.47269,7.41141],[80.47236,7.41193],[80.47199,7.41166],[80.47222,7.41117],[80.47267,7.40986],[80.47253,7.40949],[80.47233,7.40944],[80.47199,7.4101],[80.47173,7.40951],[80.47143,7.4097],[80.47088,7.4093],[80.47047,7.40891],[80.46986,7.40848],[80.46958,7.40788],[80.46894,7.40727],[80.46897,7.40685],[80.46893,7.40639],[80.46911,7.40567],[80.46907,7.40508],[80.46932,7.40471],[80.46953,7.40424],[80.46999,7.40387],[80.47025,7.4035],[80.47013,7.40325],[80.46942,7.40345],[80.46928,7.40398],[80.46898,7.40426],[80.46877,7.40456],[80.46827,7.40503],[80.46803,7.40488],[80.46833,7.4046],[80.46775,7.40464],[80.46647,7.40486],[80.46649,7.40445],[80.4668,7.40416],[80.46681,7.40368],[80.46669,7.40317],[80.46555,7.40343],[80.46584,7.40384],[80.46587,7.40429],[80.46466,7.4059],[80.46571,7.40573],[80.46618,7.40534],[80.46675,7.40523],[80.46697,7.40537],[80.46622,7.406],[80.46594,7.40788],[80.46535,7.40842],[80.46497,7.40799],[80.46432,7.40852],[80.46392,7.40866],[80.46375,7.40807],[80.46451,7.40708],[80.46428,7.40664],[80.4645,7.40609],[80.464,7.40599],[80.46377,7.40608],[80.46347,7.40505],[80.46313,7.40506],[80.46249,7.40548],[80.4622,7.40598]]]}},{"type":"Feature","properties":{"c":"farmland"},"geometry":{"type":"Polygon","coordinates":[[[80.45604,7.37738],[80.45617,7.37756],[80.45832,7.37815],[80.45857,7.37841],[80.45916,7.37778],[80.45975,7.37755],[80.46063,7.37746],[80.46173,7.37744],[80.46278,7.37781],[80.46345,7.37734],[80.46339,7.37661],[80.46312,7.37613],[80.46209,7.37544],[80.46134,7.37531],[80.46095,7.37492],[80.46105,7.37412],[80.46098,7.37251],[80.46003,7.37119],[80.45896,7.37089],[80.459,7.37012],[80.45896,7.36927],[80.45928,7.36879],[80.45902,7.36811],[80.4589,7.36728],[80.45847,7.36696],[80.45772,7.36682],[80.45736,7.36663],[80.45685,7.36667],[80.45769,7.36768],[80.45857,7.36741],[80.45882,7.36796],[80.4582,7.37076],[80.45855,7.3713],[80.45967,7.37155],[80.46055,7.37284],[80.4606,7.37432],[80.46044,7.37476],[80.46055,7.37522],[80.46145,7.37577],[80.46238,7.37624],[80.4631,7.37712],[80.46282,7.37724],[80.46229,7.37701],[80.46202,7.37715],[80.46117,7.37693],[80.46016,7.37692],[80.45931,7.37699],[80.45849,7.37656],[80.45852,7.37707],[80.45798,7.37758],[80.45673,7.37734],[80.45604,7.37738]]]}},{"type":"Feature","properties":{"c":"orchard"},"geometry":{"type":"Polygon","coordinates":[[[80.43757,7.40554],[80.43831,7.40583],[80.43844,7.40583],[80.43889,7.40543],[80.43909,7.40561],[80.4393,7.40557],[80.4395,7.40546],[80.43996,7.40456],[80.44014,7.40442],[80.44059,7.40422],[80.44062,7.4041],[80.44046,7.40402],[80.44035,7.40413],[80.44012,7.40421],[80.43992,7.40402],[80.44007,7.40374],[80.43992,7.40369],[80.43964,7.40379],[80.43936,7.40368],[80.4395,7.40362],[80.43944,7.40352],[80.43956,7.40332],[80.43964,7.40331],[80.43978,7.40345],[80.43953,7.40291],[80.43932,7.40291],[80.43902,7.40311],[80.4387,7.40345],[80.43798,7.40392],[80.4377,7.4042],[80.43766,7.40431],[80.43785,7.40448],[80.43786,7.40462],[80.43783,7.40479],[80.43771,7.4049],[80.43765,7.40504],[80.43757,7.40554]]]}},{"type":"Feature","properties":{"c":"residential","n":"Seafield Estate"},"geometry":{"type":"Polygon","coordinates":[[[80.43787,7.43364],[80.43788,7.43502],[80.43848,7.43563],[80.44011,7.43621],[80.44116,7.43588],[80.44187,7.43549],[80.44251,7.43506],[80.44319,7.43467],[80.44297,7.43443],[80.4422,7.43415],[80.44183,7.43382],[80.44158,7.43375],[80.44158,7.43324],[80.44098,7.43265],[80.43998,7.43237],[80.43854,7.43233],[80.43809,7.43272],[80.43787,7.43364]]]}},{"type":"Feature","properties":{"c":"farmland"},"geometry":{"type":"Polygon","coordinates":[[[80.44077,7.43424],[80.44226,7.43486],[80.44251,7.43506],[80.44319,7.43467],[80.44297,7.43443],[80.4422,7.43415],[80.4419,7.43394],[80.44177,7.434],[80.44148,7.43401],[80.44105,7.43377],[80.44077,7.43424]]]}},{"type":"Feature","properties":{"c":"farmland"},"geometry":{"type":"Polygon","coordinates":[[[80.42561,7.49169],[80.42656,7.49194],[80.42662,7.49172],[80.4267,7.49167],[80.42671,7.4915],[80.42705,7.49105],[80.42727,7.49108],[80.42735,7.49081],[80.42732,7.49063],[80.42708,7.49025],[80.42696,7.49022],[80.42665,7.49031],[80.42661,7.49054],[80.4265,7.49063],[80.42653,7.49066],[80.42645,7.49077],[80.42631,7.49087],[80.42639,7.49099],[80.42634,7.49121],[80.42625,7.49122],[80.42618,7.49133],[80.42609,7.49133],[80.4261,7.49145],[80.42591,7.49146],[80.42586,7.49131],[80.42578,7.4913],[80.42561,7.49169]]]}},{"type":"Feature","properties":{"c":"forest"},"geometry":{"type":"Polygon","coordinates":[[[80.45906,7.37938],[80.45915,7.38383],[80.46187,7.38368],[80.46179,7.38513],[80.46402,7.38894],[80.4632,7.38992],[80.46707,7.39338],[80.46782,7.39253],[80.46775,7.3856],[80.46406,7.37747],[80.45906,7.37938]]]}},{"type":"Feature","properties":{"c":"farmland","n":"Paddy"},"geometry":{"type":"Polygon","coordinates":[[[80.44711,7.46052],[80.44731,7.46065],[80.44763,7.46119],[80.44775,7.4611],[80.44782,7.46097],[80.44781,7.46089],[80.44793,7.46083],[80.44821,7.46038],[80.44859,7.46031],[80.44869,7.46022],[80.44896,7.4601],[80.44889,7.45963],[80.44854,7.45955],[80.44845,7.4595],[80.44833,7.45932],[80.44801,7.45921],[80.44801,7.45928],[80.44787,7.45937],[80.44779,7.45961],[80.44746,7.4599],[80.44743,7.45997],[80.44734,7.45997],[80.44719,7.4601],[80.44712,7.4602],[80.44721,7.46033],[80.44711,7.46052]]]}},{"type":"Feature","properties":{"c":"industrial","n":"damro"},"geometry":{"type":"Polygon","coordinates":[[[80.42498,7.51805],[80.42636,7.51942],[80.42783,7.51803],[80.42641,7.51674],[80.42498,7.51805]]]}},{"type":"Feature","properties":{"c":"industrial","n":"damro"},"geometry":{"type":"Polygon","coordinates":[[[80.4245,7.51412],[80.42679,7.51555],[80.42807,7.5135],[80.42568,7.51222],[80.4245,7.51412]]]}},{"type":"Feature","properties":{"c":"farmland","n":"Paddy Field"},"geometry":{"type":"Polygon","coordinates":[[[80.484,7.41255],[80.48447,7.413],[80.48479,7.41346],[80.48466,7.41377],[80.48465,7.41405],[80.48514,7.41444],[80.48536,7.41472],[80.48541,7.41493],[80.48501,7.41526],[80.48535,7.41559],[80.48582,7.41617],[80.48633,7.41629],[80.48693,7.41608],[80.48694,7.41559],[80.48719,7.41546],[80.48782,7.41553],[80.48802,7.41569],[80.48816,7.41618],[80.4885,7.41632],[80.48893,7.41725],[80.48928,7.41724],[80.49036,7.41759],[80.4909,7.41814],[80.49141,7.41837],[80.49161,7.41852],[80.49179,7.41785],[80.49144,7.41761],[80.4914,7.41733],[80.49171,7.41722],[80.49217,7.41693],[80.49242,7.41716],[80.49272,7.41681],[80.49316,7.41671],[80.49356,7.41648],[80.49367,7.416],[80.49413,7.41511],[80.49416,7.41492],[80.49398,7.41481],[80.49409,7.41466],[80.49442,7.41494],[80.49466,7.41472],[80.49483,7.41482],[80.49491,7.41465],[80.49479,7.41436],[80.4945,7.41438],[80.49404,7.41405],[80.49351,7.41375],[80.49303,7.41304],[80.49228,7.41348],[80.4925,7.4143],[80.4923,7.4146],[80.49143,7.4149],[80.4909,7.41487],[80.49073,7.41436],[80.49081,7.41409],[80.49072,7.41373],[80.49081,7.41355],[80.49084,7.41319],[80.49153,7.41291],[80.49197,7.41249],[80.49235,7.41234],[80.49337,7.41145],[80.49281,7.41108],[80.49248,7.41114],[80.49187,7.41085],[80.49155,7.41055],[80.49128,7.41044],[80.49098,7.41001],[80.4907,7.4093],[80.48758,7.41262],[80.48746,7.41233],[80.48729,7.41213],[80.48726,7.41172],[80.48702,7.41111],[80.48685,7.41038],[80.48617,7.4106],[80.48597,7.41042],[80.48526,7.41089],[80.48555,7.41135],[80.48615,7.41158],[80.48602,7.41189],[80.48577,7.41205],[80.48554,7.41191],[80.48538,7.41167],[80.48521,7.41176],[80.48541,7.41216],[80.48517,7.41216],[80.48499,7.41193],[80.48504,7.4116],[80.48485,7.41111],[80.48454,7.41132],[80.48483,7.412],[80.48454,7.41207],[80.48442,7.41219],[80.48427,7.41224],[80.48411,7.41225],[80.484,7.41255]]]}},{"type":"Feature","properties":{"c":"farmland"},"geometry":{"type":"Polygon","coordinates":[[[80.42102,7.50312],[80.42133,7.50335],[80.42152,7.50381],[80.42133,7.50403],[80.42126,7.50431],[80.42152,7.50446],[80.4221,7.5047],[80.42221,7.50511],[80.42239,7.50544],[80.4224,7.50579],[80.42156,7.50636],[80.42131,7.50647],[80.42114,7.50664],[80.42115,7.50703],[80.4213,7.50744],[80.42184,7.50713],[80.42237,7.50662],[80.4229,7.50629],[80.42386,7.50631],[80.42469,7.50659],[80.42533,7.50688],[80.42595,7.50727],[80.42754,7.50784],[80.42847,7.50831],[80.42891,7.50821],[80.42854,7.5077],[80.42787,7.50734],[80.42734,7.5068],[80.42691,7.50648],[80.42585,7.50648],[80.42461,7.50567],[80.42427,7.50567],[80.42388,7.50552],[80.42325,7.50498],[80.42315,7.50467],[80.42316,7.50431],[80.42239,7.50405],[80.42222,7.50377],[80.42189,7.50298],[80.42171,7.50271],[80.42129,7.50255],[80.42103,7.50272],[80.42102,7.50312]]]}},{"type":"Feature","properties":{"c":"farmland"},"geometry":{"type":"Polygon","coordinates":[[[80.42683,7.50426],[80.42728,7.50442],[80.42738,7.50463],[80.42761,7.50447],[80.42792,7.50437],[80.42818,7.50502],[80.42821,7.50534],[80.42835,7.50581],[80.42844,7.50651],[80.42841,7.50698],[80.42869,7.50727],[80.42914,7.50741],[80.4294,7.50715],[80.42957,7.50678],[80.42963,7.50644],[80.42944,7.50572],[80.42942,7.50537],[80.42962,7.50471],[80.42979,7.50434],[80.42944,7.50427],[80.42888,7.50402],[80.42872,7.50391],[80.42845,7.50395],[80.42763,7.50356],[80.4273,7.50363],[80.42704,7.50359],[80.42698,7.5039],[80.42685,7.50406],[80.42683,7.50426]]]}},{"type":"Feature","properties":{"c":"farmland"},"geometry":{"type":"Polygon","coordinates":[[[80.4238,7.49621],[80.42401,7.49669],[80.42407,7.49706],[80.4244,7.49728],[80.42497,7.49718],[80.42564,7.49693],[80.42611,7.4972],[80.42687,7.49872],[80.42732,7.49884],[80.42789,7.49926],[80.42832,7.49944],[80.42876,7.4998],[80.42907,7.50032],[80.42915,7.50054],[80.42915,7.50092],[80.4289,7.50142],[80.42912,7.50347],[80.42935,7.50378],[80.43046,7.50408],[80.43122,7.50367],[80.43202,7.50281],[80.43247,7.50276],[80.43302,7.50257],[80.43308,7.5022],[80.43305,7.50167],[80.43324,7.50143],[80.43434,7.50136],[80.4349,7.50119],[80.43508,7.50088],[80.43508,7.50057],[80.43451,7.5004],[80.43427,7.50014],[80.43471,7.49902],[80.43505,7.49861],[80.43551,7.49834],[80.43619,7.49838],[80.43653,7.49858],[80.43702,7.49843],[80.4372,7.49802],[80.43755,7.49765],[80.43704,7.49734],[80.43671,7.49762],[80.43635,7.49767],[80.43489,7.49731],[80.43446,7.49767],[80.43408,7.4983],[80.43378,7.49861],[80.43357,7.49891],[80.43333,7.49931],[80.43345,7.49944],[80.43331,7.49956],[80.43293,7.49969],[80.43264,7.49989],[80.43254,7.50021],[80.43231,7.50059],[80.43199,7.50065],[80.43176,7.50142],[80.43148,7.50183],[80.43078,7.50261],[80.43032,7.50295],[80.42979,7.50282],[80.42959,7.50254],[80.42978,7.50208],[80.43,7.50171],[80.42985,7.50062],[80.43073,7.49966],[80.43108,7.49896],[80.43103,7.49858],[80.43062,7.49729],[80.43033,7.4961],[80.43002,7.49571],[80.42982,7.49528],[80.4297,7.49479],[80.42932,7.49452],[80.42903,7.49454],[80.42905,7.49498],[80.42936,7.49583],[80.42963,7.4963],[80.42999,7.49725],[80.4301,7.49793],[80.43,7.49861],[80.42968,7.49885],[80.42918,7.49884],[80.42867,7.49874],[80.4282,7.49851],[80.42769,7.49818],[80.42717,7.49729],[80.42707,7.49685],[80.4267,7.49617],[80.4268,7.49593],[80.42726,7.4957],[80.42712,7.49543],[80.42671,7.49522],[80.42627,7.49447],[80.42637,7.49383],[80.42676,7.49367],[80.42697,7.49333],[80.42697,7.49311],[80.42667,7.49322],[80.42661,7.49269],[80.42641,7.49238],[80.42616,7.49227],[80.42598,7.49254],[80.42603,7.49374],[80.42588,7.49379],[80.4256,7.49417],[80.42561,7.49451],[80.42594,7.49484],[80.42624,7.49535],[80.4262,7.49569],[80.42596,7.49623],[80.42577,7.49632],[80.42521,7.49614],[80.425,7.49567],[80.42457,7.49567],[80.42414,7.49577],[80.42391,7.49563],[80.4238,7.49621]]]}},{"type":"Feature","properties":{"c":"farmland"},"geometry":{"type":"Polygon","coordinates":[[[80.41371,7.50796],[80.41397,7.5081],[80.41411,7.50841],[80.4142,7.50849],[80.41437,7.50835],[80.41432,7.5077],[80.41449,7.50728],[80.41478,7.50705],[80.4148,7.50674],[80.41539,7.50601],[80.41559,7.50568],[80.41556,7.50521],[80.41547,7.50495],[80.41538,7.50433],[80.41515,7.50411],[80.41454,7.50392],[80.41449,7.50369],[80.41471,7.50328],[80.41479,7.50277],[80.41424,7.50288],[80.41395,7.50311],[80.41384,7.5034],[80.41398,7.50359],[80.414,7.50381],[80.41394,7.50391],[80.41392,7.50418],[80.41399,7.50435],[80.41418,7.5046],[80.41428,7.50462],[80.41439,7.50452],[80.41458,7.5045],[80.41466,7.50462],[80.41479,7.50469],[80.41497,7.50498],[80.41502,7.50529],[80.41494,7.50541],[80.41448,7.50539],[80.41447,7.50563],[80.41477,7.50587],[80.41459,7.50613],[80.41439,7.5066],[80.41432,7.50689],[80.41417,7.50708],[80.41402,7.50717],[80.41402,7.50736],[80.41396,7.50753],[80.41371,7.50796]]]}},{"type":"Feature","properties":{"c":"farmland","n":"Paddy Field"},"geometry":{"type":"Polygon","coordinates":[[[80.49159,7.41285],[80.49167,7.4129],[80.49174,7.41305],[80.49211,7.41349],[80.49228,7.41348],[80.49325,7.41292],[80.49341,7.41274],[80.49351,7.41273],[80.49406,7.41333],[80.49428,7.41346],[80.49454,7.41346],[80.49474,7.4134],[80.49498,7.41347],[80.49518,7.41367],[80.49539,7.41363],[80.49577,7.41342],[80.4958,7.4132],[80.49577,7.413],[80.49556,7.41297],[80.49539,7.41301],[80.49518,7.41294],[80.49512,7.41285],[80.49486,7.41272],[80.49441,7.41256],[80.49419,7.41223],[80.494,7.4122],[80.49389,7.4121],[80.49337,7.41145],[80.49235,7.41234],[80.49197,7.41249],[80.49159,7.41285]]]}}]}