{"type":"FeatureCollection","features":[{"type":"Feature","properties":{"c":"industrial","n":"Micro Car Facility"},"geometry":{"type":"Polygon","coordinates":[[[80.31254,7.3283],[80.31313,7.32908],[80.31347,7.32993],[80.31353,7.3303],[80.31372,7.33028],[80.3141,7.33006],[80.31416,7.32983],[80.31412,7.32951],[80.31419,7.3292],[80.31441,7.32914],[80.31477,7.32937],[80.31524,7.32981],[80.31545,7.32971],[80.3152,7.32923],[80.31503,7.32877],[80.31462,7.32744],[80.3145,7.32741],[80.31362,7.32828],[80.31261,7.32825],[80.31254,7.3283]]]}},{"type":"Feature","properties":{"c":"park","n":"Polgahawela Children's Park"},"geometry":{"type":"Polygon","coordinates":[[[80.30086,7.33034],[80.30112,7.33041],[80.30125,7.33014],[80.30098,7.33006],[80.30086,7.33034]]]}},{"type":"Feature","properties":{"c":"farmland","n":"Padddy Field"},"geometry":{"type":"Polygon","coordinates":[[[80.32544,7.40832],[80.32584,7.40984],[80.32598,7.40981],[80.32631,7.40911],[80.32666,7.40897],[80.32681,7.40879],[80.32708,7.40868],[80.32732,7.40872],[80.3279,7.40851],[80.32834,7.40842],[80.3284,7.40835],[80.32831,7.40793],[80.32798,7.40808],[80.32757,7.40787],[80.32754,7.4077],[80.32762,7.40756],[80.3278,7.40744],[80.32822,7.40737],[80.32844,7.40753],[80.32886,7.40722],[80.3289,7.40691],[80.32883,7.40681],[80.32856,7.40713],[80.32783,7.40699],[80.32657,7.40714],[80.32656,7.40704],[80.32676,7.40641],[80.32695,7.40645],[80.327,7.406],[80.32738,7.4056],[80.32737,7.40518],[80.32757,7.40455],[80.32757,7.40438],[80.32734,7.40436],[80.32692,7.40512],[80.32678,7.40568],[80.32637,7.4063],[80.32596,7.40672],[80.32573,7.40728],[80.32544,7.40832]]]}},{"type":"Feature","properties":{"c":"farmland"},"geometry":{"type":"Polygon","coordinates":[[[80.32494,7.41018],[80.32552,7.41036],[80.32574,7.40992],[80.32558,7.40935],[80.32515,7.40984],[80.32494,7.41018]]]}},{"type":"Feature","properties":{"c":"farmland"},"geometry":{"type":"Polygon","coordinates":[[[80.32625,7.41153],[80.3264,7.41231],[80.32661,7.4123],[80.32688,7.41221],[80.3274,7.41227],[80.32759,7.41237],[80.32773,7.41261],[80.32791,7.41268],[80.32818,7.41269],[80.32829,7.41235],[80.32864,7.41246],[80.32874,7.41219],[80.32879,7.41191],[80.32856,7.4116],[80.32837,7.41145],[80.32773,7.41126],[80.32765,7.4109],[80.32751,7.4108],[80.32625,7.41153]]]}},{"type":"Feature","properties":{"c":"farmland"},"geometry":{"type":"Polygon","coordinates":[[[80.3247,7.41232],[80.32518,7.41246],[80.32527,7.41235],[80.32587,7.41235],[80.32598,7.41197],[80.32621,7.41186],[80.32597,7.41092],[80.32567,7.41101],[80.32561,7.41093],[80.32561,7.41082],[80.32544,7.4108],[80.32533,7.41105],[80.32527,7.41135],[80.32507,7.4114],[80.3247,7.41232]]]}},{"type":"Feature","properties":{"c":"residential","n":"Yankasa"},"geometry":{"type":"Polygon","coordinates":[[[80.27865,7.40656],[80.27873,7.40667],[80.27881,7.40662],[80.27874,7.40651],[80.27865,7.40656]]]}},{"type":"Feature","properties":{"c":"residential"},"geometry":{"type":"Polygon","coordinates":[[[80.30225,7.32921],[80.30233,7.32941],[80.30228,7.32951],[80.30236,7.32956],[80.30269,7.32906],[80.30273,7.32886],[80.30254,7.32883],[80.30255,7.32878],[80.30243,7.32877],[80.30244,7.32873],[80.30229,7.32872],[80.30227,7.32888],[80.30229,7.32901],[80.30232,7.32901],[80.30225,7.32921]]]}},{"type":"Feature","properties":{"c":"scrub"},"geometry":{"type":"Polygon","coordinates":[[[80.31692,7.32982],[80.31693,7.33045],[80.31714,7.33099],[80.31725,7.33096],[80.31729,7.33107],[80.31716,7.33112],[80.3172,7.33123],[80.31734,7.33129],[80.3171,7.33201],[80.31719,7.33201],[80.31731,7.3318],[80.31742,7.33178],[80.31765,7.33192],[80.31786,7.33244],[80.31825,7.33246],[80.31826,7.3298],[80.31692,7.32982]]]}},{"type":"Feature","properties":{"c":"scrub"},"geometry":{"type":"Polygon","coordinates":[[[80.31721,7.33208],[80.31746,7.33232],[80.31748,7.3325],[80.31784,7.33246],[80.31763,7.33194],[80.31734,7.33187],[80.31721,7.33208]]]}},{"type":"Feature","properties":{"c":"scrub"},"geometry":{"type":"Polygon","coordinates":[[[80.31558,7.33003],[80.31558,7.33195],[80.31577,7.33199],[80.31566,7.33247],[80.31575,7.33247],[80.31618,7.33172],[80.31597,7.3308],[80.31558,7.33003]]]}},{"type":"Feature","properties":{"c":"industrial"},"geometry":{"type":"Polygon","coordinates":[[[80.31611,7.33066],[80.31626,7.33112],[80.31667,7.33099],[80.31659,7.33077],[80.31684,7.33068],[80.31679,7.33055],[80.31611,7.33066]]]}},{"type":"Feature","properties":{"c":"park"},"geometry":{"type":"Polygon","coordinates":[[[80.31574,7.33001],[80.31603,7.33062],[80.31615,7.33058],[80.31612,7.33042],[80.31599,7.33043],[80.31597,7.33021],[80.3161,7.33019],[80.31602,7.33008],[80.31593,7.32998],[80.31574,7.33001]]]}},{"type":"Feature","properties":{"c":"residential"},"geometry":{"type":"Polygon","coordinates":[[[80.30465,7.36446],[80.30479,7.36449],[80.30481,7.36435],[80.30466,7.36432],[80.30465,7.36446]]]}},{"type":"Feature","properties":{"c":"industrial","n":"Metal Shop"},"geometry":{"type":"Polygon","coordinates":[[[80.27755,7.4065],[80.27758,7.40656],[80.27768,7.40652],[80.27766,7.40646],[80.27755,7.4065]]]}},{"type":"Feature","properties":{"c":"farmland"},"geometry":{"type":"Polygon","coordinates":[[[80.28423,7.35552],[80.2847,7.35621],[80.28553,7.35646],[80.28636,7.35621],[80.28672,7.35626],[80.28712,7.35613],[80.28729,7.35618],[80.2877,7.35599],[80.28803,7.35604],[80.2882,7.35623],[80.28856,7.35614],[80.28868,7.35621],[80.2891,7.35587],[80.28955,7.3559],[80.28971,7.35581],[80.28943,7.35535],[80.28908,7.35532],[80.28899,7.35517],[80.2878,7.35522],[80.28743,7.35502],[80.28724,7.35504],[80.28699,7.35495],[80.28643,7.35496],[80.2861,7.35537],[80.28582,7.35514],[80.28511,7.3555],[80.28487,7.35539],[80.28423,7.35552]]]}},{"type":"Feature","properties":{"c":"farmland"},"geometry":{"type":"Polygon","coordinates":[[[80.28929,7.35522],[80.28964,7.35537],[80.28987,7.35568],[80.28986,7.35586],[80.29032,7.35571],[80.2905,7.35556],[80.29043,7.35542],[80.29049,7.35511],[80.29077,7.35514],[80.29069,7.35489],[80.29045,7.35482],[80.29024,7.35461],[80.28971,7.3548],[80.28929,7.35522]]]}},{"type":"Feature","properties":{"c":"farmland"},"geometry":{"type":"Polygon","coordinates":[[[80.28886,7.35661],[80.28926,7.35678],[80.28951,7.35703],[80.28951,7.35713],[80.29011,7.35705],[80.29045,7.35706],[80.29051,7.35665],[80.29068,7.35666],[80.29061,7.35648],[80.29016,7.35661],[80.29023,7.35679],[80.29004,7.35687],[80.28972,7.35682],[80.28966,7.35653],[80.2893,7.35648],[80.28903,7.35632],[80.28891,7.35637],[80.28886,7.35661]]]}},{"type":"Feature","properties":{"c":"orchard"},"geometry":{"type":"Polygon","coordinates":[[[80.29203,7.35524],[80.29332,7.35546],[80.29363,7.35578],[80.29424,7.35587],[80.29476,7.3562],[80.29607,7.35617],[80.29628,7.35604],[80.29675,7.35592],[80.29722,7.35598],[80.29779,7.35552],[80.29826,7.35525],[80.29798,7.35459],[80.29763,7.35461],[80.29738,7.35422],[80.29696,7.3542],[80.29675,7.35457],[80.2939,7.35421],[80.29309,7.35416],[80.29285,7.35458],[80.29223,7.35475],[80.29203,7.35524]]]}},{"type":"Feature","properties":{"c":"farmland","n":"old maps had trees here"},"geometry":{"type":"Polygon","coordinates":[[[80.28941,7.35226],[80.28988,7.35224],[80.28994,7.35276],[80.29041,7.35299],[80.29142,7.35245],[80.29138,7.35157],[80.29082,7.35121],[80.2905,7.35047],[80.29018,7.35103],[80.28943,7.35158],[80.28941,7.35226]]]}},{"type":"Feature","properties":{"c":"farmland","n":"paddy"},"geometry":{"type":"Polygon","coordinates":[[[80.28621,7.32615],[80.29171,7.32787],[80.29201,7.32776],[80.29241,7.32782],[80.29252,7.32777],[80.29268,7.32796],[80.29325,7.32791],[80.29356,7.32779],[80.29375,7.32809],[80.29405,7.32825],[80.29431,7.32808],[80.29493,7.32816],[80.29571,7.32797],[80.29599,7.32832],[80.29599,7.32862],[80.29628,7.32885],[80.29633,7.3292],[80.29673,7.32927],[80.29661,7.32952],[80.29727,7.32974],[80.29824,7.32977],[80.29843,7.32953],[80.29787,7.32866],[80.29768,7.32892],[80.29746,7.32843],[80.29721,7.32836],[80.29712,7.32819],[80.29691,7.32822],[80.29692,7.32813],[80.29676,7.32804],[80.29676,7.32796],[80.29638,7.3277],[80.29644,7.32757],[80.29655,7.32763],[80.29656,7.32747],[80.29642,7.32735],[80.29597,7.3274],[80.2958,7.32731],[80.29578,7.32717],[80.29535,7.32686],[80.29452,7.32711],[80.29396,7.32722],[80.29331,7.32724],[80.29318,7.3271],[80.29302,7.32705],[80.29292,7.32709],[80.29265,7.32735],[80.29218,7.32747],[80.29209,7.32736],[80.29189,7.3273],[80.2917,7.32695],[80.29123,7.327],[80.29066,7.32679],[80.29035,7.32673],[80.29012,7.32677],[80.28995,7.32675],[80.28949,7.32653],[80.28863,7.32648],[80.28823,7.32623],[80.28725,7.32603],[80.28621,7.32615]]]}},{"type":"Feature","properties":{"c":"farmland"},"geometry":{"type":"Polygon","coordinates":[[[80.28386,7.35527],[80.28413,7.35537],[80.28448,7.35538],[80.28481,7.35526],[80.28511,7.35539],[80.28556,7.35516],[80.28495,7.355],[80.28453,7.35509],[80.28431,7.35502],[80.28386,7.35527]]]}},{"type":"Feature","properties":{"c":"farmland"},"geometry":{"type":"Polygon","coordinates":[[[80.28263,7.35546],[80.28264,7.35634],[80.28353,7.35614],[80.28396,7.35592],[80.2844,7.35586],[80.28433,7.35568],[80.28375,7.35552],[80.28361,7.35524],[80.2834,7.35521],[80.28263,7.35546]]]}},{"type":"Feature","properties":{"c":"farmland"},"geometry":{"type":"Polygon","coordinates":[[[80.30814,7.36045],[80.30825,7.36067],[80.30827,7.361],[80.30898,7.36107],[80.30942,7.3618],[80.30941,7.36203],[80.30976,7.3626],[80.30976,7.36188],[80.31006,7.36173],[80.31023,7.36153],[80.31054,7.36084],[80.31056,7.35997],[80.31106,7.36079],[80.31159,7.36154],[80.31157,7.36193],[80.31254,7.3631],[80.31318,7.36259],[80.31276,7.36242],[80.31255,7.36224],[80.31202,7.36152],[80.31166,7.36053],[80.31163,7.35986],[80.31148,7.35954],[80.3116,7.35939],[80.31142,7.35902],[80.31047,7.35926],[80.31,7.35931],[80.30976,7.35959],[80.30918,7.35966],[80.30853,7.36013],[80.30828,7.36011],[80.30814,7.36045]]]}},{"type":"Feature","properties":{"c":"farmland"},"geometry":{"type":"Polygon","coordinates":[[[80.31116,7.35845],[80.31139,7.35896],[80.31195,7.35889],[80.31202,7.35857],[80.312,7.35844],[80.31163,7.35836],[80.3114,7.35838],[80.31129,7.35847],[80.31116,7.35845]]]}},{"type":"Feature","properties":{"c":"farmland"},"geometry":{"type":"Polygon","coordinates":[[[80.31149,7.35902],[80.31178,7.35959],[80.31192,7.35919],[80.31203,7.35912],[80.31207,7.35902],[80.31227,7.35909],[80.31264,7.35906],[80.31285,7.35896],[80.31292,7.35882],[80.31262,7.3588],[80.31243,7.35842],[80.31207,7.35856],[80.31202,7.35888],[80.31149,7.35902]]]}},{"type":"Feature","properties":{"c":"industrial","n":"Wayamba Flywood PVT"},"geometry":{"type":"Polygon","coordinates":[[[80.33815,7.38859],[80.33824,7.38922],[80.3388,7.38912],[80.33885,7.389],[80.33877,7.38851],[80.33819,7.38851],[80.33815,7.38859]]]}},{"type":"Feature","properties":{"c":"farmland"},"geometry":{"type":"Polygon","coordinates":[[[80.30009,7.39578],[80.30049,7.39637],[80.30128,7.39623],[80.30207,7.3962],[80.30194,7.3953],[80.30081,7.39539],[80.30009,7.39578]]]}},{"type":"Feature","properties":{"c":"farmland"},"geometry":{"type":"Polygon","coordinates":[[[80.29917,7.39584],[80.2997,7.39654],[80.30016,7.39735],[80.30048,7.3977],[80.30125,7.39682],[80.30009,7.39578],[80.29917,7.39584]]]}},{"type":"Feature","properties":{"c":"farmland"},"geometry":{"type":"Polygon","coordinates":[[[80.30056,7.39772],[80.30255,7.3979],[80.30371,7.3984],[80.30349,7.3974],[80.30302,7.39705],[80.30252,7.39684],[80.30136,7.39674],[80.30056,7.39772]]]}},{"type":"Feature","properties":{"c":"forest"},"geometry":{"type":"Polygon","coordinates":[[[80.29089,7.34718],[80.29302,7.34724],[80.29299,7.34636],[80.2909,7.34618],[80.29089,7.34718]]]}},{"type":"Feature","properties":{"c":"farmland"},"geometry":{"type":"Polygon","coordinates":[[[80.31288,7.38007],[80.31288,7.38088],[80.31401,7.38022],[80.31468,7.37975],[80.3143,7.37965],[80.31358,7.37907],[80.31288,7.38007]]]}},{"type":"Feature","properties":{"c":"farmland"},"geometry":{"type":"Polygon","coordinates":[[[80.31833,7.35089],[80.31893,7.35123],[80.31978,7.34893],[80.31836,7.34892],[80.31833,7.35089]]]}},{"type":"Feature","properties":{"c":"industrial"},"geometry":{"type":"Polygon","coordinates":[[[80.30473,7.33713],[80.30481,7.33726],[80.30491,7.33721],[80.30491,7.33705],[80.30473,7.33713]]]}},{"type":"Feature","properties":{"c":"industrial","n":"Rice Mill"},"geometry":{"type":"Polygon","coordinates":[[[80.32847,7.41945],[80.32855,7.41961],[80.32875,7.41974],[80.32939,7.41981],[80.32948,7.41966],[80.32959,7.41968],[80.32971,7.41946],[80.32959,7.41935],[80.32924,7.41945],[80.32919,7.41943],[80.32921,7.41938],[80.32891,7.41927],[80.32882,7.41919],[80.32847,7.41945]]]}},{"type":"Feature","properties":{"c":"farmland"},"geometry":{"type":"Polygon","coordinates":[[[80.34211,7.41665],[80.34226,7.41693],[80.34257,7.41729],[80.34275,7.41737],[80.34268,7.4177],[80.34386,7.41845],[80.34376,7.41864],[80.34432,7.41895],[80.34429,7.41901],[80.3453,7.41991],[80.34517,7.42004],[80.34561,7.42051],[80.34585,7.42086],[80.34615,7.42089],[80.34635,7.42108],[80.34669,7.42124],[80.34693,7.42151],[80.34708,7.42192],[80.34754,7.42253],[80.34774,7.42259],[80.34816,7.42292],[80.34816,7.42323],[80.34851,7.42344],[80.34858,7.42369],[80.34874,7.42388],[80.3486,7.42408],[80.34852,7.42443],[80.3485,7.42502],[80.34919,7.42553],[80.34937,7.4255],[80.34923,7.42483],[80.34921,7.42429],[80.34941,7.42418],[80.34995,7.42451],[80.35026,7.42501],[80.35101,7.42568],[80.35158,7.42502],[80.3513,7.42477],[80.35133,7.42452],[80.35091,7.42401],[80.35101,7.42361],[80.35069,7.42307],[80.35065,7.42284],[80.35077,7.42263],[80.35091,7.42259],[80.35199,7.42243],[80.35228,7.42258],[80.35229,7.42236],[80.3518,7.42165],[80.35159,7.42166],[80.35109,7.42195],[80.35083,7.42203],[80.35037,7.42196],[80.35056,7.42155],[80.35044,7.42128],[80.35003,7.42158],[80.34973,7.42171],[80.34966,7.42142],[80.34925,7.42093],[80.34891,7.4208],[80.3488,7.42012],[80.349,7.41986],[80.34912,7.4194],[80.34891,7.41938],[80.34868,7.41966],[80.34798,7.42014],[80.34759,7.42025],[80.34716,7.42016],[80.34702,7.41989],[80.34669,7.41949],[80.34688,7.41938],[80.34704,7.41887],[80.34779,7.4188],[80.3482,7.41867],[80.3484,7.41854],[80.34884,7.41924],[80.34928,7.41933],[80.34978,7.41921],[80.35023,7.41927],[80.3507,7.41966],[80.35089,7.42029],[80.35123,7.42022],[80.35123,7.41992],[80.35134,7.41957],[80.35156,7.41922],[80.35155,7.41907],[80.35178,7.41905],[80.35187,7.41911],[80.35213,7.41902],[80.35264,7.41874],[80.35329,7.41774],[80.35359,7.41767],[80.35346,7.41731],[80.35294,7.41742],[80.35277,7.41757],[80.35255,7.41761],[80.35239,7.41781],[80.35209,7.41744],[80.35207,7.41734],[80.35235,7.41737],[80.35262,7.41722],[80.35286,7.41704],[80.35288,7.41682],[80.35272,7.41674],[80.35245,7.41674],[80.35239,7.41624],[80.35215,7.41583],[80.35219,7.41549],[80.35238,7.41502],[80.35235,7.41432],[80.35193,7.41407],[80.35177,7.41445],[80.35166,7.41492],[80.35153,7.41516],[80.35097,7.41499],[80.35058,7.41506],[80.35038,7.41521],[80.35015,7.41522],[80.3498,7.41505],[80.34933,7.41497],[80.349,7.41455],[80.34873,7.41453],[80.34814,7.41481],[80.34774,7.41493],[80.34758,7.41516],[80.34677,7.41572],[80.3462,7.41632],[80.34562,7.41675],[80.34509,7.41654],[80.34486,7.41625],[80.34475,7.41599],[80.34454,7.4158],[80.34425,7.41565],[80.34366,7.41565],[80.34316,7.41516],[80.34317,7.41502],[80.34334,7.41461],[80.34335,7.41439],[80.3431,7.41455],[80.34289,7.41448],[80.34221,7.41552],[80.34213,7.41577],[80.34218,7.41599],[80.34228,7.41616],[80.34215,7.41646],[80.34211,7.41665]]]}},{"type":"Feature","properties":{"c":"farmland"},"geometry":{"type":"Polygon","coordinates":[[[80.30644,7.32206],[80.30673,7.3222],[80.30725,7.3215],[80.30726,7.32138],[80.30741,7.32137],[80.30785,7.32174],[80.30806,7.32221],[80.30803,7.32298],[80.30814,7.32319],[80.30813,7.32341],[80.30785,7.32343],[80.30774,7.32408],[80.30763,7.32428],[80.30851,7.32476],[80.30907,7.32513],[80.30943,7.32507],[80.30954,7.32477],[80.30931,7.32469],[80.30926,7.32445],[80.30893,7.32439],[80.30873,7.32444],[80.30856,7.3244],[80.30838,7.32423],[80.30847,7.32354],[80.3084,7.32332],[80.30848,7.32297],[80.3084,7.32219],[80.30811,7.32144],[80.30793,7.3212],[80.30769,7.32107],[80.30767,7.32083],[80.30761,7.32082],[80.30755,7.32062],[80.30717,7.32053],[80.3071,7.32059],[80.30708,7.32077],[80.30676,7.32118],[80.30644,7.32206]]]}},{"type":"Feature","properties":{"c":"farmland"},"geometry":{"type":"Polygon","coordinates":[[[80.30968,7.32513],[80.31014,7.32685],[80.31158,7.32641],[80.31142,7.32614],[80.31094,7.32633],[80.31042,7.3258],[80.31033,7.32553],[80.31029,7.32515],[80.3102,7.3252],[80.31004,7.32479],[80.30996,7.32481],[80.30968,7.32513]]]}},{"type":"Feature","properties":{"c":"farmland"},"geometry":{"type":"Polygon","coordinates":[[[80.30423,7.3322],[80.30582,7.33426],[80.30625,7.33471],[80.30638,7.33449],[80.30695,7.33495],[80.3068,7.33514],[80.30673,7.33545],[80.30697,7.33629],[80.30731,7.33625],[80.30756,7.33628],[80.30886,7.33626],[80.30902,7.33583],[80.30924,7.33556],[80.30924,7.3353],[80.30903,7.33528],[80.30887,7.33494],[80.30884,7.33451],[80.30894,7.33418],[80.30925,7.33382],[80.30923,7.33366],[80.30976,7.3336],[80.30977,7.33355],[80.30428,7.33215],[80.30423,7.3322]]]}},{"type":"Feature","properties":{"c":"farmland"},"geometry":{"type":"Polygon","coordinates":[[[80.29487,7.32948],[80.29515,7.32968],[80.29579,7.32981],[80.29636,7.33021],[80.29642,7.33058],[80.29663,7.3309],[80.29659,7.33112],[80.29669,7.33123],[80.29731,7.33133],[80.29763,7.33202],[80.29773,7.33212],[80.29818,7.3322],[80.29869,7.33311],[80.29906,7.33324],[80.29931,7.33385],[80.29984,7.33367],[80.29906,7.33216],[80.29887,7.33199],[80.29848,7.33189],[80.29879,7.33159],[80.29892,7.33138],[80.29877,7.33106],[80.29848,7.33094],[80.29838,7.33049],[80.29793,7.3302],[80.29572,7.32953],[80.29494,7.32933],[80.29487,7.32948]]]}},{"type":"Feature","properties":{"c":"farmland"},"geometry":{"type":"Polygon","coordinates":[[[80.29009,7.33139],[80.29018,7.33151],[80.2902,7.33163],[80.29034,7.33178],[80.29054,7.33178],[80.2908,7.33193],[80.2908,7.33202],[80.29089,7.33207],[80.29111,7.33186],[80.2911,7.33169],[80.29075,7.3315],[80.29057,7.33129],[80.29065,7.33116],[80.29093,7.3311],[80.29136,7.33091],[80.29155,7.33077],[80.29161,7.33061],[80.29155,7.33007],[80.29184,7.33012],[80.2921,7.33007],[80.29226,7.3299],[80.2918,7.32962],[80.29156,7.32981],[80.29139,7.32978],[80.29121,7.3297],[80.29101,7.32987],[80.29082,7.33054],[80.29066,7.33079],[80.29031,7.33098],[80.29012,7.33126],[80.29009,7.33139]]]}},{"type":"Feature","properties":{"c":"farmland"},"geometry":{"type":"Polygon","coordinates":[[[80.29096,7.32799],[80.29117,7.3285],[80.2915,7.32884],[80.29221,7.32916],[80.29282,7.32927],[80.29311,7.32923],[80.29341,7.32911],[80.29343,7.32939],[80.2936,7.32963],[80.29387,7.32953],[80.29368,7.32928],[80.29365,7.32909],[80.29371,7.32882],[80.29217,7.32832],[80.29096,7.32799]]]}},{"type":"Feature","properties":{"c":"farmland"},"geometry":{"type":"Polygon","coordinates":[[[80.29259,7.32411],[80.29259,7.32428],[80.2928,7.32453],[80.29289,7.32454],[80.29309,7.32438],[80.29337,7.32435],[80.29348,7.3245],[80.29361,7.32453],[80.29389,7.32422],[80.29399,7.32395],[80.29434,7.32378],[80.29474,7.32377],[80.29477,7.32362],[80.29497,7.32354],[80.29493,7.32336],[80.29538,7.32314],[80.29547,7.32299],[80.29562,7.32289],[80.29556,7.32274],[80.29599,7.32255],[80.29621,7.32264],[80.29667,7.32257],[80.29676,7.32238],[80.29664,7.32234],[80.29663,7.32228],[80.29702,7.32216],[80.29712,7.32202],[80.29763,7.32174],[80.29815,7.32163],[80.29843,7.32138],[80.29876,7.32133],[80.29919,7.32114],[80.29931,7.32116],[80.29938,7.32127],[80.29984,7.32164],[80.2999,7.3221],[80.29949,7.32259],[80.29906,7.32278],[80.29886,7.32306],[80.29883,7.32326],[80.29873,7.32327],[80.2988,7.32348],[80.29879,7.3238],[80.29913,7.32396],[80.29925,7.32378],[80.29936,7.3232],[80.29943,7.32309],[80.29972,7.32294],[80.29996,7.32292],[80.30025,7.32232],[80.30041,7.32222],[80.30062,7.3222],[80.30089,7.32225],[80.30146,7.32266],[80.30161,7.32315],[80.30149,7.32337],[80.30147,7.32361],[80.30164,7.32384],[80.30168,7.32408],[80.30206,7.32419],[80.30219,7.32358],[80.30252,7.32378],[80.3026,7.32395],[80.30284,7.32415],[80.30321,7.32459],[80.30333,7.32515],[80.30322,7.32523],[80.30311,7.32558],[80.30314,7.32579],[80.30307,7.32612],[80.30318,7.32646],[80.30307,7.32662],[80.303,7.32688],[80.30262,7.32744],[80.30248,7.32781],[80.30246,7.3281],[80.30326,7.32816],[80.30342,7.32838],[80.30345,7.32882],[80.30356,7.32911],[80.30388,7.32915],[80.30409,7.32908],[80.30408,7.32885],[80.3042,7.32859],[80.30419,7.3285],[80.30406,7.32833],[80.30407,7.3281],[80.30393,7.32787],[80.304,7.32696],[80.30379,7.32687],[80.30404,7.32616],[80.30408,7.32589],[80.30398,7.32579],[80.304,7.32554],[80.30417,7.32538],[80.30491,7.32553],[80.30513,7.32581],[80.30536,7.32626],[80.30561,7.32709],[80.30573,7.32708],[80.30585,7.32731],[80.30608,7.32723],[80.30604,7.32705],[80.30611,7.32702],[80.30592,7.32634],[80.30593,7.32609],[80.30581,7.32599],[80.30572,7.32584],[80.30577,7.32575],[80.30569,7.32568],[80.30575,7.32545],[80.30555,7.3253],[80.30519,7.32489],[80.30497,7.3249],[80.30483,7.32484],[80.30486,7.3247],[80.30471,7.32451],[80.30447,7.32436],[80.30428,7.32445],[80.30399,7.3248],[80.30389,7.32459],[80.3039,7.32447],[80.30403,7.32429],[80.3039,7.32398],[80.30398,7.32374],[80.30388,7.32358],[80.30349,7.32316],[80.30293,7.32277],[80.30269,7.32272],[80.30225,7.32239],[80.30176,7.32198],[80.30142,7.32162],[80.30073,7.32133],[80.30046,7.32096],[80.30015,7.32073],[80.30001,7.32047],[80.3001,7.32028],[80.29992,7.3193],[80.29968,7.31906],[80.29917,7.31905],[80.299,7.31917],[80.29885,7.31944],[80.29887,7.3202],[80.29879,7.32034],[80.29864,7.32042],[80.29823,7.32054],[80.29809,7.3207],[80.298,7.32093],[80.29778,7.32097],[80.29763,7.32089],[80.29721,7.32121],[80.29669,7.32128],[80.29656,7.32122],[80.29625,7.32141],[80.296,7.32136],[80.2955,7.32171],[80.29522,7.32177],[80.29494,7.32196],[80.29434,7.322],[80.29414,7.3221],[80.29385,7.32215],[80.29374,7.32228],[80.29375,7.32253],[80.2939,7.32269],[80.29406,7.32268],[80.29427,7.32256],[80.29462,7.32257],[80.29481,7.32263],[80.2949,7.32277],[80.29487,7.32292],[80.29468,7.32315],[80.29449,7.32315],[80.29435,7.3233],[80.29402,7.32341],[80.29378,7.3234],[80.29369,7.32388],[80.2935,7.32385],[80.29333,7.32393],[80.29319,7.32389],[80.29259,7.32411]]]}},{"type":"Feature","properties":{"c":"farmland"},"geometry":{"type":"Polygon","coordinates":[[[80.28232,7.3187],[80.28243,7.31886],[80.28335,7.31915],[80.28359,7.31915],[80.28425,7.31905],[80.28453,7.31908],[80.28449,7.31917],[80.28456,7.31935],[80.28446,7.31953],[80.28454,7.31974],[80.28385,7.32055],[80.28341,7.32033],[80.28327,7.32038],[80.28325,7.32048],[80.28346,7.32062],[80.28375,7.32069],[80.28367,7.32112],[80.28367,7.32145],[80.28399,7.32151],[80.28463,7.32099],[80.28485,7.3206],[80.28543,7.32112],[80.28561,7.32101],[80.2857,7.321],[80.28572,7.32092],[80.28555,7.32059],[80.28555,7.32039],[80.28563,7.32026],[80.28587,7.32021],[80.28594,7.32003],[80.28608,7.31998],[80.28617,7.32013],[80.28645,7.32018],[80.28663,7.32041],[80.28689,7.32058],[80.28689,7.32071],[80.287,7.32081],[80.28725,7.32075],[80.28733,7.32088],[80.28747,7.32097],[80.28763,7.32097],[80.28776,7.32088],[80.28766,7.32051],[80.28767,7.32016],[80.28751,7.31999],[80.28747,7.31981],[80.28833,7.31928],[80.28847,7.31924],[80.28863,7.31922],[80.2888,7.31927],[80.28905,7.31962],[80.28908,7.31979],[80.28885,7.32017],[80.28889,7.32077],[80.28887,7.32121],[80.28894,7.32135],[80.28914,7.32138],[80.28926,7.3213],[80.28933,7.32111],[80.28931,7.32077],[80.28923,7.32051],[80.28939,7.32021],[80.2894,7.31982],[80.28965,7.31969],[80.28979,7.31969],[80.28983,7.31974],[80.2906,7.31967],[80.2907,7.31998],[80.29104,7.32016],[80.29124,7.32009],[80.29148,7.3199],[80.29167,7.3199],[80.29171,7.31997],[80.29167,7.32031],[80.29191,7.32046],[80.29208,7.32038],[80.29233,7.3205],[80.29255,7.32013],[80.29209,7.31996],[80.29157,7.3195],[80.29107,7.31938],[80.29088,7.3192],[80.29063,7.31908],[80.29029,7.3191],[80.2901,7.31906],[80.28995,7.31912],[80.28977,7.31905],[80.28956,7.31905],[80.2894,7.31852],[80.28899,7.31827],[80.2887,7.31832],[80.28846,7.31844],[80.28822,7.31848],[80.28798,7.3187],[80.28727,7.31915],[80.28696,7.3192],[80.28647,7.31946],[80.28593,7.31943],[80.2858,7.31957],[80.2856,7.31955],[80.28508,7.31939],[80.28512,7.31872],[80.28489,7.31874],[80.28489,7.31862],[80.28507,7.3186],[80.28532,7.31832],[80.28541,7.31834],[80.28556,7.31815],[80.2863,7.31765],[80.28651,7.31746],[80.28643,7.3173],[80.28506,7.31815],[80.28492,7.31833],[80.284,7.31847],[80.28393,7.31838],[80.2834,7.31857],[80.28321,7.31857],[80.28291,7.31826],[80.28266,7.31845],[80.28234,7.31843],[80.28232,7.3187]]]}},{"type":"Feature","properties":{"c":"farmland"},"geometry":{"type":"Polygon","coordinates":[[[80.29023,7.31637],[80.29025,7.31657],[80.29085,7.31708],[80.29089,7.31758],[80.29097,7.31765],[80.29112,7.31764],[80.29165,7.318],[80.29208,7.31765],[80.29204,7.3174],[80.29178,7.31705],[80.29063,7.31625],[80.2904,7.31616],[80.29034,7.31632],[80.29023,7.31637]]]}},{"type":"Feature","properties":{"c":"farmland"},"geometry":{"type":"Polygon","coordinates":[[[80.30308,7.34061],[80.30338,7.34074],[80.30329,7.34102],[80.30367,7.34123],[80.30372,7.34164],[80.30363,7.34181],[80.30363,7.34219],[80.30396,7.34276],[80.30409,7.34271],[80.30425,7.34293],[80.30443,7.34307],[80.30442,7.34318],[80.30504,7.3433],[80.30494,7.34257],[80.30535,7.34269],[80.30558,7.34265],[80.30536,7.34203],[80.30539,7.34192],[80.30561,7.34178],[80.30565,7.34161],[80.30576,7.34158],[80.30597,7.34164],[80.30628,7.34149],[80.30638,7.34156],[80.30645,7.34153],[80.30634,7.34125],[80.30636,7.34116],[80.30689,7.34115],[80.30725,7.34095],[80.30729,7.34085],[80.30774,7.34093],[80.30781,7.34098],[80.30805,7.34088],[80.30797,7.34053],[80.30822,7.34049],[80.30837,7.33981],[80.30865,7.33964],[80.30879,7.3394],[80.30865,7.33928],[80.30837,7.33917],[80.3083,7.3391],[80.30835,7.33899],[80.30892,7.33894],[80.30891,7.33843],[80.30926,7.33848],[80.30933,7.33831],[80.30942,7.33829],[80.30967,7.33788],[80.30925,7.33749],[80.30896,7.33742],[80.30823,7.33689],[80.30814,7.33684],[80.30794,7.33692],[80.3079,7.33647],[80.30762,7.33637],[80.30765,7.33669],[80.30742,7.3367],[80.30741,7.33702],[80.3072,7.33703],[80.30712,7.33728],[80.30697,7.33737],[80.30703,7.33766],[80.30696,7.33786],[80.307,7.33856],[80.30694,7.33876],[80.30666,7.3389],[80.30654,7.33904],[80.30615,7.33917],[80.30604,7.33933],[80.30617,7.33981],[80.30641,7.33983],[80.30649,7.33996],[80.3065,7.3401],[80.30661,7.34035],[80.30647,7.34082],[80.30628,7.34089],[80.30604,7.34085],[80.30589,7.34098],[80.30569,7.34094],[80.30567,7.34107],[80.30536,7.34123],[80.30519,7.34144],[80.30508,7.34141],[80.30496,7.34113],[80.30455,7.34063],[80.30391,7.34028],[80.30378,7.34015],[80.30378,7.3399],[80.30418,7.33942],[80.3041,7.33932],[80.30358,7.33972],[80.3032,7.34028],[80.30308,7.34061]]]}},{"type":"Feature","properties":{"c":"quarry"},"geometry":{"type":"Polygon","coordinates":[[[80.26872,7.40429],[80.26997,7.40516],[80.27004,7.40545],[80.26966,7.40607],[80.27149,7.40737],[80.27179,7.40642],[80.27221,7.40625],[80.27242,7.40578],[80.27279,7.40572],[80.2728,7.40528],[80.27312,7.40497],[80.27349,7.40383],[80.27301,7.4031],[80.27311,7.40238],[80.27286,7.40196],[80.27199,7.40123],[80.27058,7.40052],[80.26885,7.40328],[80.2692,7.40345],[80.26872,7.40429]]]}},{"type":"Feature","properties":{"c":"industrial","n":"Polgahawela Export Processing Zone"},"geometry":{"type":"Polygon","coordinates":[[[80.31254,7.3283],[80.31313,7.32908],[80.31347,7.32993],[80.31348,7.33041],[80.31372,7.33041],[80.3141,7.33006],[80.31415,7.32976],[80.31413,7.32941],[80.31425,7.32925],[80.3147,7.32933],[80.31534,7.32997],[80.31557,7.33099],[80.31525,7.33123],[80.31505,7.33129],[80.31408,7.33242],[80.31405,7.33283],[80.31467,7.33357],[80.3147,7.33385],[80.31588,7.3337],[80.31738,7.33337],[80.31828,7.33303],[80.31826,7.33121],[80.31739,7.33112],[80.317,7.33068],[80.31693,7.32959],[80.31742,7.32938],[80.31639,7.32694],[80.31768,7.32685],[80.31711,7.32564],[80.31642,7.32572],[80.3157,7.32547],[80.31551,7.32702],[80.31589,7.32793],[80.31633,7.32876],[80.31618,7.32898],[80.31537,7.32938],[80.31464,7.32731],[80.31369,7.32825],[80.31254,7.3283]]]}},{"type":"Feature","properties":{"c":"farmland"},"geometry":{"type":"Polygon","coordinates":[[[80.31389,7.38593],[80.31405,7.38621],[80.31402,7.38659],[80.31412,7.38662],[80.31431,7.38606],[80.31389,7.38593]]]}}]}