{"type":"FeatureCollection","features":[{"type":"Feature","properties":{"c":"forest"},"geometry":{"type":"Polygon","coordinates":[[[80.5358,7.59655],[80.53667,7.59842],[80.53678,7.60008],[80.53726,7.60159],[80.53842,7.60354],[80.53918,7.60516],[80.53969,7.60652],[80.54005,7.60869],[80.54067,7.61131],[80.54064,7.61344],[80.54074,7.61524],[80.54114,7.61686],[80.54151,7.61935],[80.54151,7.62028],[80.54205,7.62583],[80.54249,7.62792],[80.54391,7.63116],[80.54532,7.6366],[80.54725,7.63523],[80.54768,7.63267],[80.54834,7.62997],[80.54812,7.62752],[80.54823,7.62453],[80.54794,7.62212],[80.54816,7.61974],[80.54848,7.61697],[80.54736,7.61531],[80.54649,7.61326],[80.54667,7.61023],[80.54659,7.60786],[80.54681,7.60573],[80.54732,7.60256],[80.54688,7.60022],[80.54652,7.59745],[80.54576,7.59536],[80.54547,7.59432],[80.54485,7.59399],[80.54282,7.5941],[80.54129,7.59547],[80.53987,7.5964],[80.53813,7.59547],[80.53664,7.59475],[80.5358,7.59655]]]}},{"type":"Feature","properties":{"c":"forest"},"geometry":{"type":"Polygon","coordinates":[[[80.56172,7.57108],[80.56249,7.57169],[80.56365,7.57313],[80.56557,7.5745],[80.56645,7.57637],[80.56757,7.57623],[80.56881,7.57583],[80.56993,7.57583],[80.57092,7.57645],[80.57095,7.57735],[80.57037,7.578],[80.56939,7.57969],[80.56895,7.58116],[80.56812,7.58495],[80.56765,7.58664],[80.56626,7.58808],[80.56554,7.59096],[80.56373,7.59324],[80.56291,7.59635],[80.56265,7.59935],[80.56296,7.60027],[80.56435,7.59737],[80.56507,7.59548],[80.56594,7.59818],[80.56553,7.60047],[80.5663,7.60165],[80.56764,7.6016],[80.56872,7.60103],[80.56964,7.60231],[80.56923,7.60323],[80.56748,7.60608],[80.56723,7.60832],[80.56872,7.60898],[80.56867,7.6099],[80.56959,7.61295],[80.5718,7.61372],[80.57437,7.61555],[80.57853,7.61708],[80.58079,7.61703],[80.58326,7.61764],[80.58352,7.61978],[80.58377,7.62125],[80.58598,7.61896],[80.58567,7.61514],[80.58593,7.61173],[80.58732,7.60801],[80.58804,7.60501],[80.58706,7.60312],[80.58567,7.60144],[80.58691,7.60042],[80.5884,7.59966],[80.58896,7.59706],[80.58696,7.59482],[80.58531,7.59238],[80.58357,7.59054],[80.58192,7.5908],[80.57905,7.59258],[80.57786,7.59502],[80.57668,7.5964],[80.57622,7.59492],[80.57524,7.59396],[80.57339,7.5938],[80.57113,7.59396],[80.56897,7.59543],[80.56867,7.59339],[80.57134,7.59049],[80.57252,7.58805],[80.57555,7.58917],[80.57386,7.58463],[80.5738,7.58209],[80.57427,7.57944],[80.57689,7.57801],[80.58038,7.57781],[80.58254,7.57796],[80.58485,7.57903],[80.5865,7.5801],[80.58732,7.57908],[80.5866,7.57735],[80.58563,7.57684],[80.58207,7.57407],[80.578,7.57176],[80.57615,7.57022],[80.57535,7.56791],[80.57706,7.56607],[80.5756,7.56485],[80.57277,7.56629],[80.57066,7.56827],[80.56913,7.56906],[80.5675,7.57094],[80.56608,7.57108],[80.5679,7.5687],[80.56804,7.56741],[80.56848,7.56532],[80.56652,7.56539],[80.56394,7.56625],[80.56223,7.5669],[80.56187,7.56827],[80.56172,7.57108]]]}},{"type":"Feature","properties":{"c":"farmland"},"geometry":{"type":"Polygon","coordinates":[[[80.46262,7.45288],[80.46283,7.45385],[80.46358,7.45517],[80.46444,7.45586],[80.46467,7.45582],[80.46468,7.45395],[80.46456,7.45379],[80.46418,7.45385],[80.46401,7.45351],[80.46434,7.45304],[80.46452,7.4526],[80.46507,7.45206],[80.46516,7.45158],[80.46506,7.45141],[80.46469,7.45128],[80.46472,7.45092],[80.46517,7.45075],[80.46551,7.44971],[80.46575,7.44955],[80.46601,7.44736],[80.46577,7.44732],[80.46494,7.44752],[80.46479,7.44779],[80.4648,7.44786],[80.46534,7.44843],[80.46533,7.44898],[80.46489,7.44989],[80.4645,7.45025],[80.46431,7.45104],[80.46444,7.45121],[80.46443,7.45127],[80.46416,7.45178],[80.46396,7.45198],[80.463,7.4522],[80.46293,7.45225],[80.46262,7.45288]]]}},{"type":"Feature","properties":{"c":"orchard","n":"Coconut"},"geometry":{"type":"Polygon","coordinates":[[[80.46448,7.45317],[80.46485,7.45406],[80.46483,7.45591],[80.46487,7.45596],[80.4654,7.45596],[80.46569,7.4557],[80.46573,7.45539],[80.46616,7.45502],[80.46624,7.45502],[80.46646,7.45486],[80.46666,7.45444],[80.4669,7.45442],[80.46771,7.45482],[80.46762,7.4557],[80.46767,7.4561],[80.46796,7.45609],[80.46843,7.45579],[80.46861,7.45612],[80.4687,7.45714],[80.46886,7.45725],[80.46928,7.45715],[80.47022,7.45725],[80.47028,7.4573],[80.47032,7.45763],[80.47037,7.45767],[80.47172,7.45771],[80.47254,7.45724],[80.47296,7.4571],[80.47322,7.45714],[80.47346,7.45673],[80.47331,7.45631],[80.47333,7.45622],[80.4736,7.45592],[80.47368,7.4559],[80.47507,7.45639],[80.4751,7.45646],[80.47504,7.45682],[80.47508,7.45686],[80.4763,7.45712],[80.47636,7.45709],[80.47683,7.45583],[80.47803,7.4558],[80.47868,7.45524],[80.47869,7.45516],[80.47844,7.45475],[80.47709,7.4542],[80.47702,7.45421],[80.47646,7.45522],[80.4764,7.45525],[80.47551,7.4549],[80.47469,7.45416],[80.4747,7.45364],[80.47437,7.45345],[80.47434,7.45338],[80.47446,7.45308],[80.4744,7.45212],[80.47452,7.45106],[80.47451,7.45091],[80.47412,7.44972],[80.47373,7.44953],[80.47287,7.44939],[80.47211,7.44972],[80.47094,7.4495],[80.47087,7.44941],[80.47092,7.44849],[80.47087,7.4484],[80.46969,7.44797],[80.46957,7.448],[80.46886,7.44882],[80.46875,7.44886],[80.46826,7.44883],[80.46716,7.44814],[80.46709,7.44805],[80.46703,7.44732],[80.46663,7.44691],[80.46655,7.44688],[80.46626,7.44687],[80.46622,7.44692],[80.46607,7.44799],[80.46607,7.44845],[80.4659,7.44901],[80.46586,7.44961],[80.46582,7.4497],[80.46559,7.44984],[80.4652,7.45114],[80.46533,7.45165],[80.46517,7.45213],[80.46457,7.45272],[80.46448,7.45317]]]}},{"type":"Feature","properties":{"c":"farmland"},"geometry":{"type":"Polygon","coordinates":[[[80.46936,7.46408],[80.46939,7.46412],[80.46955,7.46413],[80.46953,7.46442],[80.46996,7.46504],[80.47021,7.46523],[80.4707,7.46495],[80.471,7.46503],[80.47133,7.46498],[80.47154,7.46471],[80.47187,7.46477],[80.47212,7.46438],[80.47232,7.46417],[80.47265,7.46341],[80.47286,7.46315],[80.47322,7.46176],[80.47316,7.461],[80.47261,7.45972],[80.47284,7.45884],[80.47283,7.45879],[80.47266,7.45863],[80.47262,7.45837],[80.47266,7.45832],[80.47309,7.45841],[80.47313,7.45837],[80.47301,7.45797],[80.47311,7.45736],[80.47287,7.45726],[80.47252,7.45741],[80.47224,7.4582],[80.47235,7.45846],[80.47212,7.45978],[80.47226,7.46033],[80.47241,7.46133],[80.47235,7.4627],[80.4723,7.46278],[80.4706,7.46404],[80.47025,7.46461],[80.47001,7.46461],[80.46998,7.46457],[80.47001,7.46405],[80.46989,7.46361],[80.46985,7.46358],[80.46947,7.46367],[80.46936,7.46408]]]}},{"type":"Feature","properties":{"c":"farmland"},"geometry":{"type":"Polygon","coordinates":[[[80.46508,7.45632],[80.46514,7.45717],[80.46555,7.45736],[80.46573,7.45737],[80.466,7.45729],[80.46616,7.45752],[80.46603,7.45787],[80.46589,7.45811],[80.46583,7.45817],[80.46547,7.4583],[80.46531,7.45889],[80.46532,7.45895],[80.46576,7.45938],[80.46588,7.45986],[80.46613,7.4599],[80.46628,7.46042],[80.46619,7.46055],[80.4659,7.46055],[80.46587,7.4606],[80.46593,7.46122],[80.46611,7.46126],[80.46636,7.46107],[80.46649,7.46015],[80.46654,7.46008],[80.46695,7.46019],[80.46684,7.46085],[80.46709,7.46088],[80.46736,7.46007],[80.46726,7.45993],[80.467,7.45987],[80.46699,7.45966],[80.46719,7.45955],[80.46707,7.45928],[80.46697,7.45925],[80.46696,7.45915],[80.46683,7.4591],[80.46681,7.45892],[80.46691,7.45869],[80.46728,7.45843],[80.46806,7.45832],[80.46876,7.45886],[80.46937,7.45888],[80.46961,7.45842],[80.46968,7.45838],[80.46991,7.4584],[80.46997,7.45834],[80.47012,7.45779],[80.46998,7.45728],[80.46992,7.45722],[80.46928,7.45715],[80.46886,7.45725],[80.4687,7.45714],[80.46861,7.45612],[80.46843,7.45579],[80.46796,7.45609],[80.46767,7.4561],[80.46762,7.4557],[80.46771,7.45482],[80.46695,7.45444],[80.46666,7.45444],[80.46646,7.45486],[80.46624,7.45502],[80.46616,7.45502],[80.46573,7.45539],[80.46569,7.4557],[80.46535,7.45597],[80.46508,7.45632]]]}},{"type":"Feature","properties":{"c":"industrial","n":"Garment Factory"},"geometry":{"type":"Polygon","coordinates":[[[80.50777,7.56782],[80.5091,7.56822],[80.50939,7.56727],[80.50806,7.56687],[80.50777,7.56782]]]}},{"type":"Feature","properties":{"c":"farmland"},"geometry":{"type":"Polygon","coordinates":[[[80.48402,7.5874],[80.48411,7.58772],[80.4847,7.58783],[80.48457,7.58816],[80.48452,7.58851],[80.48455,7.58873],[80.48448,7.58886],[80.48433,7.58892],[80.48513,7.58911],[80.48528,7.58878],[80.48526,7.58847],[80.48555,7.58721],[80.48557,7.58682],[80.48576,7.58645],[80.4858,7.58609],[80.48589,7.58579],[80.48627,7.58536],[80.48658,7.58513],[80.48669,7.58495],[80.48711,7.58379],[80.48703,7.58333],[80.48738,7.58224],[80.48755,7.58196],[80.48786,7.58163],[80.48797,7.58139],[80.48777,7.58134],[80.48779,7.58121],[80.48804,7.58123],[80.48834,7.58073],[80.48828,7.58067],[80.48836,7.58029],[80.4885,7.58015],[80.48858,7.57925],[80.48875,7.57896],[80.48876,7.57876],[80.48865,7.57865],[80.4888,7.57836],[80.4891,7.5781],[80.48918,7.57796],[80.48928,7.57758],[80.48936,7.5775],[80.48936,7.57739],[80.48964,7.5774],[80.48978,7.57745],[80.49008,7.57728],[80.49018,7.57717],[80.49036,7.57641],[80.49022,7.57636],[80.4905,7.57585],[80.49029,7.57579],[80.49027,7.57554],[80.4905,7.57522],[80.49057,7.57492],[80.49095,7.57447],[80.49123,7.57374],[80.49118,7.5736],[80.49113,7.57284],[80.49116,7.57249],[80.49178,7.57203],[80.49168,7.57188],[80.49164,7.57169],[80.49145,7.57168],[80.49146,7.57143],[80.49166,7.57139],[80.49176,7.57118],[80.49207,7.57107],[80.49194,7.57091],[80.49182,7.57095],[80.49177,7.57087],[80.49186,7.57079],[80.49186,7.57073],[80.49157,7.57046],[80.49138,7.57045],[80.49137,7.57086],[80.49102,7.57087],[80.4908,7.57096],[80.49071,7.57165],[80.48992,7.5715],[80.48904,7.57142],[80.48881,7.57132],[80.48859,7.57093],[80.48834,7.57092],[80.48819,7.5717],[80.48871,7.57175],[80.48872,7.5718],[80.48884,7.5718],[80.48889,7.57206],[80.48887,7.57234],[80.4887,7.57236],[80.48852,7.57231],[80.48849,7.57247],[80.48879,7.57247],[80.48907,7.5726],[80.48899,7.57314],[80.48917,7.57315],[80.48938,7.57268],[80.48953,7.57266],[80.48979,7.57302],[80.49065,7.57314],[80.49068,7.57325],[80.49063,7.57368],[80.4905,7.57369],[80.49019,7.57394],[80.49005,7.57423],[80.48987,7.5742],[80.48977,7.57412],[80.4897,7.57406],[80.48972,7.57397],[80.48968,7.57391],[80.48841,7.57379],[80.4883,7.57382],[80.48821,7.57392],[80.48798,7.57395],[80.48801,7.57381],[80.48778,7.57383],[80.48773,7.57426],[80.4879,7.57426],[80.48791,7.57435],[80.48862,7.57423],[80.48906,7.57421],[80.48947,7.57424],[80.48993,7.57434],[80.48981,7.57455],[80.4897,7.57454],[80.48961,7.57472],[80.4891,7.57472],[80.48898,7.57483],[80.48952,7.57495],[80.48947,7.5752],[80.48938,7.57517],[80.48894,7.57538],[80.48873,7.57543],[80.48847,7.57538],[80.48797,7.57511],[80.48739,7.57517],[80.48696,7.57514],[80.48693,7.57525],[80.48749,7.57537],[80.48766,7.57535],[80.48785,7.57551],[80.48782,7.57567],[80.48834,7.57576],[80.48876,7.57573],[80.4891,7.5758],[80.4893,7.57594],[80.48907,7.57621],[80.48911,7.57634],[80.48908,7.57649],[80.4887,7.57723],[80.48876,7.5773],[80.48848,7.57761],[80.48841,7.5778],[80.48844,7.57788],[80.48827,7.578],[80.48819,7.57828],[80.48806,7.57846],[80.4882,7.57892],[80.48795,7.57914],[80.48775,7.57918],[80.48764,7.57929],[80.48709,7.57918],[80.48701,7.57943],[80.4869,7.5794],[80.48681,7.5795],[80.48669,7.57979],[80.48667,7.5799],[80.48682,7.58006],[80.48674,7.58026],[80.48674,7.58047],[80.4862,7.5803],[80.48618,7.58036],[80.48629,7.58044],[80.48634,7.58058],[80.48651,7.58062],[80.4866,7.58089],[80.48675,7.58107],[80.48676,7.58113],[80.48672,7.58126],[80.48639,7.58126],[80.48621,7.58137],[80.48612,7.58109],[80.48587,7.58112],[80.48574,7.58139],[80.48576,7.58151],[80.48595,7.58181],[80.48578,7.58202],[80.48571,7.58223],[80.48602,7.58224],[80.48641,7.5824],[80.4865,7.58245],[80.48653,7.58265],[80.48642,7.58289],[80.4863,7.58302],[80.48623,7.58319],[80.48626,7.58329],[80.4858,7.58378],[80.48549,7.5834],[80.48535,7.58332],[80.48516,7.58386],[80.48508,7.5844],[80.48538,7.58457],[80.48552,7.58434],[80.4859,7.58437],[80.48613,7.5839],[80.48653,7.58354],[80.48665,7.58308],[80.48673,7.58308],[80.48659,7.58383],[80.48661,7.58399],[80.48649,7.58405],[80.48641,7.58414],[80.48629,7.58449],[80.48607,7.58486],[80.48568,7.58524],[80.48537,7.58542],[80.48524,7.58544],[80.48504,7.58561],[80.48497,7.58582],[80.48499,7.5859],[80.48528,7.58611],[80.48536,7.58621],[80.48538,7.58636],[80.4852,7.58642],[80.48492,7.58643],[80.48476,7.58658],[80.48466,7.58655],[80.48465,7.58649],[80.48472,7.58643],[80.48462,7.58631],[80.48448,7.58655],[80.48449,7.58703],[80.48439,7.58713],[80.48409,7.5872],[80.48402,7.5874]]]}},{"type":"Feature","properties":{"c":"farmland","n":"Paddy Land"},"geometry":{"type":"Polygon","coordinates":[[[80.49018,7.59404],[80.49039,7.5942],[80.4911,7.59438],[80.49124,7.594],[80.49123,7.59369],[80.49145,7.5937],[80.49161,7.59322],[80.49161,7.59299],[80.49133,7.5929],[80.49094,7.59267],[80.49067,7.59317],[80.4905,7.59324],[80.49046,7.59357],[80.49063,7.59361],[80.49063,7.59386],[80.49042,7.59389],[80.49034,7.59382],[80.49018,7.59404]]]}},{"type":"Feature","properties":{"c":"farmland","n":"Paddy Land"},"geometry":{"type":"Polygon","coordinates":[[[80.49985,7.59404],[80.49985,7.59419],[80.5002,7.59535],[80.5003,7.59553],[80.5007,7.59589],[80.50079,7.59648],[80.50098,7.5968],[80.50166,7.59686],[80.50188,7.59696],[80.50192,7.59705],[80.5019,7.59714],[80.5017,7.59754],[80.5019,7.59758],[80.50193,7.59765],[80.50187,7.59772],[80.502,7.59774],[80.50206,7.59783],[80.50205,7.59798],[80.50193,7.59803],[80.50185,7.59838],[80.50177,7.59841],[80.50173,7.59859],[80.50271,7.59873],[80.50304,7.59886],[80.50308,7.59847],[80.50272,7.59839],[80.50269,7.59818],[80.50232,7.59827],[80.50227,7.59814],[80.50233,7.59801],[80.50235,7.59777],[80.50261,7.59768],[80.50308,7.59768],[80.50312,7.59794],[80.50307,7.59824],[80.50308,7.5984],[80.50335,7.59844],[80.50341,7.59806],[80.50357,7.59805],[80.50363,7.59761],[80.50422,7.59762],[80.50454,7.59753],[80.50556,7.59783],[80.50577,7.59722],[80.50546,7.597],[80.50533,7.59706],[80.50515,7.59678],[80.50442,7.5963],[80.5035,7.59542],[80.5038,7.59495],[80.50403,7.59471],[80.50421,7.59455],[80.50441,7.59455],[80.5048,7.59472],[80.50488,7.59484],[80.50496,7.59521],[80.50519,7.59548],[80.50568,7.59468],[80.50587,7.59423],[80.5054,7.59398],[80.5053,7.59334],[80.50511,7.59358],[80.50447,7.59283],[80.50385,7.59247],[80.50335,7.59228],[80.5029,7.59231],[80.50211,7.59256],[80.50199,7.59283],[80.50193,7.59323],[80.50198,7.59334],[80.50231,7.59347],[80.50269,7.5935],[80.50291,7.59358],[80.503,7.59379],[80.50311,7.59387],[80.50314,7.59464],[80.50305,7.59517],[80.50297,7.59528],[80.50281,7.5953],[80.50254,7.59526],[80.50201,7.59494],[80.50182,7.59451],[80.50132,7.59423],[80.50084,7.5943],[80.50018,7.59408],[80.50006,7.59396],[80.49985,7.59404]]]}},{"type":"Feature","properties":{"c":"farmland","n":"Paddy Land"},"geometry":{"type":"Polygon","coordinates":[[[80.49209,7.59664],[80.49209,7.59696],[80.49341,7.59729],[80.49369,7.59748],[80.49403,7.59751],[80.4943,7.59736],[80.4946,7.59736],[80.49473,7.59743],[80.49488,7.59738],[80.49506,7.59752],[80.4951,7.59759],[80.49502,7.59761],[80.49505,7.59771],[80.49524,7.59798],[80.49524,7.59805],[80.49517,7.59805],[80.49513,7.59814],[80.49488,7.59881],[80.494,7.59922],[80.49382,7.59927],[80.49364,7.59916],[80.49346,7.59939],[80.4933,7.59946],[80.49336,7.5997],[80.49386,7.59967],[80.49408,7.59943],[80.49419,7.59939],[80.4945,7.59993],[80.49463,7.59999],[80.49472,7.59998],[80.49478,7.59994],[80.49479,7.5998],[80.49491,7.59985],[80.49498,7.60005],[80.49508,7.60012],[80.4951,7.6003],[80.49519,7.60036],[80.49532,7.60079],[80.49506,7.60089],[80.49467,7.60117],[80.49437,7.60116],[80.49417,7.6011],[80.49405,7.60113],[80.49398,7.60125],[80.49327,7.60174],[80.49355,7.60187],[80.49395,7.60219],[80.49429,7.60279],[80.49423,7.60306],[80.49382,7.60389],[80.49338,7.60387],[80.49334,7.60402],[80.49336,7.60435],[80.4935,7.60464],[80.4938,7.60464],[80.49441,7.60451],[80.49437,7.60415],[80.49466,7.60409],[80.49479,7.60375],[80.49532,7.60376],[80.49546,7.60374],[80.49556,7.60367],[80.49571,7.60368],[80.49579,7.60389],[80.49595,7.60393],[80.49683,7.60368],[80.49708,7.6037],[80.49739,7.60403],[80.49747,7.60437],[80.49781,7.60452],[80.49791,7.60463],[80.49816,7.60476],[80.49813,7.60483],[80.49818,7.60503],[80.49812,7.60507],[80.49814,7.60513],[80.49823,7.60515],[80.4982,7.60525],[80.49839,7.60537],[80.49878,7.60545],[80.49881,7.60556],[80.49899,7.60563],[80.49883,7.60604],[80.49988,7.60586],[80.49994,7.60564],[80.49992,7.60554],[80.49959,7.60532],[80.49952,7.60521],[80.49953,7.60506],[80.49973,7.60472],[80.49994,7.60469],[80.50013,7.60503],[80.5002,7.6053],[80.50003,7.60549],[80.50007,7.60562],[80.50024,7.6055],[80.50034,7.6053],[80.50053,7.60531],[80.50076,7.60519],[80.50075,7.60502],[80.50083,7.60475],[80.50097,7.60452],[80.50093,7.60411],[80.501,7.60407],[80.50131,7.60405],[80.50127,7.60416],[80.50118,7.60419],[80.50115,7.60441],[80.50161,7.60442],[80.50171,7.60404],[80.50198,7.60389],[80.50242,7.60396],[80.5026,7.60388],[80.50288,7.6039],[80.50382,7.60374],[80.50437,7.60371],[80.50448,7.60367],[80.50448,7.60326],[80.50441,7.6032],[80.504,7.60324],[80.50357,7.60335],[80.50338,7.6033],[80.50341,7.60306],[80.50335,7.60287],[80.50324,7.60282],[80.50294,7.60228],[80.50276,7.60114],[80.50279,7.60084],[80.50305,7.60063],[80.50326,7.60021],[80.50348,7.60017],[80.504,7.60019],[80.504,7.60007],[80.50418,7.59995],[80.50417,7.59941],[80.50363,7.59949],[80.50323,7.59931],[80.50292,7.59923],[80.50273,7.59878],[80.50262,7.59876],[80.50258,7.59882],[80.50244,7.59884],[80.5023,7.5987],[80.50174,7.59864],[80.50169,7.59904],[80.50137,7.59928],[80.50136,7.5997],[80.5013,7.59975],[80.50123,7.59997],[80.50089,7.60006],[80.50073,7.60055],[80.50052,7.60081],[80.5005,7.60094],[80.50055,7.60114],[80.50049,7.60154],[80.50063,7.60178],[80.50064,7.60194],[80.50078,7.60239],[80.50049,7.60286],[80.50017,7.60293],[80.5001,7.6036],[80.50013,7.60412],[80.49976,7.60425],[80.49965,7.60396],[80.49948,7.60401],[80.49927,7.60378],[80.49925,7.6035],[80.49932,7.60327],[80.49945,7.60312],[80.49937,7.60282],[80.49924,7.6028],[80.49912,7.60198],[80.49884,7.60192],[80.4988,7.60187],[80.49873,7.60135],[80.4985,7.60078],[80.49863,7.60049],[80.49872,7.59992],[80.49872,7.59945],[80.49864,7.59889],[80.49852,7.59881],[80.49817,7.59892],[80.49804,7.59866],[80.49789,7.59867],[80.49764,7.59835],[80.49745,7.59764],[80.49722,7.59762],[80.49703,7.59767],[80.49696,7.59764],[80.49692,7.59743],[80.497,7.59687],[80.49713,7.59658],[80.49736,7.59641],[80.49743,7.59621],[80.49743,7.59598],[80.49725,7.59552],[80.49608,7.59553],[80.49605,7.59567],[80.49612,7.59598],[80.4959,7.59595],[80.49511,7.59618],[80.49446,7.5963],[80.49385,7.59615],[80.49326,7.59608],[80.49313,7.59602],[80.49308,7.59588],[80.493,7.59582],[80.49236,7.59556],[80.49209,7.59664]]]}},{"type":"Feature","properties":{"c":"farmland"},"geometry":{"type":"Polygon","coordinates":[[[80.48705,7.5885],[80.48714,7.58881],[80.48726,7.58882],[80.48752,7.58883],[80.48778,7.58867],[80.48797,7.58862],[80.48814,7.58864],[80.48823,7.58859],[80.48846,7.58868],[80.48886,7.58853],[80.48949,7.58854],[80.48947,7.58846],[80.48963,7.58842],[80.48972,7.58848],[80.48984,7.58834],[80.49032,7.58854],[80.49037,7.58848],[80.49079,7.58865],[80.49054,7.58803],[80.49058,7.5879],[80.49076,7.58805],[80.49135,7.58804],[80.49137,7.58824],[80.4911,7.58816],[80.49083,7.58819],[80.49069,7.58826],[80.49075,7.58843],[80.49084,7.58859],[80.49103,7.58861],[80.49105,7.58871],[80.49098,7.58881],[80.4912,7.58895],[80.49115,7.58906],[80.49123,7.58926],[80.49121,7.58934],[80.49149,7.58945],[80.49185,7.5895],[80.49202,7.58927],[80.4918,7.58911],[80.49202,7.58887],[80.49222,7.58888],[80.4923,7.58883],[80.49243,7.58851],[80.49238,7.58836],[80.49253,7.58833],[80.49235,7.58805],[80.49245,7.58786],[80.49261,7.58783],[80.49254,7.58763],[80.49272,7.58759],[80.49282,7.58774],[80.49293,7.58773],[80.49303,7.58792],[80.49293,7.58798],[80.49302,7.58836],[80.49327,7.58886],[80.49382,7.58863],[80.49445,7.58905],[80.49464,7.58925],[80.49481,7.58961],[80.49499,7.58976],[80.49538,7.59039],[80.49556,7.59116],[80.49557,7.59142],[80.49577,7.59252],[80.49595,7.59304],[80.49609,7.59321],[80.49639,7.59432],[80.49638,7.59446],[80.49623,7.59475],[80.49634,7.59489],[80.49633,7.59502],[80.49609,7.59547],[80.49722,7.59544],[80.49724,7.59501],[80.49717,7.59438],[80.49739,7.59418],[80.49742,7.59406],[80.49741,7.59383],[80.4973,7.59359],[80.49722,7.59312],[80.4969,7.59227],[80.49687,7.59177],[80.49689,7.59169],[80.49703,7.59167],[80.49703,7.59146],[80.49708,7.59141],[80.49751,7.59127],[80.49749,7.59117],[80.49774,7.59111],[80.49794,7.59116],[80.49835,7.5916],[80.49865,7.59166],[80.49881,7.59187],[80.4989,7.59231],[80.49936,7.59277],[80.49949,7.59278],[80.49957,7.59273],[80.49999,7.59217],[80.49962,7.59218],[80.4996,7.59203],[80.4998,7.59159],[80.49975,7.59138],[80.49964,7.59121],[80.49954,7.59119],[80.49968,7.59098],[80.49921,7.5902],[80.49933,7.59006],[80.49909,7.58977],[80.49904,7.5896],[80.49893,7.58953],[80.49807,7.58961],[80.49805,7.58945],[80.49794,7.58939],[80.49785,7.58896],[80.49758,7.58896],[80.49759,7.58877],[80.49751,7.58875],[80.4974,7.58854],[80.49744,7.58819],[80.49724,7.58793],[80.49691,7.5877],[80.49702,7.58756],[80.49699,7.5875],[80.49703,7.58733],[80.4969,7.58707],[80.49676,7.58701],[80.49649,7.58705],[80.49623,7.58691],[80.49607,7.58701],[80.49609,7.58715],[80.49618,7.58723],[80.49618,7.58741],[80.49539,7.58749],[80.49543,7.58764],[80.49577,7.58783],[80.49602,7.58823],[80.49579,7.58838],[80.49567,7.58866],[80.49549,7.58863],[80.4954,7.58847],[80.49509,7.58848],[80.49508,7.5883],[80.495,7.58809],[80.49482,7.58797],[80.4945,7.58789],[80.49439,7.58779],[80.49432,7.58761],[80.49421,7.58747],[80.49434,7.58712],[80.49426,7.58656],[80.49431,7.58632],[80.49422,7.58609],[80.49413,7.586],[80.49403,7.58592],[80.4939,7.58591],[80.4939,7.58547],[80.49378,7.5853],[80.49365,7.58526],[80.4937,7.58487],[80.49356,7.58471],[80.49354,7.58462],[80.49369,7.58435],[80.49335,7.58404],[80.49317,7.58417],[80.49293,7.58421],[80.49293,7.58449],[80.49256,7.58475],[80.4922,7.5849],[80.49207,7.58483],[80.49216,7.58464],[80.49216,7.58438],[80.49224,7.58423],[80.49209,7.58419],[80.49193,7.58417],[80.49183,7.58421],[80.49164,7.58469],[80.49131,7.5848],[80.49101,7.58476],[80.49087,7.58481],[80.49017,7.58471],[80.48993,7.58456],[80.48958,7.58445],[80.48946,7.58428],[80.48929,7.58417],[80.4884,7.5842],[80.48794,7.58463],[80.48793,7.58488],[80.48781,7.58494],[80.48782,7.58508],[80.48757,7.58546],[80.48759,7.58565],[80.48802,7.5858],[80.48813,7.58558],[80.48809,7.58549],[80.48814,7.58524],[80.48832,7.58524],[80.48855,7.58515],[80.48861,7.58516],[80.48861,7.58525],[80.48872,7.58533],[80.48885,7.58521],[80.48869,7.58507],[80.48898,7.58505],[80.48923,7.5851],[80.48923,7.5852],[80.48949,7.58525],[80.48997,7.58519],[80.49007,7.58543],[80.49024,7.5856],[80.49054,7.58566],[80.49068,7.58565],[80.49074,7.58557],[80.49089,7.58551],[80.49143,7.58544],[80.49192,7.5856],[80.49224,7.58554],[80.49279,7.58556],[80.49308,7.5857],[80.49337,7.58604],[80.49267,7.58626],[80.49217,7.58669],[80.49126,7.58698],[80.49125,7.58711],[80.49108,7.58714],[80.491,7.58704],[80.49086,7.58713],[80.49075,7.5873],[80.49068,7.58726],[80.49062,7.58709],[80.49047,7.58714],[80.49036,7.58723],[80.49031,7.58718],[80.49034,7.58686],[80.49024,7.58687],[80.4902,7.58696],[80.49015,7.58693],[80.48986,7.58725],[80.48892,7.58753],[80.48834,7.58779],[80.48807,7.58781],[80.48785,7.5879],[80.48756,7.5881],[80.4871,7.58831],[80.48705,7.5885]],[[80.49842,7.59035],[80.49847,7.59028],[80.49876,7.59024],[80.49898,7.5909],[80.49886,7.59105],[80.49859,7.59113],[80.49848,7.59084],[80.49842,7.59035]]]}},{"type":"Feature","properties":{"c":"farmland","n":"Paddy Land"},"geometry":{"type":"Polygon","coordinates":[[[80.49745,7.58798],[80.49757,7.58804],[80.49768,7.588],[80.49772,7.58818],[80.49787,7.58836],[80.49807,7.58846],[80.49809,7.58865],[80.4983,7.58889],[80.49851,7.58895],[80.49875,7.58887],[80.49889,7.58908],[80.49889,7.58922],[80.4991,7.58905],[80.4993,7.589],[80.49939,7.58919],[80.49936,7.58972],[80.49948,7.58978],[80.49951,7.59],[80.49945,7.59017],[80.49948,7.59026],[80.5001,7.5903],[80.50013,7.59037],[80.49989,7.59081],[80.49995,7.59109],[80.4998,7.59131],[80.49991,7.59162],[80.50007,7.59164],[80.50046,7.5918],[80.50063,7.59229],[80.50092,7.59229],[80.50149,7.5925],[80.50161,7.59225],[80.50149,7.59221],[80.50154,7.59213],[80.50168,7.59218],[80.50168,7.59197],[80.50117,7.59172],[80.50112,7.59179],[80.50116,7.59185],[80.50094,7.59195],[80.50095,7.59175],[80.50102,7.59162],[80.50101,7.59128],[80.50089,7.59117],[80.50061,7.59121],[80.50064,7.59094],[80.5006,7.59079],[80.50034,7.5907],[80.50027,7.5899],[80.50041,7.58983],[80.50048,7.58967],[80.50068,7.58953],[80.50109,7.58952],[80.5013,7.5893],[80.5016,7.58877],[80.50176,7.58863],[80.50186,7.58843],[80.50197,7.58842],[80.50211,7.58827],[80.50216,7.5881],[80.50196,7.58783],[80.50148,7.58739],[80.50144,7.58753],[80.50152,7.58769],[80.50121,7.58818],[80.50123,7.58837],[80.50086,7.58867],[80.50076,7.58881],[80.50062,7.58867],[80.50052,7.58843],[80.50019,7.58818],[80.50021,7.58768],[80.50008,7.58752],[80.49996,7.58747],[80.49983,7.58743],[80.49869,7.58759],[80.49863,7.58753],[80.49839,7.58751],[80.49813,7.5876],[80.49796,7.5876],[80.49791,7.58775],[80.49772,7.58768],[80.49778,7.58747],[80.49757,7.58743],[80.49751,7.5876],[80.49762,7.58766],[80.4976,7.58778],[80.49745,7.58798]]]}},{"type":"Feature","properties":{"c":"farmland","n":"Paddy Land"},"geometry":{"type":"Polygon","coordinates":[[[80.50796,7.58966],[80.50835,7.58989],[80.50877,7.59006],[80.50919,7.58997],[80.50924,7.59008],[80.50921,7.59045],[80.50926,7.59074],[80.50943,7.59061],[80.50958,7.59057],[80.5096,7.59069],[80.51016,7.59071],[80.51029,7.59062],[80.51045,7.59064],[80.51052,7.59053],[80.51064,7.59004],[80.51082,7.58986],[80.51158,7.58962],[80.51193,7.58943],[80.51226,7.58876],[80.51211,7.58868],[80.51134,7.58858],[80.51088,7.58863],[80.51062,7.58857],[80.51055,7.58851],[80.51041,7.58821],[80.51051,7.58789],[80.51059,7.58777],[80.51033,7.58753],[80.51034,7.58738],[80.51052,7.58713],[80.51048,7.58672],[80.5104,7.58672],[80.50975,7.58713],[80.50946,7.58736],[80.50916,7.58725],[80.50897,7.58828],[80.50865,7.58884],[80.50877,7.58894],[80.50874,7.58906],[80.50833,7.58937],[80.50806,7.58947],[80.50796,7.58966]]]}},{"type":"Feature","properties":{"c":"farmland","n":"Paddy Land"},"geometry":{"type":"Polygon","coordinates":[[[80.5115,7.58974],[80.5118,7.59018],[80.51209,7.59043],[80.51323,7.59115],[80.51374,7.59126],[80.51381,7.59153],[80.51411,7.59133],[80.51426,7.59111],[80.51434,7.59073],[80.51433,7.5905],[80.51395,7.59013],[80.51349,7.58985],[80.51332,7.58967],[80.51265,7.58952],[80.51219,7.58959],[80.51193,7.58952],[80.5115,7.58974]]]}},{"type":"Feature","properties":{"c":"farmland","n":"Paddy Land"},"geometry":{"type":"Polygon","coordinates":[[[80.50426,7.58472],[80.50429,7.58502],[80.50447,7.58534],[80.50466,7.58542],[80.50498,7.58544],[80.50535,7.5859],[80.50567,7.58587],[80.50598,7.58686],[80.50669,7.58671],[80.50852,7.58615],[80.50854,7.58588],[80.50939,7.58564],[80.50956,7.58524],[80.50996,7.5847],[80.51032,7.58338],[80.51037,7.58315],[80.51025,7.5831],[80.51008,7.58264],[80.51046,7.58203],[80.51065,7.58188],[80.51068,7.58166],[80.51098,7.58165],[80.51095,7.58147],[80.51101,7.58115],[80.51098,7.58066],[80.5108,7.58044],[80.51003,7.58049],[80.50804,7.57989],[80.50761,7.57983],[80.50753,7.57991],[80.50887,7.58027],[80.50887,7.58052],[80.50828,7.5804],[80.50746,7.58011],[80.50737,7.58103],[80.5072,7.58173],[80.50626,7.58168],[80.50589,7.58153],[80.50589,7.58126],[80.50573,7.58126],[80.50569,7.5808],[80.50559,7.58072],[80.50556,7.58092],[80.50517,7.5808],[80.50507,7.58061],[80.50458,7.58077],[80.50445,7.58089],[80.50439,7.58147],[80.50516,7.58154],[80.50522,7.58161],[80.50521,7.58241],[80.50529,7.5825],[80.50522,7.5828],[80.50512,7.58289],[80.50499,7.5832],[80.50507,7.58335],[80.50505,7.58384],[80.50491,7.58386],[80.50471,7.58431],[80.5045,7.58427],[80.5044,7.58436],[80.50426,7.58472]]]}},{"type":"Feature","properties":{"c":"farmland","n":"Paddy Land"},"geometry":{"type":"Polygon","coordinates":[[[80.50435,7.57928],[80.50441,7.57959],[80.50457,7.57981],[80.50459,7.57997],[80.5049,7.58022],[80.50504,7.58043],[80.50521,7.58045],[80.50574,7.58072],[80.50567,7.58015],[80.50536,7.5803],[80.5053,7.57999],[80.5054,7.57982],[80.50565,7.57971],[80.50565,7.57961],[80.50503,7.57932],[80.50472,7.57925],[80.50435,7.57928]]]}},{"type":"Feature","properties":{"c":"farmland","n":"Paddy Land"},"geometry":{"type":"Polygon","coordinates":[[[80.50088,7.57893],[80.50104,7.57908],[80.50141,7.57917],[80.5014,7.5796],[80.50259,7.57987],[80.50257,7.57957],[80.50262,7.5793],[80.50301,7.57862],[80.50327,7.57838],[80.50352,7.5783],[80.50378,7.57831],[80.50425,7.57801],[80.50417,7.57765],[80.5042,7.57724],[80.50412,7.57714],[80.50415,7.57702],[80.50411,7.57686],[80.50426,7.57675],[80.50418,7.57656],[80.50405,7.57665],[80.50395,7.57664],[80.50388,7.57658],[80.50385,7.57641],[80.50399,7.5762],[80.50421,7.57621],[80.50426,7.57591],[80.50408,7.57572],[80.50379,7.57555],[80.50356,7.57555],[80.5034,7.57559],[80.50342,7.57587],[80.50306,7.57594],[80.50281,7.5756],[80.50275,7.57535],[80.50266,7.5752],[80.50263,7.57497],[80.50214,7.57486],[80.50207,7.57492],[80.50206,7.57524],[80.50214,7.57535],[80.50217,7.57563],[80.50224,7.57573],[80.50238,7.57585],[80.50255,7.57577],[80.50286,7.57595],[80.50297,7.57607],[80.50292,7.57612],[80.5028,7.57613],[80.50278,7.57625],[80.5028,7.57642],[80.50289,7.57655],[80.50272,7.57669],[80.50254,7.57651],[80.50251,7.57694],[80.50238,7.57701],[80.5019,7.57704],[80.50179,7.57714],[80.50177,7.57728],[80.50169,7.57739],[80.50132,7.57728],[80.50116,7.57786],[80.50125,7.57853],[80.50111,7.57866],[80.50094,7.57857],[80.50088,7.57893]]]}},{"type":"Feature","properties":{"c":"farmland"},"geometry":{"type":"Polygon","coordinates":[[[80.51122,7.62197],[80.51165,7.62202],[80.5123,7.62226],[80.5126,7.62223],[80.51281,7.62229],[80.51306,7.62259],[80.51338,7.62277],[80.51385,7.62295],[80.51406,7.62319],[80.51463,7.62361],[80.51534,7.6237],[80.51582,7.62351],[80.51589,7.6232],[80.51561,7.62321],[80.51535,7.62312],[80.51513,7.62312],[80.5148,7.62301],[80.51466,7.62292],[80.51453,7.62265],[80.51445,7.62259],[80.51434,7.62266],[80.51407,7.62261],[80.51346,7.62215],[80.51322,7.62184],[80.51284,7.6217],[80.51269,7.62177],[80.51214,7.62173],[80.51181,7.62162],[80.51154,7.62141],[80.51139,7.62175],[80.51122,7.62197]]]}},{"type":"Feature","properties":{"c":"farmland"},"geometry":{"type":"Polygon","coordinates":[[[80.50789,7.60416],[80.50811,7.60458],[80.50845,7.60502],[80.50864,7.60491],[80.50861,7.60454],[80.5088,7.60405],[80.50941,7.6043],[80.50934,7.60443],[80.50951,7.60458],[80.50958,7.60515],[80.50974,7.60543],[80.50965,7.60555],[80.5101,7.60591],[80.51038,7.60611],[80.51077,7.60586],[80.51063,7.6061],[80.51063,7.60621],[80.51074,7.60627],[80.51092,7.60629],[80.51111,7.60619],[80.51115,7.60601],[80.51126,7.60598],[80.51138,7.6061],[80.51152,7.6061],[80.51165,7.60616],[80.51165,7.60637],[80.51211,7.60653],[80.51296,7.607],[80.51293,7.6072],[80.5131,7.60732],[80.51338,7.60771],[80.51342,7.60799],[80.51371,7.60853],[80.51424,7.60908],[80.51455,7.60955],[80.51479,7.60979],[80.51472,7.60999],[80.51435,7.61009],[80.51416,7.61011],[80.51378,7.61004],[80.51364,7.60992],[80.51348,7.60995],[80.5135,7.61045],[80.51342,7.61066],[80.5133,7.61073],[80.5131,7.6107],[80.51291,7.61056],[80.51271,7.6102],[80.5123,7.61006],[80.51227,7.60997],[80.51228,7.60977],[80.51235,7.60964],[80.51287,7.6096],[80.51278,7.60916],[80.51251,7.6094],[80.51234,7.60947],[80.51218,7.60944],[80.51213,7.60903],[80.51201,7.60892],[80.51166,7.60896],[80.51129,7.60886],[80.511,7.60871],[80.51083,7.60857],[80.51066,7.60851],[80.51021,7.60812],[80.51011,7.60821],[80.51001,7.60821],[80.50983,7.60813],[80.50966,7.60782],[80.50963,7.60814],[80.5098,7.60854],[80.50996,7.60867],[80.5102,7.60878],[80.51027,7.609],[80.51034,7.60906],[80.51064,7.60915],[80.51084,7.6093],[80.51116,7.60969],[80.51137,7.61013],[80.51163,7.61049],[80.51183,7.61068],[80.512,7.61071],[80.51215,7.61062],[80.5125,7.61093],[80.51261,7.61088],[80.51284,7.61135],[80.51304,7.61135],[80.51316,7.61184],[80.51317,7.61226],[80.51326,7.61255],[80.51329,7.61285],[80.5136,7.61363],[80.51354,7.61377],[80.51339,7.61387],[80.51332,7.614],[80.51328,7.61509],[80.51334,7.61562],[80.51355,7.61613],[80.51365,7.61622],[80.51387,7.61625],[80.51392,7.61612],[80.51389,7.61601],[80.51376,7.61593],[80.51367,7.61578],[80.51385,7.6158],[80.51392,7.61592],[80.51429,7.6162],[80.51421,7.61643],[80.51496,7.61644],[80.51504,7.61622],[80.51506,7.61587],[80.5145,7.61558],[80.51408,7.61542],[80.51393,7.61532],[80.51382,7.61517],[80.51367,7.61439],[80.51376,7.61416],[80.51412,7.6138],[80.51414,7.61373],[80.51382,7.61273],[80.51399,7.61251],[80.51378,7.61238],[80.51373,7.61228],[80.5137,7.61193],[80.51379,7.61171],[80.51408,7.61171],[80.51426,7.61165],[80.51476,7.61162],[80.51492,7.61146],[80.51498,7.61115],[80.51527,7.6111],[80.51538,7.61134],[80.51553,7.61118],[80.51545,7.61112],[80.51545,7.61101],[80.51568,7.61083],[80.51567,7.61109],[80.51595,7.61129],[80.51613,7.61115],[80.51626,7.61135],[80.51664,7.61101],[80.51719,7.61077],[80.51752,7.61074],[80.51832,7.61052],[80.51899,7.61072],[80.51954,7.6115],[80.5198,7.61168],[80.5197,7.61182],[80.51969,7.61195],[80.51975,7.61212],[80.5206,7.61198],[80.52072,7.612],[80.52079,7.61224],[80.52088,7.61234],[80.52099,7.61227],[80.52103,7.61242],[80.52112,7.61241],[80.52118,7.61222],[80.52112,7.61205],[80.52084,7.61165],[80.52068,7.61151],[80.52141,7.61095],[80.52153,7.61063],[80.52188,7.61053],[80.52208,7.61058],[80.52227,7.61066],[80.52277,7.61106],[80.52305,7.61098],[80.52332,7.61075],[80.52346,7.6108],[80.52357,7.61077],[80.52386,7.6109],[80.52427,7.61076],[80.52438,7.61065],[80.52451,7.61034],[80.52474,7.61028],[80.52526,7.61037],[80.52546,7.61051],[80.52549,7.6093],[80.52517,7.60925],[80.52463,7.60929],[80.52367,7.60967],[80.52356,7.60955],[80.52359,7.60916],[80.52328,7.60924],[80.52204,7.60911],[80.52187,7.60902],[80.52169,7.6088],[80.52148,7.60871],[80.52165,7.60825],[80.5216,7.60803],[80.52162,7.60786],[80.52187,7.60713],[80.52187,7.6069],[80.52203,7.60627],[80.52211,7.60554],[80.52204,7.60505],[80.52229,7.60414],[80.52227,7.60372],[80.52219,7.60363],[80.52204,7.60367],[80.52194,7.60376],[80.52189,7.60391],[80.52181,7.60464],[80.5218,7.60513],[80.52164,7.60576],[80.52164,7.60617],[80.52148,7.60681],[80.52122,7.60713],[80.52115,7.60732],[80.52106,7.60795],[80.52092,7.6081],[80.52065,7.60821],[80.52023,7.60832],[80.51968,7.60856],[80.5191,7.6087],[80.51893,7.60864],[80.51862,7.60842],[80.51821,7.60837],[80.51719,7.60805],[80.51697,7.60761],[80.51676,7.60741],[80.51658,7.60706],[80.51638,7.60688],[80.51619,7.60637],[80.51612,7.60601],[80.51589,7.60568],[80.51578,7.60565],[80.51578,7.60537],[80.51584,7.60529],[80.51614,7.60516],[80.51672,7.60517],[80.51684,7.60524],[80.51687,7.60538],[80.51697,7.60552],[80.51707,7.60538],[80.51718,7.605],[80.51734,7.60486],[80.51759,7.60473],[80.51789,7.60426],[80.51814,7.60411],[80.51825,7.60398],[80.51791,7.60354],[80.51765,7.60379],[80.517,7.60393],[80.51669,7.60397],[80.51647,7.60394],[80.51634,7.60397],[80.51607,7.60417],[80.51593,7.60414],[80.51573,7.60386],[80.51571,7.60369],[80.5159,7.60354],[80.51596,7.60344],[80.51597,7.60313],[80.51601,7.60304],[80.51613,7.603],[80.51615,7.60293],[80.51618,7.60257],[80.51511,7.60122],[80.51499,7.60112],[80.51459,7.60095],[80.51431,7.60175],[80.51422,7.60216],[80.51426,7.60295],[80.51421,7.60312],[80.51395,7.60356],[80.51341,7.60421],[80.51335,7.60441],[80.51326,7.60451],[80.51255,7.60425],[80.51226,7.60397],[80.51195,7.60416],[80.51178,7.60412],[80.51162,7.604],[80.51154,7.60411],[80.51134,7.6041],[80.51118,7.60393],[80.51081,7.60392],[80.50952,7.60349],[80.50905,7.60338],[80.50865,7.60338],[80.5084,7.60329],[80.50815,7.60343],[80.50809,7.60364],[80.5079,7.60397],[80.50789,7.60416]]]}},{"type":"Feature","properties":{"c":"farmland"},"geometry":{"type":"Polygon","coordinates":[[[80.51235,7.6204],[80.51253,7.62047],[80.51324,7.62054],[80.51335,7.6206],[80.51332,7.62068],[80.51304,7.62081],[80.51296,7.62099],[80.51301,7.62106],[80.51325,7.6211],[80.51377,7.62108],[80.51388,7.62102],[80.51408,7.62107],[80.51431,7.62098],[80.51437,7.62092],[80.51462,7.62095],[80.51475,7.62072],[80.5144,7.62075],[80.51426,7.6205],[80.51429,7.62029],[80.51418,7.6203],[80.51401,7.62009],[80.51316,7.61992],[80.51291,7.61981],[80.51238,7.62027],[80.51235,7.6204]]]}},{"type":"Feature","properties":{"c":"farmland"},"geometry":{"type":"Polygon","coordinates":[[[80.5021,7.61585],[80.50223,7.61602],[80.50261,7.61618],[80.50286,7.61659],[80.50335,7.61803],[80.50352,7.619],[80.5034,7.6197],[80.50323,7.6202],[80.50287,7.62083],[80.50267,7.6209],[80.50265,7.621],[80.50254,7.62105],[80.50265,7.62168],[80.50301,7.62171],[80.50327,7.62166],[80.50364,7.6212],[80.50364,7.6209],[80.50399,7.61995],[80.5044,7.61959],[80.50445,7.61944],[80.50448,7.61928],[80.50442,7.6191],[80.50436,7.61826],[80.50459,7.6182],[80.50478,7.6176],[80.50531,7.61767],[80.50561,7.61803],[80.50602,7.61834],[80.50595,7.61836],[80.50592,7.61846],[80.50603,7.61863],[80.50628,7.61879],[80.50645,7.6188],[80.50614,7.61921],[80.50634,7.6194],[80.50661,7.6194],[80.50666,7.61953],[80.50703,7.61995],[80.50744,7.62027],[80.50784,7.62045],[80.50778,7.62066],[80.50858,7.6214],[80.50853,7.62149],[80.50891,7.62196],[80.50898,7.62212],[80.50939,7.62248],[80.50968,7.62244],[80.51003,7.62231],[80.51015,7.6221],[80.5104,7.62198],[80.51068,7.6219],[80.51115,7.62194],[80.51154,7.62127],[80.51171,7.62113],[80.51205,7.62101],[80.51213,7.62088],[80.51222,7.62039],[80.51194,7.6201],[80.51133,7.62044],[80.51084,7.62064],[80.51063,7.62065],[80.51054,7.62116],[80.51014,7.62122],[80.50995,7.62114],[80.50996,7.62094],[80.50991,7.6207],[80.51003,7.62061],[80.51008,7.62043],[80.50982,7.6201],[80.50911,7.61981],[80.50847,7.61968],[80.5083,7.61951],[80.50819,7.6193],[80.50805,7.61935],[80.50776,7.61903],[80.50783,7.6189],[80.50778,7.61874],[80.50791,7.61863],[80.50865,7.61835],[80.50868,7.61823],[80.50859,7.61802],[80.50789,7.61832],[80.50761,7.61839],[80.50751,7.61823],[80.50757,7.61812],[80.5074,7.61795],[80.50727,7.6182],[80.50712,7.6182],[80.50698,7.61795],[80.50682,7.61786],[80.50661,7.61743],[80.50701,7.61702],[80.50719,7.61671],[80.50725,7.61651],[80.50715,7.61597],[80.50706,7.6159],[80.50687,7.61598],[80.50634,7.61643],[80.50587,7.61633],[80.50569,7.61602],[80.50559,7.61558],[80.50482,7.61469],[80.50434,7.61439],[80.50423,7.61443],[80.50385,7.61493],[80.50346,7.6151],[80.50316,7.61531],[80.5021,7.61585]]]}},{"type":"Feature","properties":{"c":"farmland"},"geometry":{"type":"Polygon","coordinates":[[[80.50287,7.61115],[80.50303,7.61143],[80.50305,7.61191],[80.50315,7.61238],[80.50296,7.61256],[80.50299,7.61299],[80.50322,7.61332],[80.50352,7.61359],[80.50404,7.61381],[80.50421,7.61351],[80.50432,7.61344],[80.50447,7.61338],[80.5046,7.61343],[80.50531,7.61316],[80.50523,7.61273],[80.50526,7.61243],[80.50537,7.61209],[80.50556,7.61182],[80.50534,7.61171],[80.50482,7.61121],[80.50451,7.61062],[80.50428,7.61065],[80.50422,7.61046],[80.50403,7.6105],[80.50393,7.61035],[80.50385,7.61041],[80.50376,7.61033],[80.5033,7.61057],[80.50339,7.6107],[80.50294,7.61104],[80.50287,7.61115]]]}},{"type":"Feature","properties":{"c":"farmland"},"geometry":{"type":"Polygon","coordinates":[[[80.50615,7.61264],[80.50624,7.61269],[80.50653,7.61311],[80.50701,7.61345],[80.50727,7.61353],[80.50831,7.61361],[80.50856,7.61374],[80.50876,7.61357],[80.50885,7.61341],[80.5079,7.61299],[80.50773,7.61287],[80.5071,7.61262],[80.50674,7.61253],[80.50648,7.61233],[80.50615,7.61264]]]}},{"type":"Feature","properties":{"c":"farmland"},"geometry":{"type":"Polygon","coordinates":[[[80.4628,7.5098],[80.46298,7.50997],[80.46296,7.51024],[80.46339,7.51029],[80.46347,7.51021],[80.46357,7.51024],[80.46359,7.51059],[80.46405,7.51095],[80.4644,7.5111],[80.46479,7.51105],[80.46504,7.51126],[80.46547,7.5111],[80.46528,7.5104],[80.46556,7.51014],[80.46563,7.51012],[80.46618,7.51038],[80.46624,7.51056],[80.46664,7.51053],[80.46695,7.51024],[80.46734,7.51035],[80.46809,7.51034],[80.46814,7.51031],[80.4681,7.51005],[80.46805,7.51],[80.46743,7.5099],[80.46733,7.50948],[80.46736,7.5094],[80.46764,7.50935],[80.46768,7.50891],[80.46773,7.50888],[80.46857,7.50933],[80.46863,7.50939],[80.46867,7.50965],[80.46889,7.50955],[80.46894,7.50919],[80.46924,7.5091],[80.46962,7.50929],[80.46969,7.50926],[80.46985,7.50878],[80.4703,7.50831],[80.47033,7.50793],[80.47096,7.50754],[80.47107,7.50752],[80.47212,7.5078],[80.47253,7.50782],[80.47301,7.5072],[80.47322,7.50714],[80.47339,7.50735],[80.47382,7.50741],[80.47406,7.50756],[80.47396,7.50691],[80.47361,7.5068],[80.47355,7.50649],[80.47335,7.50644],[80.47343,7.50611],[80.47349,7.50608],[80.47366,7.50612],[80.47363,7.50639],[80.47369,7.50643],[80.47402,7.50634],[80.47412,7.50573],[80.47405,7.50537],[80.47379,7.50532],[80.47367,7.50512],[80.47345,7.50505],[80.47341,7.50495],[80.47354,7.50478],[80.47356,7.50469],[80.47352,7.50431],[80.47337,7.50418],[80.47344,7.50401],[80.4735,7.50399],[80.47363,7.50417],[80.47368,7.50413],[80.47353,7.50364],[80.47353,7.50312],[80.47335,7.50293],[80.47313,7.50253],[80.47313,7.50243],[80.47327,7.50209],[80.47329,7.50157],[80.473,7.50151],[80.47274,7.50162],[80.47247,7.50145],[80.47216,7.50161],[80.4721,7.50207],[80.47168,7.50251],[80.47162,7.50263],[80.47185,7.50346],[80.47191,7.50351],[80.47239,7.50354],[80.47269,7.50371],[80.47264,7.50377],[80.47212,7.5038],[80.47207,7.50384],[80.47197,7.50459],[80.47231,7.50475],[80.47268,7.50466],[80.47305,7.5047],[80.47336,7.50507],[80.47319,7.50564],[80.47313,7.50568],[80.47277,7.50578],[80.4726,7.50552],[80.47253,7.5055],[80.47236,7.50566],[80.47227,7.50605],[80.47199,7.50648],[80.47154,7.50664],[80.47148,7.50664],[80.47089,7.50602],[80.47013,7.50614],[80.46995,7.50593],[80.46995,7.50584],[80.47022,7.50538],[80.4707,7.50529],[80.471,7.50496],[80.47099,7.50477],[80.47049,7.5041],[80.47048,7.50404],[80.47073,7.50385],[80.47065,7.50375],[80.47035,7.50384],[80.46999,7.50364],[80.46952,7.50376],[80.46946,7.5038],[80.46941,7.50429],[80.46919,7.50446],[80.4691,7.5044],[80.46919,7.50379],[80.46975,7.50329],[80.47078,7.50351],[80.47131,7.50242],[80.47126,7.50239],[80.47119,7.50237],[80.47064,7.50268],[80.46967,7.50245],[80.46963,7.50247],[80.46955,7.50294],[80.46946,7.50298],[80.46897,7.50299],[80.4689,7.5031],[80.46883,7.50352],[80.46831,7.50425],[80.46768,7.5046],[80.46758,7.5046],[80.46691,7.50412],[80.4667,7.50376],[80.46633,7.50369],[80.46617,7.50396],[80.46612,7.50477],[80.46584,7.50529],[80.46511,7.50558],[80.46474,7.50606],[80.4647,7.50614],[80.46476,7.50665],[80.46456,7.50714],[80.46371,7.50752],[80.46358,7.50825],[80.46321,7.50878],[80.46304,7.50956],[80.4628,7.5098]]]}},{"type":"Feature","properties":{"c":"forest"},"geometry":{"type":"Polygon","coordinates":[[[80.48482,7.53501],[80.48492,7.53567],[80.4851,7.53597],[80.48529,7.5361],[80.48546,7.53617],[80.48567,7.53617],[80.48627,7.53601],[80.48641,7.53601],[80.48692,7.53625],[80.48722,7.53652],[80.48732,7.53683],[80.48726,7.53721],[80.48704,7.53774],[80.48733,7.53905],[80.48724,7.53941],[80.48688,7.54015],[80.48708,7.54097],[80.48704,7.54106],[80.48683,7.54123],[80.48676,7.54138],[80.48677,7.5415],[80.4872,7.54235],[80.48731,7.54244],[80.48744,7.54251],[80.48787,7.54253],[80.48831,7.54246],[80.48839,7.54237],[80.48839,7.54223],[80.48828,7.54213],[80.48779,7.54193],[80.48772,7.54186],[80.48767,7.54158],[80.48776,7.54147],[80.48789,7.54142],[80.48833,7.54138],[80.48853,7.54117],[80.48845,7.54013],[80.48835,7.54002],[80.48811,7.5399],[80.4881,7.53979],[80.48815,7.5397],[80.4887,7.53968],[80.48885,7.5396],[80.48903,7.53905],[80.48898,7.53901],[80.48864,7.53916],[80.48852,7.53915],[80.48832,7.53897],[80.48829,7.53873],[80.48843,7.53852],[80.48907,7.53804],[80.48951,7.53746],[80.48958,7.53721],[80.48954,7.53693],[80.48944,7.53685],[80.48919,7.53679],[80.48884,7.53682],[80.48859,7.53677],[80.48845,7.5366],[80.48849,7.53637],[80.4888,7.5361],[80.48905,7.53606],[80.49009,7.53616],[80.49031,7.53637],[80.49054,7.53643],[80.49096,7.53641],[80.491,7.53612],[80.49106,7.53606],[80.49183,7.53596],[80.49191,7.536],[80.49222,7.53663],[80.49258,7.53648],[80.49267,7.53636],[80.49264,7.53559],[80.49274,7.53537],[80.49332,7.5352],[80.49376,7.53465],[80.49375,7.53437],[80.49315,7.53372],[80.493,7.53301],[80.49235,7.53237],[80.49228,7.53224],[80.49227,7.53211],[80.49246,7.53082],[80.49228,7.53049],[80.49225,7.53029],[80.49232,7.53022],[80.49258,7.53021],[80.49289,7.53052],[80.4931,7.53059],[80.49324,7.53057],[80.49344,7.5304],[80.49348,7.53022],[80.49331,7.52922],[80.49332,7.52902],[80.49338,7.5289],[80.49361,7.52866],[80.49363,7.52852],[80.49354,7.52835],[80.49275,7.52764],[80.49263,7.52741],[80.49262,7.52701],[80.49271,7.5268],[80.49318,7.52629],[80.49369,7.52639],[80.49377,7.52646],[80.49378,7.52655],[80.49362,7.52771],[80.49363,7.52796],[80.49374,7.52831],[80.49424,7.52899],[80.49465,7.52901],[80.49492,7.52887],[80.49501,7.52872],[80.49502,7.52832],[80.49478,7.52715],[80.49478,7.52639],[80.49487,7.52601],[80.49501,7.52579],[80.49553,7.52539],[80.49588,7.52505],[80.49597,7.52485],[80.4964,7.52206],[80.4964,7.52186],[80.49607,7.52125],[80.49571,7.52092],[80.49533,7.52095],[80.49525,7.52103],[80.49505,7.5215],[80.49459,7.52154],[80.4944,7.52178],[80.49432,7.52179],[80.49396,7.52162],[80.49396,7.52151],[80.49426,7.52102],[80.49425,7.52095],[80.4942,7.52092],[80.49368,7.52111],[80.49365,7.52121],[80.49372,7.5215],[80.49367,7.52159],[80.49326,7.52173],[80.49323,7.52181],[80.49327,7.52189],[80.4934,7.52197],[80.49385,7.5221],[80.4939,7.52231],[80.49389,7.52283],[80.49376,7.52301],[80.49348,7.52301],[80.49277,7.52245],[80.49243,7.52191],[80.49228,7.52182],[80.49217,7.52184],[80.49212,7.52191],[80.49205,7.5223],[80.49175,7.52237],[80.4915,7.52258],[80.49127,7.52261],[80.49103,7.52248],[80.49093,7.52251],[80.49065,7.52299],[80.49065,7.5232],[80.49069,7.52337],[80.49099,7.52389],[80.49102,7.52404],[80.49097,7.52416],[80.49022,7.52492],[80.48937,7.52568],[80.4884,7.52637],[80.48813,7.52661],[80.48804,7.52681],[80.48804,7.52699],[80.48832,7.52809],[80.48831,7.52827],[80.48818,7.52845],[80.48745,7.52914],[80.48737,7.52932],[80.48734,7.52957],[80.4874,7.53077],[80.48736,7.53091],[80.48725,7.53099],[80.48708,7.53103],[80.48637,7.53094],[80.48624,7.53096],[80.48616,7.53105],[80.48515,7.53334],[80.48492,7.53408],[80.48482,7.53501]],[[80.49062,7.52969],[80.4907,7.52953],[80.49104,7.52962],[80.49114,7.52939],[80.49126,7.5293],[80.49138,7.52938],[80.49147,7.52957],[80.49181,7.52969],[80.49185,7.52977],[80.49179,7.52987],[80.49128,7.52981],[80.49121,7.52984],[80.49109,7.53018],[80.49095,7.53029],[80.49078,7.53022],[80.49067,7.52998],[80.49062,7.52969]],[[80.49098,7.5346],[80.49158,7.53452],[80.49165,7.53502],[80.49105,7.5351],[80.49098,7.5346]]]}},{"type":"Feature","properties":{"c":"forest"},"geometry":{"type":"Polygon","coordinates":[[[80.4913,7.53798],[80.49132,7.5383],[80.49159,7.53897],[80.49158,7.53932],[80.49137,7.54001],[80.4913,7.54043],[80.49154,7.54107],[80.49193,7.54173],[80.49188,7.54203],[80.49171,7.5422],[80.49167,7.54245],[80.49203,7.54293],[80.49209,7.54307],[80.49207,7.54347],[80.49211,7.54357],[80.4922,7.5436],[80.49228,7.54358],[80.49247,7.54321],[80.49258,7.54311],[80.49272,7.54304],[80.49317,7.54295],[80.49336,7.54273],[80.49342,7.5425],[80.49348,7.54188],[80.49347,7.54143],[80.49334,7.54042],[80.49329,7.53923],[80.49317,7.539],[80.4928,7.53857],[80.49276,7.53828],[80.49282,7.53814],[80.49295,7.53803],[80.4935,7.53806],[80.4936,7.53797],[80.4936,7.53783],[80.49349,7.53773],[80.49296,7.5375],[80.4927,7.53716],[80.49258,7.5371],[80.49245,7.5371],[80.49271,7.53763],[80.49239,7.5382],[80.49231,7.53818],[80.49183,7.53741],[80.49158,7.5374],[80.4913,7.53798]]]}},{"type":"Feature","properties":{"c":"farmland"},"geometry":{"type":"Polygon","coordinates":[[[80.51414,7.4933],[80.51474,7.49343],[80.51489,7.49296],[80.51444,7.49266],[80.51414,7.4933]]]}},{"type":"Feature","properties":{"c":"farmland"},"geometry":{"type":"Polygon","coordinates":[[[80.51845,7.49134],[80.51914,7.49126],[80.51909,7.49079],[80.51953,7.49073],[80.51946,7.49045],[80.51868,7.4906],[80.51848,7.49073],[80.51845,7.49134]]]}},{"type":"Feature","properties":{"c":"farmland"},"geometry":{"type":"Polygon","coordinates":[[[80.51909,7.49286],[80.51916,7.49312],[80.51929,7.4933],[80.51961,7.49321],[80.51974,7.49326],[80.52026,7.49302],[80.52011,7.49263],[80.51993,7.4924],[80.51982,7.49237],[80.51922,7.4926],[80.51909,7.49286]]]}},{"type":"Feature","properties":{"c":"farmland"},"geometry":{"type":"Polygon","coordinates":[[[80.51878,7.49181],[80.51882,7.49229],[80.51903,7.49272],[80.51909,7.4926],[80.51927,7.4925],[80.51982,7.49237],[80.51963,7.49198],[80.51957,7.49174],[80.51942,7.49169],[80.51939,7.49136],[80.51913,7.49135],[80.51892,7.49178],[80.51878,7.49181]]]}},{"type":"Feature","properties":{"c":"farmland"},"geometry":{"type":"Polygon","coordinates":[[[80.51622,7.49446],[80.51641,7.49455],[80.51667,7.4944],[80.51676,7.49458],[80.51689,7.49457],[80.51699,7.49467],[80.51705,7.49464],[80.51761,7.49481],[80.51757,7.49502],[80.51764,7.49507],[80.51772,7.49499],[80.51793,7.49502],[80.51808,7.49492],[80.51819,7.49475],[80.51836,7.49479],[80.51845,7.49501],[80.51907,7.49508],[80.51924,7.4953],[80.51939,7.49536],[80.5192,7.49492],[80.51927,7.49482],[80.5192,7.49473],[80.51923,7.49451],[80.51906,7.49427],[80.51919,7.49399],[80.51926,7.49399],[80.51921,7.49381],[80.51905,7.49374],[80.51928,7.4937],[80.51914,7.49323],[80.51625,7.49425],[80.51628,7.49439],[80.51622,7.49446]]]}},{"type":"Feature","properties":{"c":"farmland"},"geometry":{"type":"Polygon","coordinates":[[[80.51441,7.49242],[80.51456,7.49247],[80.51452,7.49264],[80.51464,7.49271],[80.51477,7.4927],[80.51474,7.49278],[80.51505,7.49305],[80.51495,7.49345],[80.51498,7.4935],[80.51533,7.49354],[80.51536,7.49386],[80.51625,7.49425],[80.51914,7.49323],[80.51911,7.49303],[80.519,7.49299],[80.51899,7.49273],[80.51876,7.49232],[80.51875,7.49146],[80.51869,7.49137],[80.51851,7.4914],[80.51851,7.49149],[80.51779,7.49184],[80.51745,7.49188],[80.51723,7.492],[80.51683,7.4921],[80.51664,7.4924],[80.51578,7.49234],[80.51538,7.49217],[80.51515,7.49214],[80.51494,7.49203],[80.51469,7.49199],[80.51465,7.4921],[80.51453,7.49207],[80.51445,7.49219],[80.51441,7.49242]]]}},{"type":"Feature","properties":{"c":"farmland"},"geometry":{"type":"Polygon","coordinates":[[[80.51536,7.49386],[80.51539,7.49404],[80.51563,7.49423],[80.51588,7.49434],[80.51625,7.49425],[80.51536,7.49386]]]}},{"type":"Feature","properties":{"c":"farmland"},"geometry":{"type":"Polygon","coordinates":[[[80.5146,7.49027],[80.51499,7.49056],[80.51509,7.49052],[80.51512,7.49043],[80.51529,7.49044],[80.51523,7.49054],[80.51515,7.49056],[80.51507,7.4912],[80.51517,7.49122],[80.51498,7.49195],[80.51522,7.49206],[80.51579,7.49222],[80.51656,7.49228],[80.51681,7.49197],[80.51713,7.49194],[80.51736,7.49182],[80.51777,7.49175],[80.51828,7.49148],[80.51829,7.49142],[80.51802,7.49146],[80.51795,7.4914],[80.5179,7.49113],[80.51801,7.49097],[80.51798,7.49089],[80.51808,7.49083],[80.51808,7.49073],[80.51775,7.49056],[80.5177,7.49045],[80.51773,7.49033],[80.51741,7.48958],[80.51736,7.48924],[80.51739,7.48912],[80.51749,7.489],[80.51752,7.48903],[80.51767,7.4888],[80.51765,7.48849],[80.51752,7.48848],[80.51732,7.48838],[80.51717,7.48834],[80.51699,7.48839],[80.51661,7.48827],[80.51642,7.48849],[80.51633,7.48854],[80.5162,7.48838],[80.51606,7.48832],[80.51579,7.48845],[80.51551,7.48838],[80.51539,7.48849],[80.51534,7.48872],[80.51538,7.48892],[80.51553,7.48893],[80.51564,7.48907],[80.51601,7.48917],[80.51596,7.48931],[80.51588,7.48933],[80.5159,7.48955],[80.51582,7.48983],[80.51571,7.48985],[80.51561,7.48999],[80.51543,7.49002],[80.51528,7.49015],[80.51524,7.49031],[80.515,7.49025],[80.51475,7.49013],[80.51469,7.49014],[80.5146,7.49027]]]}},{"type":"Feature","properties":{"c":"farmland"},"geometry":{"type":"Polygon","coordinates":[[[80.51888,7.48626],[80.51928,7.48631],[80.51925,7.48602],[80.51936,7.486],[80.51934,7.48581],[80.51967,7.4857],[80.51976,7.48601],[80.51989,7.48611],[80.52,7.48608],[80.52002,7.48601],[80.52017,7.48604],[80.52015,7.48613],[80.52031,7.48616],[80.52056,7.48555],[80.52048,7.48552],[80.5205,7.48541],[80.52047,7.48534],[80.52022,7.4853],[80.52017,7.48504],[80.51955,7.48509],[80.51956,7.48519],[80.51949,7.48528],[80.51951,7.48542],[80.51943,7.48551],[80.51932,7.48552],[80.51932,7.48573],[80.51916,7.48558],[80.51901,7.48595],[80.51894,7.486],[80.51888,7.48626]]]}},{"type":"Feature","properties":{"c":"farmland"},"geometry":{"type":"Polygon","coordinates":[[[80.51654,7.48807],[80.51666,7.48819],[80.51679,7.48808],[80.51757,7.48849],[80.51782,7.48839],[80.51808,7.48842],[80.51808,7.48896],[80.51813,7.48934],[80.51824,7.48962],[80.51878,7.48931],[80.51882,7.48981],[80.51867,7.48984],[80.51873,7.49013],[80.5192,7.49015],[80.5195,7.49001],[80.51934,7.48985],[80.5194,7.48972],[80.51928,7.48947],[80.51926,7.48934],[80.51937,7.4893],[80.51919,7.48873],[80.51908,7.48868],[80.51873,7.48871],[80.51867,7.4883],[80.51921,7.4883],[80.51919,7.48681],[80.51864,7.48673],[80.51853,7.48666],[80.51856,7.48635],[80.51825,7.48636],[80.51753,7.4865],[80.51731,7.48642],[80.5173,7.48662],[80.51716,7.48693],[80.51699,7.48715],[80.51669,7.48739],[80.51679,7.4876],[80.51654,7.48807]]]}},{"type":"Feature","properties":{"c":"farmland"},"geometry":{"type":"Polygon","coordinates":[[[80.51585,7.48418],[80.51591,7.48447],[80.51622,7.48449],[80.51663,7.48427],[80.51674,7.48412],[80.51688,7.48416],[80.51681,7.48398],[80.51698,7.48396],[80.51718,7.48477],[80.51737,7.48471],[80.51746,7.48426],[80.51879,7.48422],[80.51895,7.48371],[80.51902,7.48319],[80.5193,7.48198],[80.51901,7.4819],[80.5187,7.48201],[80.51864,7.48209],[80.5187,7.48237],[80.51852,7.48237],[80.51852,7.48221],[80.51812,7.4826],[80.51794,7.48255],[80.51764,7.4826],[80.51727,7.48222],[80.51711,7.48226],[80.517,7.48201],[80.51687,7.48226],[80.51675,7.48226],[80.51674,7.48255],[80.51666,7.48289],[80.51673,7.48321],[80.51648,7.48367],[80.51631,7.48377],[80.51623,7.48408],[80.51585,7.48418]]]}},{"type":"Feature","properties":{"c":"farmland"},"geometry":{"type":"Polygon","coordinates":[[[80.51313,7.47872],[80.51332,7.47895],[80.51348,7.47901],[80.51361,7.47915],[80.51368,7.47909],[80.51373,7.47919],[80.51383,7.4791],[80.51402,7.47923],[80.51384,7.47947],[80.51389,7.47957],[80.51404,7.47959],[80.51405,7.4795],[80.51419,7.47957],[80.51437,7.47955],[80.51446,7.47968],[80.5146,7.47972],[80.51468,7.4796],[80.51462,7.47944],[80.51465,7.47934],[80.51472,7.47929],[80.51479,7.47926],[80.51488,7.47938],[80.51515,7.47944],[80.51516,7.47932],[80.51524,7.47934],[80.51526,7.47889],[80.51531,7.47874],[80.51522,7.47872],[80.51516,7.47859],[80.51506,7.47855],[80.51501,7.4783],[80.51494,7.47822],[80.51454,7.47824],[80.51452,7.47794],[80.51423,7.47815],[80.51385,7.47825],[80.51364,7.47827],[80.51335,7.47804],[80.51322,7.47825],[80.51331,7.47838],[80.5133,7.47847],[80.51323,7.47848],[80.51313,7.47872]]]}},{"type":"Feature","properties":{"c":"farmland"},"geometry":{"type":"Polygon","coordinates":[[[80.51036,7.48878],[80.51057,7.48892],[80.51052,7.48913],[80.51081,7.4896],[80.51087,7.48987],[80.51101,7.48998],[80.51101,7.49019],[80.51094,7.49018],[80.51083,7.49026],[80.51083,7.49046],[80.5109,7.49063],[80.51129,7.49102],[80.51155,7.49118],[80.51171,7.49122],[80.51178,7.49106],[80.51195,7.49107],[80.51229,7.49092],[80.51227,7.49079],[80.51216,7.49069],[80.51231,7.49041],[80.51314,7.49054],[80.51308,7.49072],[80.5133,7.49081],[80.51331,7.49069],[80.51364,7.49039],[80.51416,7.49038],[80.51433,7.48929],[80.51375,7.48922],[80.51381,7.48903],[80.51376,7.48892],[80.51359,7.48878],[80.51339,7.48877],[80.51338,7.48868],[80.51317,7.4887],[80.5128,7.48839],[80.51214,7.48837],[80.51134,7.48851],[80.51135,7.4886],[80.5111,7.48869],[80.51077,7.48833],[80.51042,7.4886],[80.51036,7.48878]]]}},{"type":"Feature","properties":{"c":"farmland"},"geometry":{"type":"Polygon","coordinates":[[[80.51923,7.4782],[80.51951,7.47889],[80.51964,7.47896],[80.51986,7.47892],[80.51992,7.47878],[80.51987,7.47873],[80.51997,7.47835],[80.51989,7.47811],[80.5197,7.478],[80.51923,7.4782]]]}},{"type":"Feature","properties":{"c":"farmland"},"geometry":{"type":"Polygon","coordinates":[[[80.50234,7.53068],[80.50245,7.53109],[80.50295,7.53114],[80.50293,7.53159],[80.50317,7.53177],[80.50326,7.53162],[80.50328,7.53112],[80.5034,7.53091],[80.50365,7.53059],[80.50382,7.53024],[80.50458,7.52954],[80.50429,7.52932],[80.50386,7.53003],[80.50379,7.52997],[80.50347,7.53031],[80.50348,7.53049],[80.50329,7.53054],[80.50269,7.53086],[80.50248,7.53065],[80.50234,7.53068]]]}},{"type":"Feature","properties":{"c":"farmland"},"geometry":{"type":"Polygon","coordinates":[[[80.50307,7.52946],[80.50322,7.52961],[80.50345,7.52953],[80.50385,7.52953],[80.50393,7.52945],[80.50407,7.52946],[80.50422,7.52937],[80.50421,7.52919],[80.50414,7.52904],[80.50389,7.5291],[80.50379,7.52918],[80.50344,7.52923],[80.50334,7.5292],[80.50309,7.52938],[80.50307,7.52946]]]}},{"type":"Feature","properties":{"c":"farmland"},"geometry":{"type":"Polygon","coordinates":[[[80.50635,7.52854],[80.50753,7.52882],[80.50756,7.52872],[80.50744,7.52873],[80.50732,7.52864],[80.50748,7.52818],[80.50744,7.52807],[80.50729,7.52791],[80.5072,7.52808],[80.50688,7.528],[80.50675,7.52786],[80.50666,7.5279],[80.50662,7.52804],[80.50666,7.52823],[80.5065,7.52842],[80.50641,7.52839],[80.50635,7.52854]]]}},{"type":"Feature","properties":{"c":"farmland"},"geometry":{"type":"Polygon","coordinates":[[[80.50628,7.5263],[80.5068,7.52648],[80.50667,7.52679],[80.50712,7.52705],[80.50725,7.52727],[80.5072,7.52736],[80.50731,7.52768],[80.50748,7.52768],[80.5077,7.52776],[80.50791,7.52803],[80.50801,7.52804],[80.5081,7.52814],[80.50814,7.52821],[80.50808,7.52836],[80.50821,7.52846],[80.50833,7.5288],[80.50823,7.52893],[80.50943,7.52907],[80.50986,7.52933],[80.50994,7.52933],[80.51005,7.52895],[80.51019,7.52875],[80.51019,7.52855],[80.5103,7.52838],[80.51032,7.52817],[80.51046,7.52773],[80.51039,7.52747],[80.51024,7.52718],[80.5101,7.52662],[80.50976,7.52672],[80.50966,7.52641],[80.50972,7.52617],[80.50953,7.52578],[80.50991,7.52514],[80.50992,7.52496],[80.50983,7.52483],[80.50961,7.52476],[80.50914,7.52443],[80.50932,7.52428],[80.50933,7.52411],[80.50925,7.52399],[80.50849,7.52379],[80.50847,7.52394],[80.50871,7.52395],[80.50861,7.52422],[80.50837,7.5243],[80.50823,7.5246],[80.50809,7.52464],[80.50792,7.52491],[80.50785,7.52522],[80.50754,7.52563],[80.50747,7.52581],[80.50761,7.52599],[80.50747,7.5263],[80.50737,7.52637],[80.50705,7.52637],[80.5068,7.52614],[80.50636,7.52609],[80.50628,7.5263]]]}},{"type":"Feature","properties":{"c":"farmland"},"geometry":{"type":"Polygon","coordinates":[[[80.5057,7.52915],[80.50622,7.52939],[80.50656,7.52946],[80.50694,7.52947],[80.50699,7.52926],[80.50689,7.52918],[80.50675,7.52917],[80.50676,7.52904],[80.50717,7.5291],[80.50793,7.5294],[80.50818,7.52935],[80.50823,7.52904],[80.50802,7.52891],[80.50763,7.52891],[80.50641,7.52867],[80.50587,7.52844],[80.50576,7.52853],[80.5057,7.52915]]]}},{"type":"Feature","properties":{"c":"farmland"},"geometry":{"type":"Polygon","coordinates":[[[80.51383,7.53135],[80.51386,7.53147],[80.51398,7.5315],[80.51423,7.53169],[80.5147,7.53185],[80.5149,7.53156],[80.51479,7.53142],[80.515,7.53137],[80.51514,7.53125],[80.51535,7.53073],[80.51499,7.53044],[80.51483,7.53025],[80.51464,7.53029],[80.51424,7.5305],[80.51404,7.53069],[80.514,7.53092],[80.51383,7.53135]]]}},{"type":"Feature","properties":{"c":"farmland"},"geometry":{"type":"Polygon","coordinates":[[[80.51439,7.53457],[80.51476,7.53466],[80.51493,7.5349],[80.51558,7.535],[80.51712,7.53553],[80.51754,7.53558],[80.51797,7.53553],[80.5181,7.53563],[80.5184,7.53563],[80.51847,7.53549],[80.51843,7.53544],[80.51855,7.53535],[80.51867,7.53512],[80.51867,7.53469],[80.51874,7.5345],[80.51886,7.53428],[80.51918,7.53389],[80.51899,7.53366],[80.51802,7.53315],[80.51771,7.53327],[80.51746,7.53352],[80.51738,7.53369],[80.51747,7.53401],[80.51744,7.53428],[80.51733,7.53428],[80.51709,7.53447],[80.51687,7.53444],[80.51675,7.53456],[80.51675,7.53471],[80.51609,7.53452],[80.51594,7.53458],[80.51449,7.53442],[80.5144,7.53444],[80.51439,7.53457]]]}},{"type":"Feature","properties":{"c":"residential"},"geometry":{"type":"Polygon","coordinates":[[[80.46188,7.50589],[80.46202,7.50594],[80.46206,7.50583],[80.46194,7.50578],[80.46188,7.50589]]]}},{"type":"Feature","properties":{"c":"residential"},"geometry":{"type":"Polygon","coordinates":[[[80.46227,7.50597],[80.46229,7.50609],[80.46249,7.50607],[80.46248,7.50595],[80.46227,7.50597]]]}},{"type":"Feature","properties":{"c":"residential"},"geometry":{"type":"Polygon","coordinates":[[[80.46235,7.50564],[80.46251,7.50565],[80.46252,7.50551],[80.46236,7.50551],[80.46235,7.50564]]]}},{"type":"Feature","properties":{"c":"residential"},"geometry":{"type":"Polygon","coordinates":[[[80.46224,7.505],[80.46229,7.50513],[80.46239,7.50512],[80.46236,7.50498],[80.46224,7.505]]]}},{"type":"Feature","properties":{"c":"residential"},"geometry":{"type":"Polygon","coordinates":[[[80.46603,7.50328],[80.46611,7.50329],[80.46611,7.50321],[80.46603,7.50322],[80.46603,7.50328]]]}},{"type":"Feature","properties":{"c":"residential"},"geometry":{"type":"Polygon","coordinates":[[[80.46615,7.50327],[80.46616,7.50336],[80.46625,7.50336],[80.46624,7.50324],[80.46615,7.50327]]]}},{"type":"Feature","properties":{"c":"residential"},"geometry":{"type":"Polygon","coordinates":[[[80.46616,7.50352],[80.46617,7.5036],[80.46626,7.5036],[80.46627,7.50351],[80.46616,7.50352]]]}},{"type":"Feature","properties":{"c":"residential"},"geometry":{"type":"Polygon","coordinates":[[[80.46636,7.50317],[80.46636,7.50324],[80.46647,7.50326],[80.46646,7.50317],[80.46636,7.50317]]]}},{"type":"Feature","properties":{"c":"residential"},"geometry":{"type":"Polygon","coordinates":[[[80.46654,7.50316],[80.46655,7.50326],[80.46661,7.50324],[80.46662,7.50315],[80.46654,7.50316]]]}},{"type":"Feature","properties":{"c":"residential"},"geometry":{"type":"Polygon","coordinates":[[[80.46643,7.50349],[80.46653,7.50347],[80.46653,7.50341],[80.46643,7.50344],[80.46643,7.50349]]]}},{"type":"Feature","properties":{"c":"residential"},"geometry":{"type":"Polygon","coordinates":[[[80.46456,7.50335],[80.46457,7.50343],[80.46468,7.50342],[80.46468,7.50335],[80.46456,7.50335]]]}},{"type":"Feature","properties":{"c":"residential"},"geometry":{"type":"Polygon","coordinates":[[[80.45807,7.50337],[80.45816,7.50337],[80.45816,7.50325],[80.45808,7.50324],[80.45807,7.50337]]]}},{"type":"Feature","properties":{"c":"residential"},"geometry":{"type":"Polygon","coordinates":[[[80.45821,7.5033],[80.45821,7.50339],[80.45828,7.50337],[80.45828,7.5033],[80.45821,7.5033]]]}},{"type":"Feature","properties":{"c":"residential"},"geometry":{"type":"Polygon","coordinates":[[[80.45836,7.50327],[80.45836,7.50336],[80.45847,7.50336],[80.45847,7.50325],[80.45836,7.50327]]]}},{"type":"Feature","properties":{"c":"residential"},"geometry":{"type":"Polygon","coordinates":[[[80.45858,7.50337],[80.45874,7.50337],[80.45873,7.50323],[80.45859,7.50324],[80.45858,7.50337]]]}},{"type":"Feature","properties":{"c":"residential"},"geometry":{"type":"Polygon","coordinates":[[[80.45893,7.50319],[80.45894,7.50333],[80.45901,7.50332],[80.45901,7.50319],[80.45893,7.50319]]]}},{"type":"Feature","properties":{"c":"residential"},"geometry":{"type":"Polygon","coordinates":[[[80.45913,7.50318],[80.45913,7.50331],[80.45925,7.50331],[80.45923,7.50318],[80.45913,7.50318]]]}},{"type":"Feature","properties":{"c":"residential"},"geometry":{"type":"Polygon","coordinates":[[[80.45937,7.50321],[80.45947,7.50321],[80.45947,7.50313],[80.45937,7.50312],[80.45937,7.50321]]]}},{"type":"Feature","properties":{"c":"residential"},"geometry":{"type":"Polygon","coordinates":[[[80.45885,7.50364],[80.45894,7.50364],[80.45895,7.50352],[80.45886,7.50353],[80.45885,7.50364]]]}},{"type":"Feature","properties":{"c":"residential"},"geometry":{"type":"Polygon","coordinates":[[[80.45859,7.50358],[80.45871,7.50359],[80.45872,7.50352],[80.4586,7.50352],[80.45859,7.50358]]]}},{"type":"Feature","properties":{"c":"residential"},"geometry":{"type":"Polygon","coordinates":[[[80.45824,7.50365],[80.45839,7.50365],[80.45836,7.50356],[80.45825,7.50358],[80.45824,7.50365]]]}},{"type":"Feature","properties":{"c":"residential"},"geometry":{"type":"Polygon","coordinates":[[[80.45788,7.50459],[80.4579,7.50467],[80.45798,7.50466],[80.45797,7.50457],[80.45788,7.50459]]]}},{"type":"Feature","properties":{"c":"residential"},"geometry":{"type":"Polygon","coordinates":[[[80.45796,7.50431],[80.45799,7.50441],[80.45805,7.5044],[80.45805,7.50431],[80.45796,7.50431]]]}},{"type":"Feature","properties":{"c":"residential"},"geometry":{"type":"Polygon","coordinates":[[[80.45811,7.50429],[80.45812,7.50438],[80.45822,7.50434],[80.4582,7.50428],[80.45811,7.50429]]]}},{"type":"Feature","properties":{"c":"residential"},"geometry":{"type":"Polygon","coordinates":[[[80.45838,7.50451],[80.45839,7.50459],[80.45849,7.50458],[80.45849,7.50451],[80.45838,7.50451]]]}},{"type":"Feature","properties":{"c":"residential"},"geometry":{"type":"Polygon","coordinates":[[[80.45855,7.50486],[80.45865,7.50489],[80.45866,7.50478],[80.45855,7.5048],[80.45855,7.50486]]]}},{"type":"Feature","properties":{"c":"residential"},"geometry":{"type":"Polygon","coordinates":[[[80.4582,7.50498],[80.4582,7.50506],[80.45831,7.50507],[80.45831,7.50497],[80.4582,7.50498]]]}},{"type":"Feature","properties":{"c":"residential"},"geometry":{"type":"Polygon","coordinates":[[[80.45761,7.50412],[80.4577,7.50413],[80.45769,7.504],[80.45763,7.50399],[80.45761,7.50412]]]}}]}